#DEBUG: Format Typ    -> comma
#DEBUG: Time Period   -> 2017-02-03 00:00:00+00:00 2017-02-12 00:00:00+00:00
#DEBUG: Time Zone     -> Etc/UTC
#DEBUG: Data Contact   -> daryl herzmann akrherz@iastate.edu 515-294-5978
#DEBUG: Entries Found -> -1
station,valid,tmpf, dwpf, relh, drct, sknt, p01i, alti, mslp, vsby, gust, skyc1, skyc2, skyc3, skyc4, skyl1, skyl2, skyl3, skyl4, presentwx, metar
CMI,2017-02-03 00:00,M,M,M,300.00,11.00,M,30.40,M,10.00,M,CLR,M,M,M,M,M,M,M,M,KCMI 030000Z AUTO 30011KT 10SM CLR A3040 RMK MADISHF
CMI,2017-02-03 00:05,M,M,M,310.00,11.00,M,30.40,M,10.00,M,CLR,M,M,M,M,M,M,M,M,KCMI 030005Z AUTO 31011KT 10SM CLR A3040 RMK MADISHF
CMI,2017-02-03 00:10,M,M,M,310.00,10.00,M,30.40,M,10.00,M,CLR,M,M,M,M,M,M,M,M,KCMI 030010Z AUTO 31010KT 10SM CLR A3040 RMK MADISHF
CMI,2017-02-03 00:15,M,M,M,300.00,10.00,M,30.40,M,10.00,M,CLR,M,M,M,M,M,M,M,M,KCMI 030015Z AUTO 30010KT 10SM CLR A3040 RMK MADISHF
CMI,2017-02-03 00:20,M,M,M,300.00,9.00,M,30.40,M,10.00,M,CLR,M,M,M,M,M,M,M,M,KCMI 030020Z AUTO 30009KT 10SM CLR A3040 RMK MADISHF
CMI,2017-02-03 00:25,M,M,M,310.00,11.00,M,30.40,M,10.00,M,CLR,M,M,M,M,M,M,M,M,KCMI 030025Z AUTO 31011KT 10SM CLR A3040 RMK MADISHF
CMI,2017-02-03 00:30,M,M,M,310.00,9.00,M,30.40,M,10.00,M,CLR,M,M,M,M,M,M,M,M,KCMI 030030Z AUTO 31009KT 10SM CLR A3040 RMK MADISHF
CMI,2017-02-03 00:35,M,M,M,300.00,9.00,M,30.40,M,10.00,M,CLR,M,M,M,M,M,M,M,M,KCMI 030035Z AUTO 30009KT 10SM CLR A3040 RMK MADISHF
CMI,2017-02-03 00:40,M,M,M,300.00,10.00,M,30.41,M,10.00,M,CLR,M,M,M,M,M,M,M,M,KCMI 030040Z AUTO 30010KT 10SM CLR A3041 RMK MADISHF
CMI,2017-02-03 00:45,M,M,M,300.00,9.00,M,30.40,M,10.00,M,CLR,M,M,M,M,M,M,M,M,KCMI 030045Z AUTO 30009KT 10SM CLR A3040 RMK MADISHF
CMI,2017-02-03 00:50,M,M,M,310.00,8.00,M,30.40,M,10.00,M,CLR,M,M,M,M,M,M,M,M,KCMI 030050Z AUTO 31008KT 10SM CLR A3040 RMK MADISHF
CMI,2017-02-03 00:53,25.00,12.00,57.23,300.00,8.00,0.00,30.40,1030.70,10.00,M,CLR,M,M,M,M,M,M,M,M,KCMI 030053Z 30008KT 10SM CLR M04/M11 A3040 RMK AO2 SLP307 T10391111
CMI,2017-02-03 00:55,M,M,M,300.00,9.00,M,30.40,M,10.00,M,CLR,M,M,M,M,M,M,M,M,KCMI 030055Z AUTO 30009KT 10SM CLR A3040 RMK MADISHF
CMI,2017-02-03 01:00,M,M,M,300.00,9.00,M,30.40,M,10.00,M,CLR,M,M,M,M,M,M,M,M,KCMI 030100Z AUTO 30009KT 10SM CLR A3040 RMK MADISHF
CMI,2017-02-03 01:05,M,M,M,300.00,9.00,M,30.40,M,10.00,M,CLR,M,M,M,M,M,M,M,M,KCMI 030105Z AUTO 30009KT 10SM CLR A3040 RMK MADISHF
CMI,2017-02-03 01:10,M,M,M,310.00,9.00,M,30.40,M,10.00,M,CLR,M,M,M,M,M,M,M,M,KCMI 030110Z AUTO 31009KT 10SM CLR A3040 RMK MADISHF
CMI,2017-02-03 01:15,M,M,M,310.00,8.00,M,30.40,M,10.00,M,CLR,M,M,M,M,M,M,M,M,KCMI 030115Z AUTO 31008KT 10SM CLR A3040 RMK MADISHF
CMI,2017-02-03 01:20,M,M,M,300.00,9.00,M,30.40,M,10.00,M,CLR,M,M,M,M,M,M,M,M,KCMI 030120Z AUTO 30009KT 10SM CLR A3040 RMK MADISHF
CMI,2017-02-03 01:25,M,M,M,310.00,9.00,M,30.40,M,10.00,M,CLR,M,M,M,M,M,M,M,M,KCMI 030125Z AUTO 31009KT 10SM CLR A3040 RMK MADISHF
CMI,2017-02-03 01:30,M,M,M,300.00,10.00,M,30.40,M,10.00,M,CLR,M,M,M,M,M,M,M,M,KCMI 030130Z AUTO 30010KT 10SM CLR A3040 RMK MADISHF
CMI,2017-02-03 01:35,M,M,M,300.00,10.00,M,30.40,M,10.00,M,CLR,M,M,M,M,M,M,M,M,KCMI 030135Z AUTO 30010KT 10SM CLR A3040 RMK MADISHF
CMI,2017-02-03 01:40,M,M,M,300.00,9.00,M,30.40,M,10.00,M,CLR,M,M,M,M,M,M,M,M,KCMI 030140Z AUTO 30009KT 10SM CLR A3040 RMK MADISHF
CMI,2017-02-03 01:45,M,M,M,300.00,9.00,M,30.40,M,10.00,M,CLR,M,M,M,M,M,M,M,M,KCMI 030145Z AUTO 30009KT 10SM CLR A3040 RMK MADISHF
CMI,2017-02-03 01:50,M,M,M,300.00,10.00,M,30.40,M,10.00,M,CLR,M,M,M,M,M,M,M,M,KCMI 030150Z AUTO 30010KT 10SM CLR A3040 RMK MADISHF
CMI,2017-02-03 01:53,24.10,10.90,56.59,290.00,9.00,0.00,30.40,1030.50,10.00,M,CLR,M,M,M,M,M,M,M,M,KCMI 030153Z 29009KT 10SM CLR M04/M12 A3040 RMK AO2 SLP305 T10441117
CMI,2017-02-03 01:55,M,M,M,300.00,9.00,M,30.40,M,10.00,M,CLR,M,M,M,M,M,M,M,M,KCMI 030155Z AUTO 30009KT 10SM CLR A3040 RMK MADISHF
CMI,2017-02-03 02:00,M,M,M,300.00,8.00,M,30.40,M,10.00,M,CLR,M,M,M,M,M,M,M,M,KCMI 030200Z AUTO 30008KT 10SM CLR A3040 RMK MADISHF
CMI,2017-02-03 02:05,M,M,M,290.00,8.00,M,30.40,M,10.00,M,CLR,M,M,M,M,M,M,M,M,KCMI 030205Z AUTO 29008KT 10SM CLR A3040 RMK MADISHF
CMI,2017-02-03 02:10,M,M,M,300.00,8.00,M,30.40,M,10.00,M,CLR,M,M,M,M,M,M,M,M,KCMI 030210Z AUTO 30008KT 10SM CLR A3040 RMK MADISHF
CMI,2017-02-03 02:15,M,M,M,300.00,7.00,M,30.40,M,10.00,M,CLR,M,M,M,M,M,M,M,M,KCMI 030215Z AUTO 30007KT 10SM CLR A3040 RMK MADISHF
CMI,2017-02-03 02:20,M,M,M,300.00,9.00,M,30.40,M,10.00,M,CLR,M,M,M,M,M,M,M,M,KCMI 030220Z AUTO 30009KT 10SM CLR A3040 RMK MADISHF
CMI,2017-02-03 02:25,M,M,M,300.00,9.00,M,30.40,M,10.00,M,CLR,M,M,M,M,M,M,M,M,KCMI 030225Z AUTO 30009KT 10SM CLR A3040 RMK MADISHF
CMI,2017-02-03 02:30,M,M,M,300.00,8.00,M,30.40,M,10.00,M,CLR,M,M,M,M,M,M,M,M,KCMI 030230Z AUTO 30008KT 10SM CLR A3040 RMK MADISHF
CMI,2017-02-03 02:35,M,M,M,290.00,8.00,M,30.41,M,10.00,M,CLR,M,M,M,M,M,M,M,M,KCMI 030235Z AUTO 29008KT 10SM CLR A3041 RMK MADISHF
CMI,2017-02-03 02:40,M,M,M,300.00,8.00,M,30.41,M,10.00,M,CLR,M,M,M,M,M,M,M,M,KCMI 030240Z AUTO 30008KT 10SM CLR A3041 RMK MADISHF
CMI,2017-02-03 02:45,M,M,M,300.00,8.00,M,30.41,M,10.00,M,CLR,M,M,M,M,M,M,M,M,KCMI 030245Z AUTO 30008KT 10SM CLR A3041 RMK MADISHF
CMI,2017-02-03 02:50,M,M,M,320.00,8.00,M,30.41,M,10.00,M,CLR,M,M,M,M,M,M,M,M,KCMI 030250Z AUTO 32008KT 10SM CLR A3041 RMK MADISHF
CMI,2017-02-03 02:53,21.90,12.90,67.82,330.00,8.00,0.00,30.41,1030.80,10.00,M,CLR,M,M,M,M,M,M,M,M,KCMI 030253Z 33008KT 10SM CLR M06/M11 A3041 RMK AO2 SLP308 T10561106 53004
CMI,2017-02-03 02:55,M,M,M,320.00,7.00,M,30.41,M,10.00,M,CLR,M,M,M,M,M,M,M,M,KCMI 030255Z AUTO 32007KT 10SM CLR A3041 RMK MADISHF
CMI,2017-02-03 03:00,M,M,M,320.00,7.00,M,30.41,M,10.00,M,CLR,M,M,M,M,M,M,M,M,KCMI 030300Z AUTO 32007KT 10SM CLR A3041 RMK MADISHF
CMI,2017-02-03 03:05,M,M,M,320.00,7.00,M,30.41,M,10.00,M,CLR,M,M,M,M,M,M,M,M,KCMI 030305Z AUTO 32007KT 10SM CLR A3041 RMK MADISHF
CMI,2017-02-03 03:10,M,M,M,320.00,7.00,M,30.41,M,10.00,M,CLR,M,M,M,M,M,M,M,M,KCMI 030310Z AUTO 32007KT 10SM CLR A3041 RMK MADISHF
CMI,2017-02-03 03:15,M,M,M,320.00,6.00,M,30.41,M,10.00,M,CLR,M,M,M,M,M,M,M,M,KCMI 030315Z AUTO 32006KT 10SM CLR A3041 RMK MADISHF
CMI,2017-02-03 03:20,M,M,M,320.00,7.00,M,30.41,M,10.00,M,CLR,M,M,M,M,M,M,M,M,KCMI 030320Z AUTO 32007KT 10SM CLR A3041 RMK MADISHF
CMI,2017-02-03 03:25,M,M,M,320.00,7.00,M,30.41,M,10.00,M,CLR,M,M,M,M,M,M,M,M,KCMI 030325Z AUTO 32007KT 10SM CLR A3041 RMK MADISHF
CMI,2017-02-03 03:30,M,M,M,320.00,6.00,M,30.41,M,10.00,M,CLR,M,M,M,M,M,M,M,M,KCMI 030330Z AUTO 32006KT 10SM CLR A3041 RMK MADISHF
CMI,2017-02-03 03:35,M,M,M,320.00,8.00,M,30.41,M,10.00,M,CLR,M,M,M,M,M,M,M,M,KCMI 030335Z AUTO 32008KT 10SM CLR A3041 RMK MADISHF
CMI,2017-02-03 03:40,M,M,M,320.00,8.00,M,30.41,M,10.00,M,CLR,M,M,M,M,M,M,M,M,KCMI 030340Z AUTO 32008KT 10SM CLR A3041 RMK MADISHF
CMI,2017-02-03 03:45,M,M,M,320.00,8.00,M,30.41,M,10.00,M,CLR,M,M,M,M,M,M,M,M,KCMI 030345Z AUTO 32008KT 10SM CLR A3041 RMK MADISHF
CMI,2017-02-03 03:50,M,M,M,320.00,8.00,M,30.41,M,10.00,M,CLR,M,M,M,M,M,M,M,M,KCMI 030350Z AUTO 32008KT 10SM CLR A3041 RMK MADISHF
CMI,2017-02-03 03:53,19.90,12.00,70.95,330.00,7.00,0.00,30.41,1030.80,10.00,M,CLR,M,M,M,M,M,M,M,M,KCMI 030353Z 33007KT 10SM CLR M07/M11 A3041 RMK AO2 SLP308 T10671111
CMI,2017-02-03 03:55,M,M,M,330.00,7.00,M,30.41,M,10.00,M,CLR,M,M,M,M,M,M,M,M,KCMI 030355Z AUTO 33007KT 10SM CLR A3041 RMK MADISHF
CMI,2017-02-03 04:00,M,M,M,330.00,6.00,M,30.40,M,10.00,M,CLR,M,M,M,M,M,M,M,M,KCMI 030400Z AUTO 33006KT 10SM CLR A3040 RMK MADISHF
CMI,2017-02-03 04:05,M,M,M,330.00,6.00,M,30.40,M,10.00,M,CLR,M,M,M,M,M,M,M,M,KCMI 030405Z AUTO 33006KT 10SM CLR A3040 RMK MADISHF
CMI,2017-02-03 04:10,M,M,M,330.00,7.00,M,30.40,M,10.00,M,CLR,M,M,M,M,M,M,M,M,KCMI 030410Z AUTO 33007KT 10SM CLR A3040 RMK MADISHF
CMI,2017-02-03 04:15,M,M,M,330.00,7.00,M,30.40,M,10.00,M,CLR,M,M,M,M,M,M,M,M,KCMI 030415Z AUTO 33007KT 10SM CLR A3040 RMK MADISHF
CMI,2017-02-03 04:20,M,M,M,320.00,8.00,M,30.40,M,10.00,M,CLR,M,M,M,M,M,M,M,M,KCMI 030420Z AUTO 32008KT 10SM CLR A3040 RMK MADISHF
CMI,2017-02-03 04:25,M,M,M,320.00,7.00,M,30.40,M,10.00,M,CLR,M,M,M,M,M,M,M,M,KCMI 030425Z AUTO 32007KT 10SM CLR A3040 RMK MADISHF
CMI,2017-02-03 04:30,M,M,M,320.00,8.00,M,30.40,M,10.00,M,CLR,M,M,M,M,M,M,M,M,KCMI 030430Z AUTO 32008KT 10SM CLR A3040 RMK MADISHF
CMI,2017-02-03 04:35,M,M,M,320.00,8.00,M,30.40,M,10.00,M,CLR,M,M,M,M,M,M,M,M,KCMI 030435Z AUTO 32008KT 10SM CLR A3040 RMK MADISHF
CMI,2017-02-03 04:40,M,M,M,320.00,7.00,M,30.40,M,10.00,M,CLR,M,M,M,M,M,M,M,M,KCMI 030440Z AUTO 32007KT 10SM CLR A3040 RMK MADISHF
CMI,2017-02-03 04:45,M,M,M,320.00,8.00,M,30.40,M,10.00,M,CLR,M,M,M,M,M,M,M,M,KCMI 030445Z AUTO 32008KT 10SM CLR A3040 RMK MADISHF
CMI,2017-02-03 04:50,M,M,M,320.00,8.00,M,30.40,M,10.00,M,CLR,M,M,M,M,M,M,M,M,KCMI 030450Z AUTO 32008KT 10SM CLR A3040 RMK MADISHF
CMI,2017-02-03 04:53,19.90,10.90,67.57,320.00,8.00,0.00,30.40,1030.60,10.00,M,CLR,M,M,M,M,M,M,M,M,KCMI 030453Z 32008KT 10SM CLR M07/M12 A3040 RMK AO2 SLP306 T10671117
CMI,2017-02-03 04:55,M,M,M,320.00,9.00,M,30.40,M,10.00,M,CLR,M,M,M,M,M,M,M,M,KCMI 030455Z AUTO 32009KT 10SM CLR A3040 RMK MADISHF
CMI,2017-02-03 05:00,M,M,M,320.00,9.00,M,30.40,M,10.00,M,CLR,M,M,M,M,M,M,M,M,KCMI 030500Z AUTO 32009KT 10SM CLR A3040 RMK MADISHF
CMI,2017-02-03 05:05,M,M,M,320.00,9.00,M,30.40,M,10.00,M,CLR,M,M,M,M,M,M,M,M,KCMI 030505Z AUTO 32009KT 10SM CLR A3040 RMK MADISHF
CMI,2017-02-03 05:10,M,M,M,320.00,8.00,M,30.39,M,10.00,M,CLR,M,M,M,M,M,M,M,M,KCMI 030510Z AUTO 32008KT 10SM CLR A3039 RMK MADISHF
CMI,2017-02-03 05:15,M,M,M,320.00,8.00,M,30.39,M,10.00,M,CLR,M,M,M,M,M,M,M,M,KCMI 030515Z AUTO 32008KT 10SM CLR A3039 RMK MADISHF
CMI,2017-02-03 05:20,M,M,M,320.00,7.00,M,30.39,M,10.00,M,CLR,M,M,M,M,M,M,M,M,KCMI 030520Z AUTO 32007KT 10SM CLR A3039 RMK MADISHF
CMI,2017-02-03 05:25,M,M,M,310.00,7.00,M,30.39,M,10.00,M,CLR,M,M,M,M,M,M,M,M,KCMI 030525Z AUTO 31007KT 10SM CLR A3039 RMK MADISHF
CMI,2017-02-03 05:30,M,M,M,310.00,8.00,M,30.39,M,10.00,M,CLR,M,M,M,M,M,M,M,M,KCMI 030530Z AUTO 31008KT 10SM CLR A3039 RMK MADISHF
CMI,2017-02-03 05:35,M,M,M,310.00,7.00,M,30.39,M,10.00,M,CLR,M,M,M,M,M,M,M,M,KCMI 030535Z AUTO 31007KT 10SM CLR A3039 RMK MADISHF
CMI,2017-02-03 05:40,M,M,M,310.00,7.00,M,30.39,M,10.00,M,CLR,M,M,M,M,M,M,M,M,KCMI 030540Z AUTO 31007KT 10SM CLR A3039 RMK MADISHF
CMI,2017-02-03 05:45,M,M,M,310.00,7.00,M,30.39,M,10.00,M,CLR,M,M,M,M,M,M,M,M,KCMI 030545Z AUTO 31007KT 10SM CLR A3039 RMK MADISHF
CMI,2017-02-03 05:50,M,M,M,310.00,7.00,M,30.39,M,10.00,M,CLR,M,M,M,M,M,M,M,M,KCMI 030550Z AUTO 31007KT 10SM CLR A3039 RMK MADISHF
CMI,2017-02-03 05:53,19.90,8.10,59.60,310.00,8.00,0.00,30.39,1030.20,10.00,M,CLR,M,M,M,M,M,M,M,M,KCMI 030553Z AUTO 31008KT 10SM CLR M07/M13 A3039 RMK AO2 SLP302 T10671133 11039 21072 410111072 58005
CMI,2017-02-03 05:55,M,M,M,310.00,8.00,M,30.39,M,10.00,M,CLR,M,M,M,M,M,M,M,M,KCMI 030555Z AUTO 31008KT 10SM CLR A3039 RMK MADISHF
CMI,2017-02-03 06:00,M,M,M,310.00,8.00,M,30.39,M,10.00,M,CLR,M,M,M,M,M,M,M,M,KCMI 030600Z AUTO 31008KT 10SM CLR A3039 RMK MADISHF
CMI,2017-02-03 06:05,M,M,M,310.00,8.00,M,30.39,M,10.00,M,CLR,M,M,M,M,M,M,M,M,KCMI 030605Z AUTO 31008KT 10SM CLR A3039 RMK MADISHF
CMI,2017-02-03 06:10,M,M,M,310.00,7.00,M,30.39,M,10.00,M,CLR,M,M,M,M,M,M,M,M,KCMI 030610Z AUTO 31007KT 10SM CLR A3039 RMK MADISHF
CMI,2017-02-03 06:15,M,M,M,310.00,9.00,M,30.39,M,10.00,M,CLR,M,M,M,M,M,M,M,M,KCMI 030615Z AUTO 31009KT 10SM CLR A3039 RMK MADISHF
CMI,2017-02-03 06:20,M,M,M,310.00,9.00,M,30.39,M,10.00,M,CLR,M,M,M,M,M,M,M,M,KCMI 030620Z AUTO 31009KT 10SM CLR A3039 RMK MADISHF
CMI,2017-02-03 06:25,M,M,M,310.00,8.00,M,30.39,M,10.00,M,CLR,M,M,M,M,M,M,M,M,KCMI 030625Z AUTO 31008KT 10SM CLR A3039 RMK MADISHF
CMI,2017-02-03 06:30,M,M,M,310.00,10.00,M,30.40,M,10.00,M,CLR,M,M,M,M,M,M,M,M,KCMI 030630Z AUTO 31010KT 10SM CLR A3040 RMK MADISHF
CMI,2017-02-03 06:35,M,M,M,310.00,11.00,M,30.40,M,10.00,M,FEW,M,M,M,12000.00,M,M,M,M,KCMI 030635Z AUTO 31011KT 10SM FEW120 A3040 RMK MADISHF
CMI,2017-02-03 06:40,M,M,M,310.00,10.00,M,30.39,M,10.00,M,SCT,M,M,M,11000.00,M,M,M,M,KCMI 030640Z AUTO 31010KT 10SM SCT110 A3039 RMK MADISHF
CMI,2017-02-03 06:45,M,M,M,310.00,11.00,M,30.39,M,10.00,M,SCT,M,M,M,11000.00,M,M,M,M,KCMI 030645Z AUTO 31011KT 10SM SCT110 A3039 RMK MADISHF
CMI,2017-02-03 06:50,M,M,M,320.00,8.00,M,30.39,M,10.00,M,BKN,M,M,M,11000.00,M,M,M,M,KCMI 030650Z AUTO 32008KT 10SM BKN110 A3039 RMK MADISHF
CMI,2017-02-03 06:53,21.00,10.00,61.95,320.00,10.00,0.00,30.39,1030.20,10.00,M,BKN,M,M,M,11000.00,M,M,M,M,KCMI 030653Z AUTO 32010KT 10SM BKN110 M06/M12 A3039 RMK AO2 SLP302 T10611122
CMI,2017-02-03 06:55,M,M,M,310.00,11.00,M,30.39,M,10.00,M,BKN,M,M,M,11000.00,M,M,M,M,KCMI 030655Z AUTO 31011KT 10SM BKN110 A3039 RMK MADISHF
CMI,2017-02-03 07:00,M,M,M,320.00,12.00,M,30.39,M,10.00,M,OVC,M,M,M,11000.00,M,M,M,M,KCMI 030700Z AUTO 32012KT 10SM OVC110 A3039 RMK MADISHF
CMI,2017-02-03 07:05,M,M,M,310.00,13.00,M,30.39,M,10.00,M,OVC,M,M,M,11000.00,M,M,M,M,KCMI 030705Z AUTO 31013KT 10SM OVC110 A3039 RMK MADISHF
CMI,2017-02-03 07:10,M,M,M,310.00,12.00,M,30.39,M,10.00,M,OVC,M,M,M,11000.00,M,M,M,M,KCMI 030710Z AUTO 31012KT 10SM OVC110 A3039 RMK MADISHF
CMI,2017-02-03 07:15,M,M,M,320.00,14.00,M,30.40,M,10.00,M,OVC,M,M,M,11000.00,M,M,M,M,KCMI 030715Z AUTO 32014KT 10SM OVC110 A3040 RMK MADISHF
CMI,2017-02-03 07:20,M,M,M,320.00,13.00,M,30.40,M,10.00,M,OVC,M,M,M,11000.00,M,M,M,M,KCMI 030720Z AUTO 32013KT 10SM OVC110 A3040 RMK MADISHF
CMI,2017-02-03 07:25,M,M,M,320.00,12.00,M,30.40,M,10.00,M,OVC,M,M,M,11000.00,M,M,M,M,KCMI 030725Z AUTO 32012KT 10SM OVC110 A3040 RMK MADISHF
CMI,2017-02-03 07:30,M,M,M,320.00,11.00,M,30.39,M,10.00,M,OVC,M,M,M,11000.00,M,M,M,M,KCMI 030730Z AUTO 32011KT 10SM OVC110 A3039 RMK MADISHF
CMI,2017-02-03 07:35,M,M,M,320.00,13.00,M,30.40,M,10.00,M,OVC,M,M,M,11000.00,M,M,M,M,KCMI 030735Z AUTO 32013KT 10SM OVC110 A3040 RMK MADISHF
CMI,2017-02-03 07:40,M,M,M,320.00,13.00,M,30.40,M,10.00,M,OVC,M,M,M,10000.00,M,M,M,M,KCMI 030740Z AUTO 32013KT 10SM OVC100 A3040 RMK MADISHF
CMI,2017-02-03 07:45,M,M,M,320.00,10.00,M,30.40,M,10.00,M,OVC,M,M,M,10000.00,M,M,M,M,KCMI 030745Z AUTO 32010KT 10SM OVC100 A3040 RMK MADISHF
CMI,2017-02-03 07:50,M,M,M,320.00,13.00,M,30.40,M,10.00,M,OVC,M,M,M,10000.00,M,M,M,M,KCMI 030750Z AUTO 32013KT 10SM OVC100 A3040 RMK MADISHF
CMI,2017-02-03 07:53,21.00,9.00,59.23,320.00,11.00,0.00,30.40,1030.50,10.00,M,OVC,M,M,M,10000.00,M,M,M,M,KCMI 030753Z AUTO 32011KT 10SM OVC100 M06/M13 A3040 RMK AO2 SLP305 T10611128
CMI,2017-02-03 07:55,M,M,M,320.00,12.00,M,30.40,M,10.00,M,OVC,M,M,M,10000.00,M,M,M,M,KCMI 030755Z AUTO 32012KT 10SM OVC100 A3040 RMK MADISHF
CMI,2017-02-03 08:00,M,M,M,330.00,13.00,M,30.40,M,10.00,M,OVC,M,M,M,10000.00,M,M,M,M,KCMI 030800Z AUTO 33013KT 10SM OVC100 A3040 RMK MADISHF
CMI,2017-02-03 08:05,M,M,M,330.00,12.00,M,30.40,M,10.00,M,OVC,M,M,M,10000.00,M,M,M,M,KCMI 030805Z AUTO 33012KT 10SM OVC100 A3040 RMK MADISHF
CMI,2017-02-03 08:10,M,M,M,330.00,13.00,M,30.40,M,10.00,M,OVC,M,M,M,10000.00,M,M,M,M,KCMI 030810Z AUTO 33013KT 10SM OVC100 A3040 RMK MADISHF
CMI,2017-02-03 08:15,M,M,M,330.00,11.00,M,30.40,M,10.00,M,OVC,M,M,M,10000.00,M,M,M,M,KCMI 030815Z AUTO 33011KT 10SM OVC100 A3040 RMK MADISHF
CMI,2017-02-03 08:20,M,M,M,330.00,12.00,M,30.40,M,10.00,M,OVC,M,M,M,10000.00,M,M,M,M,KCMI 030820Z AUTO 33012KT 10SM OVC100 A3040 RMK MADISHF
CMI,2017-02-03 08:25,M,M,M,340.00,12.00,M,30.40,M,10.00,M,OVC,M,M,M,10000.00,M,M,M,M,KCMI 030825Z AUTO 34012KT 10SM OVC100 A3040 RMK MADISHF
CMI,2017-02-03 08:30,M,M,M,330.00,12.00,M,30.40,M,10.00,M,OVC,M,M,M,10000.00,M,M,M,M,KCMI 030830Z AUTO 33012KT 10SM OVC100 A3040 RMK MADISHF
CMI,2017-02-03 08:35,M,M,M,330.00,11.00,M,30.40,M,10.00,M,OVC,M,M,M,11000.00,M,M,M,M,KCMI 030835Z AUTO 33011KT 10SM OVC110 A3040 RMK MADISHF
CMI,2017-02-03 08:40,M,M,M,320.00,12.00,M,30.40,M,10.00,M,OVC,M,M,M,11000.00,M,M,M,M,KCMI 030840Z AUTO 32012KT 10SM OVC110 A3040 RMK MADISHF
CMI,2017-02-03 08:45,M,M,M,320.00,13.00,M,30.40,M,10.00,M,OVC,M,M,M,11000.00,M,M,M,M,KCMI 030845Z AUTO 32013KT 10SM OVC110 A3040 RMK MADISHF
CMI,2017-02-03 08:50,M,M,M,320.00,12.00,M,30.40,M,10.00,M,OVC,M,M,M,11000.00,M,M,M,M,KCMI 030850Z AUTO 32012KT 10SM OVC110 A3040 RMK MADISHF
CMI,2017-02-03 08:53,19.90,9.00,62.07,330.00,13.00,0.00,30.40,1030.50,10.00,M,OVC,M,M,M,11000.00,M,M,M,M,KCMI 030853Z AUTO 33013KT 10SM OVC110 M07/M13 A3040 RMK AO2 SLP305 T10671128 50002
CMI,2017-02-03 08:55,M,M,M,330.00,12.00,M,30.40,M,10.00,M,OVC,M,M,M,11000.00,M,M,M,M,KCMI 030855Z AUTO 33012KT 10SM OVC110 A3040 RMK MADISHF
CMI,2017-02-03 09:00,M,M,M,330.00,12.00,M,30.40,M,10.00,M,OVC,M,M,M,11000.00,M,M,M,M,KCMI 030900Z AUTO 33012KT 10SM OVC110 A3040 RMK MADISHF
CMI,2017-02-03 09:05,M,M,M,330.00,12.00,M,30.41,M,10.00,M,OVC,M,M,M,10000.00,M,M,M,M,KCMI 030905Z AUTO 33012KT 10SM OVC100 A3041 RMK MADISHF
CMI,2017-02-03 09:10,M,M,M,320.00,13.00,M,30.41,M,10.00,M,OVC,M,M,M,10000.00,M,M,M,M,KCMI 030910Z AUTO 32013KT 10SM OVC100 A3041 RMK MADISHF
CMI,2017-02-03 09:15,M,M,M,330.00,11.00,M,30.41,M,10.00,M,OVC,M,M,M,10000.00,M,M,M,M,KCMI 030915Z AUTO 33011KT 10SM OVC100 A3041 RMK MADISHF
CMI,2017-02-03 09:20,M,M,M,320.00,11.00,M,30.41,M,10.00,M,OVC,M,M,M,10000.00,M,M,M,M,KCMI 030920Z AUTO 32011KT 10SM OVC100 A3041 RMK MADISHF
CMI,2017-02-03 09:25,M,M,M,330.00,13.00,M,30.41,M,10.00,M,OVC,M,M,M,10000.00,M,M,M,M,KCMI 030925Z AUTO 33013KT 10SM OVC100 A3041 RMK MADISHF
CMI,2017-02-03 09:30,M,M,M,330.00,11.00,M,30.42,M,10.00,M,OVC,M,M,M,10000.00,M,M,M,M,KCMI 030930Z AUTO 33011KT 10SM OVC100 A3042 RMK MADISHF
CMI,2017-02-03 09:35,M,M,M,320.00,12.00,M,30.42,M,10.00,M,OVC,M,M,M,10000.00,M,M,M,M,KCMI 030935Z AUTO 32012KT 10SM OVC100 A3042 RMK MADISHF
CMI,2017-02-03 09:40,M,M,M,330.00,13.00,M,30.42,M,10.00,M,OVC,M,M,M,10000.00,M,M,M,M,KCMI 030940Z AUTO 33013KT 10SM OVC100 A3042 RMK MADISHF
CMI,2017-02-03 09:45,M,M,M,320.00,10.00,M,30.42,M,10.00,M,OVC,M,M,M,11000.00,M,M,M,M,KCMI 030945Z AUTO 32010KT 10SM OVC110 A3042 RMK MADISHF
CMI,2017-02-03 09:50,M,M,M,310.00,12.00,M,30.42,M,10.00,M,OVC,M,M,M,10000.00,M,M,M,M,KCMI 030950Z AUTO 31012KT 10SM OVC100 A3042 RMK MADISHF
CMI,2017-02-03 09:53,19.90,8.10,59.60,320.00,11.00,0.00,30.42,1031.10,10.00,M,OVC,M,M,M,10000.00,M,M,M,M,KCMI 030953Z AUTO 32011KT 10SM OVC100 M07/M13 A3042 RMK AO2 SLP311 T10671133
CMI,2017-02-03 09:55,M,M,M,330.00,10.00,M,30.42,M,10.00,M,OVC,M,M,M,10000.00,M,M,M,M,KCMI 030955Z AUTO 33010KT 10SM OVC100 A3042 RMK MADISHF
CMI,2017-02-03 10:00,M,M,M,320.00,11.00,M,30.42,M,10.00,M,OVC,M,M,M,10000.00,M,M,M,M,KCMI 031000Z AUTO 32011KT 10SM OVC100 A3042 RMK MADISHF
CMI,2017-02-03 10:05,M,M,M,310.00,13.00,M,30.42,M,10.00,M,OVC,M,M,M,10000.00,M,M,M,M,KCMI 031005Z AUTO 31013KT 10SM OVC100 A3042 RMK MADISHF
CMI,2017-02-03 10:10,M,M,M,320.00,12.00,M,30.42,M,10.00,M,OVC,M,M,M,11000.00,M,M,M,M,KCMI 031010Z AUTO 32012KT 10SM OVC110 A3042 RMK MADISHF
CMI,2017-02-03 10:15,M,M,M,320.00,13.00,M,30.42,M,10.00,M,OVC,M,M,M,10000.00,M,M,M,M,KCMI 031015Z AUTO 32013KT 10SM OVC100 A3042 RMK MADISHF
CMI,2017-02-03 10:20,M,M,M,320.00,12.00,M,30.42,M,10.00,M,OVC,M,M,M,10000.00,M,M,M,M,KCMI 031020Z AUTO 32012KT 10SM OVC100 A3042 RMK MADISHF
CMI,2017-02-03 10:25,M,M,M,320.00,13.00,M,30.42,M,10.00,M,OVC,M,M,M,10000.00,M,M,M,M,KCMI 031025Z AUTO 32013KT 10SM OVC100 A3042 RMK MADISHF
CMI,2017-02-03 10:30,M,M,M,330.00,12.00,M,30.42,M,10.00,M,OVC,M,M,M,10000.00,M,M,M,M,KCMI 031030Z AUTO 33012KT 10SM OVC100 A3042 RMK MADISHF
CMI,2017-02-03 10:35,M,M,M,330.00,9.00,M,30.42,M,10.00,M,OVC,M,M,M,10000.00,M,M,M,M,KCMI 031035Z AUTO 33009KT 10SM OVC100 A3042 RMK MADISHF
CMI,2017-02-03 10:40,M,M,M,330.00,13.00,M,30.42,M,10.00,M,OVC,M,M,M,10000.00,M,M,M,M,KCMI 031040Z AUTO 33013KT 10SM OVC100 A3042 RMK MADISHF
CMI,2017-02-03 10:45,M,M,M,330.00,13.00,M,30.42,M,10.00,M,OVC,M,M,M,10000.00,M,M,M,M,KCMI 031045Z AUTO 33013KT 10SM OVC100 A3042 RMK MADISHF
CMI,2017-02-03 10:50,M,M,M,320.00,11.00,M,30.42,M,10.00,M,OVC,M,M,M,10000.00,M,M,M,M,KCMI 031050Z AUTO 32011KT 10SM OVC100 A3042 RMK MADISHF
CMI,2017-02-03 10:53,19.90,8.10,59.60,330.00,10.00,0.00,30.42,1031.40,10.00,M,OVC,M,M,M,10000.00,M,M,M,M,KCMI 031053Z AUTO 33010KT 10SM OVC100 M07/M13 A3042 RMK AO2 SLP314 T10671133
CMI,2017-02-03 10:55,M,M,M,330.00,11.00,M,30.43,M,10.00,M,OVC,M,M,M,10000.00,M,M,M,M,KCMI 031055Z AUTO 33011KT 10SM OVC100 A3043 RMK MADISHF
CMI,2017-02-03 11:00,M,M,M,330.00,11.00,M,30.43,M,10.00,M,OVC,M,M,M,10000.00,M,M,M,M,KCMI 031100Z AUTO 33011KT 10SM OVC100 A3043 RMK MADISHF
CMI,2017-02-03 11:05,M,M,M,330.00,11.00,M,30.43,M,10.00,M,OVC,M,M,M,10000.00,M,M,M,M,KCMI 031105Z AUTO 33011KT 10SM OVC100 A3043 RMK MADISHF
CMI,2017-02-03 11:10,M,M,M,330.00,14.00,M,30.43,M,10.00,M,BKN,M,M,M,10000.00,M,M,M,M,KCMI 031110Z AUTO 33014KT 10SM BKN100 A3043 RMK MADISHF
CMI,2017-02-03 11:15,M,M,M,330.00,13.00,M,30.43,M,10.00,M,BKN,M,M,M,10000.00,M,M,M,M,KCMI 031115Z AUTO 33013KT 10SM BKN100 A3043 RMK MADISHF
CMI,2017-02-03 11:20,M,M,M,330.00,12.00,M,30.43,M,10.00,M,SCT,M,M,M,9500.00,M,M,M,M,KCMI 031120Z AUTO 33012KT 10SM SCT095 A3043 RMK MADISHF
CMI,2017-02-03 11:25,M,M,M,330.00,10.00,M,30.42,M,10.00,M,SCT,SCT,M,M,9500.00,11000.00,M,M,M,KCMI 031125Z AUTO 33010KT 10SM SCT095 SCT110 A3042 RMK MADISHF
CMI,2017-02-03 11:30,M,M,M,330.00,10.00,M,30.42,M,10.00,M,FEW,SCT,M,M,9500.00,12000.00,M,M,M,KCMI 031130Z AUTO 33010KT 10SM FEW095 SCT120 A3042 RMK MADISHF
CMI,2017-02-03 11:35,M,M,M,320.00,13.00,M,30.43,M,10.00,M,SCT,M,M,M,11000.00,M,M,M,M,KCMI 031135Z AUTO 32013KT 10SM SCT110 A3043 RMK MADISHF
CMI,2017-02-03 11:40,M,M,M,330.00,11.00,M,30.43,M,10.00,M,SCT,BKN,M,M,10000.00,12000.00,M,M,M,KCMI 031140Z AUTO 33011KT 10SM SCT100 BKN120 A3043 RMK MADISHF
CMI,2017-02-03 11:45,M,M,M,320.00,10.00,M,30.43,M,10.00,M,BKN,BKN,M,M,9500.00,12000.00,M,M,M,KCMI 031145Z AUTO 32010KT 10SM BKN095 BKN120 A3043 RMK MADISHF
CMI,2017-02-03 11:50,M,M,M,320.00,8.00,M,30.43,M,10.00,M,SCT,BKN,M,M,9500.00,12000.00,M,M,M,KCMI 031150Z AUTO 32008KT 10SM SCT095 BKN120 A3043 RMK MADISHF
CMI,2017-02-03 11:53,18.00,8.10,64.66,330.00,8.00,0.00,30.43,1031.50,10.00,M,SCT,SCT,M,M,9500.00,12000.00,M,M,M,KCMI 031153Z 33008KT 10SM SCT095 SCT120 M08/M13 A3043 RMK AO2 SLP315 T10781133 11061 21078 51009
CMI,2017-02-03 11:55,M,M,M,330.00,8.00,M,30.43,M,10.00,M,SCT,SCT,M,M,9500.00,12000.00,M,M,M,KCMI 031155Z AUTO 33008KT 10SM SCT095 SCT120 A3043 RMK MADISHF
CMI,2017-02-03 12:00,M,M,M,320.00,10.00,M,30.43,M,10.00,M,SCT,BKN,M,M,10000.00,11000.00,M,M,M,KCMI 031200Z AUTO 32010KT 10SM SCT100 BKN110 A3043 RMK MADISHF
CMI,2017-02-03 12:05,M,M,M,320.00,8.00,M,30.43,M,10.00,M,BKN,BKN,M,M,10000.00,11000.00,M,M,M,KCMI 031205Z AUTO 32008KT 10SM BKN100 BKN110 A3043 RMK MADISHF
CMI,2017-02-03 12:10,M,M,M,310.00,8.00,M,30.43,M,10.00,M,BKN,BKN,M,M,10000.00,11000.00,M,M,M,KCMI 031210Z AUTO 31008KT 10SM BKN100 BKN110 A3043 RMK MADISHF
CMI,2017-02-03 12:15,M,M,M,320.00,7.00,M,30.44,M,10.00,M,BKN,BKN,M,M,10000.00,11000.00,M,M,M,KCMI 031215Z AUTO 32007KT 10SM BKN100 BKN110 A3044 RMK MADISHF
CMI,2017-02-03 12:20,M,M,M,310.00,7.00,M,30.44,M,10.00,M,BKN,M,M,M,10000.00,M,M,M,M,KCMI 031220Z AUTO 31007KT 10SM BKN100 A3044 RMK MADISHF
CMI,2017-02-03 12:25,M,M,M,320.00,6.00,M,30.44,M,10.00,M,BKN,M,M,M,10000.00,M,M,M,M,KCMI 031225Z AUTO 32006KT 10SM BKN100 A3044 RMK MADISHF
CMI,2017-02-03 12:30,M,M,M,320.00,8.00,M,30.44,M,10.00,M,SCT,M,M,M,10000.00,M,M,M,M,KCMI 031230Z AUTO 32008KT 10SM SCT100 A3044 RMK MADISHF
CMI,2017-02-03 12:35,M,M,M,310.00,9.00,M,30.44,M,10.00,M,SCT,M,M,M,9500.00,M,M,M,M,KCMI 031235Z AUTO 31009KT 10SM SCT095 A3044 RMK MADISHF
CMI,2017-02-03 12:40,M,M,M,320.00,10.00,M,30.44,M,10.00,M,FEW,M,M,M,10000.00,M,M,M,M,KCMI 031240Z AUTO 32010KT 10SM FEW100 A3044 RMK MADISHF
CMI,2017-02-03 12:45,M,M,M,330.00,9.00,M,30.44,M,10.00,M,FEW,M,M,M,10000.00,M,M,M,M,KCMI 031245Z AUTO 33009KT 10SM FEW100 A3044 RMK MADISHF
CMI,2017-02-03 12:50,M,M,M,330.00,7.00,M,30.44,M,10.00,M,SCT,M,M,M,10000.00,M,M,M,M,KCMI 031250Z AUTO 33007KT 10SM SCT100 A3044 RMK MADISHF
CMI,2017-02-03 12:53,17.10,8.10,67.22,330.00,8.00,0.00,30.44,1032.00,10.00,M,SCT,M,M,M,10000.00,M,M,M,M,KCMI 031253Z 33008KT 10SM SCT100 M08/M13 A3044 RMK AO2 SLP320 T10831133
CMI,2017-02-03 12:55,M,M,M,320.00,8.00,M,30.44,M,10.00,M,SCT,M,M,M,10000.00,M,M,M,M,KCMI 031255Z AUTO 32008KT 10SM SCT100 A3044 RMK MADISHF
CMI,2017-02-03 13:00,M,M,M,330.00,6.00,M,30.44,M,10.00,M,SCT,M,M,M,10000.00,M,M,M,M,KCMI 031300Z AUTO 33006KT 10SM SCT100 A3044 RMK MADISHF
CMI,2017-02-03 13:05,M,M,M,330.00,6.00,M,30.45,M,10.00,M,SCT,M,M,M,10000.00,M,M,M,M,KCMI 031305Z AUTO 33006KT 10SM SCT100 A3045 RMK MADISHF
CMI,2017-02-03 13:10,M,M,M,320.00,6.00,M,30.45,M,10.00,M,BKN,M,M,M,10000.00,M,M,M,M,KCMI 031310Z AUTO 32006KT 10SM BKN100 A3045 RMK MADISHF
CMI,2017-02-03 13:15,M,M,M,320.00,6.00,M,30.45,M,10.00,M,BKN,M,M,M,10000.00,M,M,M,M,KCMI 031315Z AUTO 32006KT 10SM BKN100 A3045 RMK MADISHF
CMI,2017-02-03 13:20,M,M,M,320.00,7.00,M,30.45,M,10.00,M,SCT,M,M,M,10000.00,M,M,M,M,KCMI 031320Z AUTO 32007KT 10SM SCT100 A3045 RMK MADISHF
CMI,2017-02-03 13:25,M,M,M,320.00,9.00,M,30.46,M,10.00,M,SCT,M,M,M,11000.00,M,M,M,M,KCMI 031325Z AUTO 32009KT 10SM SCT110 A3046 RMK MADISHF
CMI,2017-02-03 13:30,M,M,M,320.00,8.00,M,30.46,M,10.00,M,BKN,M,M,M,11000.00,M,M,M,M,KCMI 031330Z AUTO 32008KT 10SM BKN110 A3046 RMK MADISHF
CMI,2017-02-03 13:35,M,M,M,320.00,10.00,M,30.46,M,10.00,M,BKN,M,M,M,11000.00,M,M,M,M,KCMI 031335Z AUTO 32010KT 10SM BKN110 A3046 RMK MADISHF
CMI,2017-02-03 13:40,M,M,M,330.00,10.00,M,30.46,M,10.00,M,BKN,M,M,M,11000.00,M,M,M,M,KCMI 031340Z AUTO 33010KT 10SM BKN110 A3046 RMK MADISHF
CMI,2017-02-03 13:45,M,M,M,320.00,9.00,M,30.46,M,10.00,M,BKN,M,M,M,11000.00,M,M,M,M,KCMI 031345Z AUTO 32009KT 10SM BKN110 A3046 RMK MADISHF
CMI,2017-02-03 13:50,M,M,M,320.00,11.00,M,30.47,M,10.00,M,OVC,M,M,M,11000.00,M,M,M,M,KCMI 031350Z AUTO 32011KT 10SM OVC110 A3047 RMK MADISHF
CMI,2017-02-03 13:53,19.00,8.10,61.94,320.00,9.00,0.00,30.47,1033.00,10.00,M,OVC,M,M,M,11000.00,M,M,M,M,KCMI 031353Z 32009KT 10SM OVC110 M07/M13 A3047 RMK AO2 SLP330 T10721133
CMI,2017-02-03 13:55,M,M,M,310.00,9.00,M,30.47,M,10.00,M,OVC,M,M,M,11000.00,M,M,M,M,KCMI 031355Z AUTO 31009KT 10SM OVC110 A3047 RMK MADISHF
CMI,2017-02-03 14:00,M,M,M,310.00,10.00,M,30.47,M,10.00,M,OVC,M,M,M,11000.00,M,M,M,M,KCMI 031400Z AUTO 31010KT 10SM OVC110 A3047 RMK MADISHF
CMI,2017-02-03 14:05,M,M,M,320.00,10.00,M,30.47,M,10.00,M,OVC,M,M,M,11000.00,M,M,M,M,KCMI 031405Z AUTO 32010KT 10SM OVC110 A3047 RMK MADISHF
CMI,2017-02-03 14:10,M,M,M,320.00,10.00,M,30.47,M,10.00,M,OVC,M,M,M,11000.00,M,M,M,M,KCMI 031410Z AUTO 32010KT 10SM OVC110 A3047 RMK MADISHF
CMI,2017-02-03 14:15,M,M,M,310.00,12.00,M,30.48,M,10.00,M,BKN,M,M,M,11000.00,M,M,M,M,KCMI 031415Z AUTO 31012KT 10SM BKN110 A3048 RMK MADISHF
CMI,2017-02-03 14:20,M,M,M,310.00,11.00,M,30.47,M,10.00,M,OVC,M,M,M,11000.00,M,M,M,M,KCMI 031420Z AUTO 31011KT 10SM OVC110 A3047 RMK MADISHF
CMI,2017-02-03 14:25,M,M,M,320.00,10.00,M,30.47,M,10.00,M,OVC,M,M,M,11000.00,M,M,M,M,KCMI 031425Z AUTO 32010KT 10SM OVC110 A3047 RMK MADISHF
CMI,2017-02-03 14:30,M,M,M,300.00,11.00,M,30.48,M,10.00,M,OVC,M,M,M,11000.00,M,M,M,M,KCMI 031430Z AUTO 30011KT 10SM OVC110 A3048 RMK MADISHF
CMI,2017-02-03 14:35,M,M,M,310.00,12.00,M,30.48,M,10.00,M,BKN,M,M,M,11000.00,M,M,M,M,KCMI 031435Z AUTO 31012KT 10SM BKN110 A3048 RMK MADISHF
CMI,2017-02-03 14:40,M,M,M,310.00,11.00,M,30.48,M,10.00,M,BKN,M,M,M,12000.00,M,M,M,M,KCMI 031440Z AUTO 31011KT 10SM BKN120 A3048 RMK MADISHF
CMI,2017-02-03 14:45,M,M,M,320.00,11.00,M,30.48,M,10.00,M,SCT,M,M,M,11000.00,M,M,M,M,KCMI 031445Z AUTO 32011KT 10SM SCT110 A3048 RMK MADISHF
CMI,2017-02-03 14:50,M,M,M,330.00,12.00,M,30.48,M,10.00,M,SCT,M,M,M,12000.00,M,M,M,M,KCMI 031450Z AUTO 33012KT 10SM SCT120 A3048 RMK MADISHF
CMI,2017-02-03 14:53,19.90,8.10,59.60,320.00,13.00,0.00,30.48,1033.40,10.00,M,SCT,M,M,M,11000.00,M,M,M,M,KCMI 031453Z 32013KT 10SM SCT110 M07/M13 A3048 RMK AO2 SLP334 T10671133 52019
CMI,2017-02-03 14:55,M,M,M,310.00,11.00,M,30.48,M,10.00,M,SCT,M,M,M,11000.00,M,M,M,M,KCMI 031455Z AUTO 31011KT 10SM SCT110 A3048 RMK MADISHF
CMI,2017-02-03 15:00,M,M,M,320.00,12.00,M,30.49,M,10.00,M,FEW,M,M,M,12000.00,M,M,M,M,KCMI 031500Z AUTO 32012KT 10SM FEW120 A3049 RMK MADISHF
CMI,2017-02-03 15:05,M,M,M,310.00,12.00,M,30.49,M,10.00,M,SCT,M,M,M,12000.00,M,M,M,M,KCMI 031505Z AUTO 31012KT 10SM SCT120 A3049 RMK MADISHF
CMI,2017-02-03 15:10,M,M,M,320.00,11.00,M,30.49,M,10.00,M,SCT,M,M,M,12000.00,M,M,M,M,KCMI 031510Z AUTO 32011KT 10SM SCT120 A3049 RMK MADISHF
CMI,2017-02-03 15:15,M,M,M,320.00,12.00,M,30.49,M,10.00,M,SCT,M,M,M,12000.00,M,M,M,M,KCMI 031515Z AUTO 32012KT 10SM SCT120 A3049 RMK MADISHF
CMI,2017-02-03 15:20,M,M,M,320.00,12.00,M,30.49,M,10.00,M,BKN,M,M,M,11000.00,M,M,M,M,KCMI 031520Z AUTO 32012KT 10SM BKN110 A3049 RMK MADISHF
CMI,2017-02-03 15:25,M,M,M,320.00,12.00,M,30.50,M,10.00,M,BKN,M,M,M,11000.00,M,M,M,M,KCMI 031525Z AUTO 32012KT 10SM BKN110 A3050 RMK MADISHF
CMI,2017-02-03 15:30,M,M,M,310.00,11.00,M,30.50,M,10.00,M,SCT,BKN,M,M,10000.00,12000.00,M,M,M,KCMI 031530Z AUTO 31011KT 10SM SCT100 BKN120 A3050 RMK MADISHF
CMI,2017-02-03 15:35,M,M,M,310.00,13.00,M,30.50,M,10.00,M,SCT,M,M,M,11000.00,M,M,M,M,KCMI 031535Z AUTO 31013KT 10SM SCT110 A3050 RMK MADISHF
CMI,2017-02-03 15:40,M,M,M,320.00,12.00,M,30.50,M,10.00,M,SCT,M,M,M,10000.00,M,M,M,M,KCMI 031540Z AUTO 32012KT 10SM SCT100 A3050 RMK MADISHF
CMI,2017-02-03 15:45,M,M,M,320.00,12.00,M,30.50,M,10.00,M,SCT,M,M,M,10000.00,M,M,M,M,KCMI 031545Z AUTO 32012KT 10SM SCT100 A3050 RMK MADISHF
CMI,2017-02-03 15:50,M,M,M,320.00,13.00,M,30.50,M,10.00,M,FEW,M,M,M,10000.00,M,M,M,M,KCMI 031550Z AUTO 32013KT 10SM FEW100 A3050 RMK MADISHF
CMI,2017-02-03 15:53,21.90,7.00,52.10,320.00,13.00,0.00,30.51,1034.20,10.00,M,FEW,M,M,M,10000.00,M,M,M,M,KCMI 031553Z 32013KT 10SM FEW100 M06/M14 A3051 RMK AO2 SLP342 T10561139
CMI,2017-02-03 15:55,M,M,M,320.00,12.00,M,30.50,M,10.00,M,FEW,M,M,M,11000.00,M,M,M,M,KCMI 031555Z AUTO 32012KT 10SM FEW110 A3050 RMK MADISHF
CMI,2017-02-03 16:00,M,M,M,310.00,12.00,M,30.51,M,10.00,M,FEW,M,M,M,11000.00,M,M,M,M,KCMI 031600Z AUTO 31012KT 10SM FEW110 A3051 RMK MADISHF
CMI,2017-02-03 16:05,M,M,M,310.00,11.00,M,30.51,M,10.00,M,FEW,M,M,M,11000.00,M,M,M,M,KCMI 031605Z AUTO 31011KT 10SM FEW110 A3051 RMK MADISHF
CMI,2017-02-03 16:10,M,M,M,320.00,14.00,M,30.51,M,10.00,M,CLR,M,M,M,M,M,M,M,M,KCMI 031610Z AUTO 32014KT 10SM CLR A3051 RMK MADISHF
CMI,2017-02-03 16:15,M,M,M,330.00,11.00,M,30.52,M,10.00,M,CLR,M,M,M,M,M,M,M,M,KCMI 031615Z AUTO 33011KT 10SM CLR A3052 RMK MADISHF
CMI,2017-02-03 16:20,M,M,M,330.00,12.00,M,30.52,M,10.00,M,CLR,M,M,M,M,M,M,M,M,KCMI 031620Z AUTO 33012KT 10SM CLR A3052 RMK MADISHF
CMI,2017-02-03 16:25,M,M,M,310.00,13.00,M,30.51,M,10.00,M,CLR,M,M,M,M,M,M,M,M,KCMI 031625Z AUTO 31013KT 10SM CLR A3051 RMK MADISHF
CMI,2017-02-03 16:30,M,M,M,320.00,11.00,M,30.51,M,10.00,M,CLR,M,M,M,M,M,M,M,M,KCMI 031630Z AUTO 32011KT 10SM CLR A3051 RMK MADISHF
CMI,2017-02-03 16:35,M,M,M,330.00,10.00,M,30.51,M,10.00,M,CLR,M,M,M,M,M,M,M,M,KCMI 031635Z AUTO 33010KT 10SM CLR A3051 RMK MADISHF
CMI,2017-02-03 16:40,M,M,M,300.00,12.00,M,30.51,M,10.00,M,CLR,M,M,M,M,M,M,M,M,KCMI 031640Z AUTO 30012KT 10SM CLR A3051 RMK MADISHF
CMI,2017-02-03 16:45,M,M,M,320.00,10.00,M,30.51,M,10.00,M,CLR,M,M,M,M,M,M,M,M,KCMI 031645Z AUTO 32010KT 10SM CLR A3051 RMK MADISHF
CMI,2017-02-03 16:50,M,M,M,320.00,12.00,M,30.51,M,10.00,M,CLR,M,M,M,M,M,M,M,M,KCMI 031650Z AUTO 32012KT 10SM CLR A3051 RMK MADISHF
CMI,2017-02-03 16:53,24.10,7.00,47.50,320.00,12.00,0.00,30.51,1034.50,10.00,M,CLR,M,M,M,M,M,M,M,M,KCMI 031653Z 32012KT 10SM CLR M04/M14 A3051 RMK AO2 SLP345 T10441139
CMI,2017-02-03 16:55,M,M,M,320.00,11.00,M,30.51,M,10.00,M,CLR,M,M,M,M,M,M,M,M,KCMI 031655Z AUTO 32011KT 10SM CLR A3051 RMK MADISHF
CMI,2017-02-03 17:00,M,M,M,310.00,12.00,M,30.51,M,10.00,M,CLR,M,M,M,M,M,M,M,M,KCMI 031700Z AUTO 31012KT 10SM CLR A3051 RMK MADISHF
CMI,2017-02-03 17:05,M,M,M,310.00,13.00,M,30.51,M,10.00,M,CLR,M,M,M,M,M,M,M,M,KCMI 031705Z AUTO 31013KT 10SM CLR A3051 RMK MADISHF
CMI,2017-02-03 17:10,M,M,M,320.00,12.00,M,30.51,M,10.00,M,CLR,M,M,M,M,M,M,M,M,KCMI 031710Z AUTO 32012KT 10SM CLR A3051 RMK MADISHF
CMI,2017-02-03 17:15,M,M,M,330.00,13.00,M,30.51,M,10.00,M,CLR,M,M,M,M,M,M,M,M,KCMI 031715Z AUTO 33013KT 10SM CLR A3051 RMK MADISHF
CMI,2017-02-03 17:20,M,M,M,320.00,12.00,M,30.51,M,10.00,M,CLR,M,M,M,M,M,M,M,M,KCMI 031720Z AUTO 32012KT 10SM CLR A3051 RMK MADISHF
CMI,2017-02-03 17:25,M,M,M,330.00,13.00,M,30.51,M,10.00,M,CLR,M,M,M,M,M,M,M,M,KCMI 031725Z AUTO 33013KT 10SM CLR A3051 RMK MADISHF
CMI,2017-02-03 17:30,M,M,M,310.00,9.00,M,30.51,M,10.00,M,CLR,M,M,M,M,M,M,M,M,KCMI 031730Z AUTO 31009KT 10SM CLR A3051 RMK MADISHF
CMI,2017-02-03 17:35,M,M,M,320.00,10.00,M,30.51,M,10.00,M,CLR,M,M,M,M,M,M,M,M,KCMI 031735Z AUTO 32010KT 10SM CLR A3051 RMK MADISHF
CMI,2017-02-03 17:40,M,M,M,330.00,10.00,M,30.51,M,10.00,M,CLR,M,M,M,M,M,M,M,M,KCMI 031740Z AUTO 33010KT 10SM CLR A3051 RMK MADISHF
CMI,2017-02-03 17:45,M,M,M,320.00,8.00,M,30.51,M,10.00,M,CLR,M,M,M,M,M,M,M,M,KCMI 031745Z AUTO 32008KT 10SM CLR A3051 RMK MADISHF
CMI,2017-02-03 17:50,M,M,M,320.00,9.00,M,30.51,M,10.00,M,CLR,M,M,M,M,M,M,M,M,KCMI 031750Z AUTO 32009KT 10SM CLR A3051 RMK MADISHF
CMI,2017-02-03 17:53,27.00,6.10,40.42,330.00,11.00,0.00,30.51,1034.20,10.00,M,CLR,M,M,M,M,M,M,M,M,KCMI 031753Z 33011KT 10SM CLR M03/M14 A3051 RMK AO2 SLP342 T10281144 11028 21083 50008
CMI,2017-02-03 17:55,M,M,M,330.00,9.00,M,30.51,M,10.00,M,CLR,M,M,M,M,M,M,M,M,KCMI 031755Z AUTO 33009KT 10SM CLR A3051 RMK MADISHF
CMI,2017-02-03 18:00,M,M,M,320.00,11.00,M,30.51,M,10.00,M,CLR,M,M,M,M,M,M,M,M,KCMI 031800Z AUTO 32011KT 10SM CLR A3051 RMK MADISHF
CMI,2017-02-03 18:05,M,M,M,330.00,11.00,M,30.50,M,10.00,M,CLR,M,M,M,M,M,M,M,M,KCMI 031805Z AUTO 33011KT 10SM CLR A3050 RMK MADISHF
CMI,2017-02-03 18:10,M,M,M,310.00,11.00,M,30.50,M,10.00,M,CLR,M,M,M,M,M,M,M,M,KCMI 031810Z AUTO 31011KT 10SM CLR A3050 RMK MADISHF
CMI,2017-02-03 18:15,M,M,M,320.00,11.00,M,30.50,M,10.00,M,CLR,M,M,M,M,M,M,M,M,KCMI 031815Z AUTO 32011KT 10SM CLR A3050 RMK MADISHF
CMI,2017-02-03 18:20,M,M,M,310.00,13.00,M,30.50,M,10.00,M,CLR,M,M,M,M,M,M,M,M,KCMI 031820Z AUTO 31013KT 10SM CLR A3050 RMK MADISHF
CMI,2017-02-03 18:25,M,M,M,300.00,11.00,M,30.49,M,10.00,M,CLR,M,M,M,M,M,M,M,M,KCMI 031825Z AUTO 30011KT 10SM CLR A3049 RMK MADISHF
CMI,2017-02-03 18:30,M,M,M,310.00,13.00,M,30.49,M,10.00,M,CLR,M,M,M,M,M,M,M,M,KCMI 031830Z AUTO 31013KT 10SM CLR A3049 RMK MADISHF
CMI,2017-02-03 18:35,M,M,M,320.00,11.00,M,30.49,M,10.00,M,CLR,M,M,M,M,M,M,M,M,KCMI 031835Z AUTO 32011KT 10SM CLR A3049 RMK MADISHF
CMI,2017-02-03 18:40,M,M,M,330.00,10.00,M,30.49,M,10.00,M,CLR,M,M,M,M,M,M,M,M,KCMI 031840Z AUTO 33010KT 10SM CLR A3049 RMK MADISHF
CMI,2017-02-03 18:45,M,M,M,330.00,11.00,M,30.49,M,10.00,M,CLR,M,M,M,M,M,M,M,M,KCMI 031845Z AUTO 33011KT 10SM CLR A3049 RMK MADISHF
CMI,2017-02-03 18:50,M,M,M,300.00,12.00,M,30.49,M,10.00,M,CLR,M,M,M,M,M,M,M,M,KCMI 031850Z AUTO 30012KT 10SM CLR A3049 RMK MADISHF
CMI,2017-02-03 18:53,28.90,5.00,35.55,340.00,10.00,0.00,30.49,1033.50,10.00,M,CLR,M,M,M,M,M,M,M,M,KCMI 031853Z 34010KT 10SM CLR M02/M15 A3049 RMK AO2 SLP335 T10171150
CMI,2017-02-03 18:55,M,M,M,330.00,12.00,M,30.49,M,10.00,M,CLR,M,M,M,M,M,M,M,M,KCMI 031855Z AUTO 33012KT 10SM CLR A3049 RMK MADISHF
CMI,2017-02-03 19:00,M,M,M,320.00,12.00,M,30.48,M,10.00,M,CLR,M,M,M,M,M,M,M,M,KCMI 031900Z AUTO 32012KT 10SM CLR A3048 RMK MADISHF
CMI,2017-02-03 19:05,M,M,M,320.00,12.00,M,30.48,M,10.00,M,CLR,M,M,M,M,M,M,M,M,KCMI 031905Z AUTO 32012KT 10SM CLR A3048 RMK MADISHF
CMI,2017-02-03 19:10,M,M,M,320.00,9.00,M,30.48,M,10.00,M,CLR,M,M,M,M,M,M,M,M,KCMI 031910Z AUTO 32009KT 10SM CLR A3048 RMK MADISHF
CMI,2017-02-03 19:15,M,M,M,300.00,11.00,M,30.48,M,10.00,M,CLR,M,M,M,M,M,M,M,M,KCMI 031915Z AUTO 30011KT 10SM CLR A3048 RMK MADISHF
CMI,2017-02-03 19:20,M,M,M,330.00,11.00,M,30.48,M,10.00,M,CLR,M,M,M,M,M,M,M,M,KCMI 031920Z AUTO 33011KT 10SM CLR A3048 RMK MADISHF
CMI,2017-02-03 19:25,M,M,M,330.00,12.00,M,30.48,M,10.00,M,CLR,M,M,M,M,M,M,M,M,KCMI 031925Z AUTO 33012KT 10SM CLR A3048 RMK MADISHF
CMI,2017-02-03 19:30,M,M,M,290.00,10.00,M,30.48,M,10.00,M,CLR,M,M,M,M,M,M,M,M,KCMI 031930Z AUTO 29010KT 10SM CLR A3048 RMK MADISHF
CMI,2017-02-03 19:35,M,M,M,320.00,11.00,M,30.48,M,10.00,M,CLR,M,M,M,M,M,M,M,M,KCMI 031935Z AUTO 32011KT 10SM CLR A3048 RMK MADISHF
CMI,2017-02-03 19:40,M,M,M,340.00,12.00,M,30.48,M,10.00,M,CLR,M,M,M,M,M,M,M,M,KCMI 031940Z AUTO 34012KT 10SM CLR A3048 RMK MADISHF
CMI,2017-02-03 19:45,M,M,M,330.00,8.00,M,30.48,M,10.00,M,CLR,M,M,M,M,M,M,M,M,KCMI 031945Z AUTO 33008KT 10SM CLR A3048 RMK MADISHF
CMI,2017-02-03 19:50,M,M,M,330.00,11.00,M,30.48,M,10.00,M,CLR,M,M,M,M,M,M,M,M,KCMI 031950Z AUTO 33011KT 10SM CLR A3048 RMK WND 29V36  MADISHF
CMI,2017-02-03 19:53,30.00,5.00,33.99,330.00,9.00,0.00,30.48,1033.10,10.00,M,CLR,M,M,M,M,M,M,M,M,KCMI 031953Z 33009KT 10SM CLR M01/M15 A3048 RMK AO2 SLP331 T10111150
CMI,2017-02-03 19:55,M,M,M,300.00,10.00,M,30.48,M,10.00,M,CLR,M,M,M,M,M,M,M,M,KCMI 031955Z AUTO 30010KT 10SM CLR A3048 RMK MADISHF
CMI,2017-02-03 20:00,M,M,M,300.00,12.00,M,30.48,M,10.00,M,CLR,M,M,M,M,M,M,M,M,KCMI 032000Z AUTO 30012KT 10SM CLR A3048 RMK MADISHF
CMI,2017-02-03 20:05,M,M,M,300.00,10.00,M,30.48,M,10.00,M,CLR,M,M,M,M,M,M,M,M,KCMI 032005Z AUTO 30010KT 10SM CLR A3048 RMK MADISHF
CMI,2017-02-03 20:10,M,M,M,320.00,11.00,M,30.48,M,10.00,M,CLR,M,M,M,M,M,M,M,M,KCMI 032010Z AUTO 32011KT 10SM CLR A3048 RMK MADISHF
CMI,2017-02-03 20:15,M,M,M,330.00,8.00,M,30.48,M,10.00,M,CLR,M,M,M,M,M,M,M,M,KCMI 032015Z AUTO 33008KT 10SM CLR A3048 RMK MADISHF
CMI,2017-02-03 20:20,M,M,M,300.00,13.00,M,30.48,M,10.00,M,CLR,M,M,M,M,M,M,M,M,KCMI 032020Z AUTO 30013KT 10SM CLR A3048 RMK MADISHF
CMI,2017-02-03 20:25,M,M,M,320.00,11.00,M,30.48,M,10.00,M,CLR,M,M,M,M,M,M,M,M,KCMI 032025Z AUTO 32011KT 10SM CLR A3048 RMK MADISHF
CMI,2017-02-03 20:30,M,M,M,300.00,10.00,M,30.48,M,10.00,M,CLR,M,M,M,M,M,M,M,M,KCMI 032030Z AUTO 30010KT 10SM CLR A3048 RMK MADISHF
CMI,2017-02-03 20:35,M,M,M,310.00,11.00,M,30.48,M,10.00,M,CLR,M,M,M,M,M,M,M,M,KCMI 032035Z AUTO 31011KT 10SM CLR A3048 RMK MADISHF
CMI,2017-02-03 20:40,M,M,M,310.00,9.00,M,30.48,M,10.00,M,CLR,M,M,M,M,M,M,M,M,KCMI 032040Z AUTO 31009KT 10SM CLR A3048 RMK MADISHF
CMI,2017-02-03 20:45,M,M,M,300.00,12.00,M,30.48,M,10.00,M,CLR,M,M,M,M,M,M,M,M,KCMI 032045Z AUTO 30012KT 10SM CLR A3048 RMK MADISHF
CMI,2017-02-03 20:50,M,M,M,320.00,9.00,M,30.48,M,10.00,M,CLR,M,M,M,M,M,M,M,M,KCMI 032050Z AUTO 32009KT 10SM CLR A3048 RMK MADISHF
CMI,2017-02-03 20:53,30.00,3.90,32.32,310.00,10.00,0.00,30.48,1033.20,10.00,M,CLR,M,M,M,M,M,M,M,M,KCMI 032053Z 31010KT 10SM CLR M01/M16 A3048 RMK AO2 SLP332 T10111156 55009
CMI,2017-02-03 20:55,M,M,M,310.00,8.00,M,30.48,M,10.00,M,CLR,M,M,M,M,M,M,M,M,KCMI 032055Z AUTO 31008KT 10SM CLR A3048 RMK MADISHF
CMI,2017-02-03 21:00,M,M,M,310.00,11.00,M,30.48,M,10.00,M,CLR,M,M,M,M,M,M,M,M,KCMI 032100Z AUTO 31011KT 10SM CLR A3048 RMK MADISHF
CMI,2017-02-03 21:05,M,M,M,330.00,11.00,M,30.48,M,10.00,M,CLR,M,M,M,M,M,M,M,M,KCMI 032105Z AUTO 33011KT 10SM CLR A3048 RMK MADISHF
CMI,2017-02-03 21:10,M,M,M,300.00,8.00,M,30.48,M,10.00,M,CLR,M,M,M,M,M,M,M,M,KCMI 032110Z AUTO 30008KT 10SM CLR A3048 RMK MADISHF
CMI,2017-02-03 21:15,M,M,M,320.00,12.00,M,30.48,M,10.00,M,CLR,M,M,M,M,M,M,M,M,KCMI 032115Z AUTO 32012KT 10SM CLR A3048 RMK MADISHF
CMI,2017-02-03 21:20,M,M,M,320.00,10.00,M,30.48,M,10.00,M,CLR,M,M,M,M,M,M,M,M,KCMI 032120Z AUTO 32010KT 10SM CLR A3048 RMK MADISHF
CMI,2017-02-03 21:25,M,M,M,300.00,9.00,M,30.49,M,10.00,M,CLR,M,M,M,M,M,M,M,M,KCMI 032125Z AUTO 30009KT 10SM CLR A3049 RMK MADISHF
CMI,2017-02-03 21:30,M,M,M,310.00,10.00,M,30.49,M,10.00,M,CLR,M,M,M,M,M,M,M,M,KCMI 032130Z AUTO 31010KT 10SM CLR A3049 RMK MADISHF
CMI,2017-02-03 21:35,M,M,M,300.00,11.00,M,30.49,M,10.00,M,CLR,M,M,M,M,M,M,M,M,KCMI 032135Z AUTO 30011KT 10SM CLR A3049 RMK MADISHF
CMI,2017-02-03 21:40,M,M,M,280.00,10.00,M,30.49,M,10.00,M,CLR,M,M,M,M,M,M,M,M,KCMI 032140Z AUTO 28010KT 10SM CLR A3049 RMK MADISHF
CMI,2017-02-03 21:45,M,M,M,310.00,9.00,M,30.49,M,10.00,M,CLR,M,M,M,M,M,M,M,M,KCMI 032145Z AUTO 31009KT 10SM CLR A3049 RMK MADISHF
CMI,2017-02-03 21:50,M,M,M,300.00,8.00,M,30.49,M,10.00,M,CLR,M,M,M,M,M,M,M,M,KCMI 032150Z AUTO 30008KT 10SM CLR A3049 RMK MADISHF
CMI,2017-02-03 21:53,30.00,3.00,31.01,300.00,10.00,0.00,30.49,1033.60,10.00,M,CLR,M,M,M,M,M,M,M,M,KCMI 032153Z 30010KT 10SM CLR M01/M16 A3049 RMK AO2 SLP336 T10111161
CMI,2017-02-03 21:55,M,M,M,310.00,9.00,M,30.49,M,10.00,M,CLR,M,M,M,M,M,M,M,M,KCMI 032155Z AUTO 31009KT 10SM CLR A3049 RMK MADISHF
CMI,2017-02-03 22:00,M,M,M,310.00,9.00,M,30.50,M,10.00,M,CLR,M,M,M,M,M,M,M,M,KCMI 032200Z AUTO 31009KT 10SM CLR A3050 RMK MADISHF
CMI,2017-02-03 22:05,M,M,M,300.00,12.00,M,30.49,M,10.00,M,CLR,M,M,M,M,M,M,M,M,KCMI 032205Z AUTO 30012KT 10SM CLR A3049 RMK MADISHF
CMI,2017-02-03 22:10,M,M,M,290.00,10.00,M,30.49,M,10.00,M,CLR,M,M,M,M,M,M,M,M,KCMI 032210Z AUTO 29010KT 10SM CLR A3049 RMK MADISHF
CMI,2017-02-03 22:15,M,M,M,300.00,9.00,M,30.50,M,10.00,M,CLR,M,M,M,M,M,M,M,M,KCMI 032215Z AUTO 30009KT 10SM CLR A3050 RMK MADISHF
CMI,2017-02-03 22:20,M,M,M,300.00,10.00,M,30.50,M,10.00,M,CLR,M,M,M,M,M,M,M,M,KCMI 032220Z AUTO 30010KT 10SM CLR A3050 RMK MADISHF
CMI,2017-02-03 22:25,M,M,M,290.00,9.00,M,30.50,M,10.00,M,CLR,M,M,M,M,M,M,M,M,KCMI 032225Z AUTO 29009KT 10SM CLR A3050 RMK MADISHF
CMI,2017-02-03 22:30,M,M,M,310.00,8.00,M,30.50,M,10.00,M,CLR,M,M,M,M,M,M,M,M,KCMI 032230Z AUTO 31008KT 10SM CLR A3050 RMK MADISHF
CMI,2017-02-03 22:35,M,M,M,290.00,8.00,M,30.50,M,10.00,M,CLR,M,M,M,M,M,M,M,M,KCMI 032235Z AUTO 29008KT 10SM CLR A3050 RMK MADISHF
CMI,2017-02-03 22:40,M,M,M,300.00,10.00,M,30.50,M,10.00,M,CLR,M,M,M,M,M,M,M,M,KCMI 032240Z AUTO 30010KT 10SM CLR A3050 RMK MADISHF
CMI,2017-02-03 22:45,M,M,M,300.00,8.00,M,30.50,M,10.00,M,CLR,M,M,M,M,M,M,M,M,KCMI 032245Z AUTO 30008KT 10SM CLR A3050 RMK MADISHF
CMI,2017-02-03 22:50,M,M,M,290.00,8.00,M,30.50,M,10.00,M,CLR,M,M,M,M,M,M,M,M,KCMI 032250Z AUTO 29008KT 10SM CLR A3050 RMK MADISHF
CMI,2017-02-03 22:53,28.00,5.00,36.89,300.00,9.00,0.00,30.50,1033.90,10.00,M,CLR,M,M,M,M,M,M,M,M,KCMI 032253Z 30009KT 10SM CLR M02/M15 A3050 RMK AO2 SLP339 T10221150
CMI,2017-02-03 22:55,M,M,M,300.00,8.00,M,30.50,M,10.00,M,CLR,M,M,M,M,M,M,M,M,KCMI 032255Z AUTO 30008KT 10SM CLR A3050 RMK MADISHF
CMI,2017-02-03 23:00,M,M,M,290.00,9.00,M,30.50,M,10.00,M,CLR,M,M,M,M,M,M,M,M,KCMI 032300Z AUTO 29009KT 10SM CLR A3050 RMK MADISHF
CMI,2017-02-03 23:05,M,M,M,300.00,7.00,M,30.50,M,10.00,M,CLR,M,M,M,M,M,M,M,M,KCMI 032305Z AUTO 30007KT 10SM CLR A3050 RMK MADISHF
CMI,2017-02-03 23:10,M,M,M,300.00,7.00,M,30.50,M,10.00,M,CLR,M,M,M,M,M,M,M,M,KCMI 032310Z AUTO 30007KT 10SM CLR A3050 RMK MADISHF
CMI,2017-02-03 23:15,M,M,M,290.00,6.00,M,30.50,M,10.00,M,CLR,M,M,M,M,M,M,M,M,KCMI 032315Z AUTO 29006KT 10SM CLR A3050 RMK MADISHF
CMI,2017-02-03 23:20,M,M,M,290.00,7.00,M,30.50,M,10.00,M,CLR,M,M,M,M,M,M,M,M,KCMI 032320Z AUTO 29007KT 10SM CLR A3050 RMK MADISHF
CMI,2017-02-03 23:25,M,M,M,290.00,6.00,M,30.51,M,10.00,M,CLR,M,M,M,M,M,M,M,M,KCMI 032325Z AUTO 29006KT 10SM CLR A3051 RMK MADISHF
CMI,2017-02-03 23:30,M,M,M,300.00,7.00,M,30.50,M,10.00,M,CLR,M,M,M,M,M,M,M,M,KCMI 032330Z AUTO 30007KT 10SM CLR A3050 RMK MADISHF
CMI,2017-02-03 23:35,M,M,M,300.00,7.00,M,30.50,M,10.00,M,CLR,M,M,M,M,M,M,M,M,KCMI 032335Z AUTO 30007KT 10SM CLR A3050 RMK MADISHF
CMI,2017-02-03 23:40,M,M,M,290.00,7.00,M,30.50,M,10.00,M,CLR,M,M,M,M,M,M,M,M,KCMI 032340Z AUTO 29007KT 10SM CLR A3050 RMK MADISHF
CMI,2017-02-03 23:45,M,M,M,290.00,6.00,M,30.51,M,10.00,M,CLR,M,M,M,M,M,M,M,M,KCMI 032345Z AUTO 29006KT 10SM CLR A3051 RMK MADISHF
CMI,2017-02-03 23:50,M,M,M,280.00,6.00,M,30.51,M,10.00,M,CLR,M,M,M,M,M,M,M,M,KCMI 032350Z AUTO 28006KT 10SM CLR A3051 RMK MADISHF
CMI,2017-02-03 23:53,21.90,7.00,52.10,280.00,7.00,0.00,30.51,1034.40,10.00,M,CLR,M,M,M,M,M,M,M,M,KCMI 032353Z 28007KT 10SM CLR M06/M14 A3051 RMK AO2 SLP344 T10561139 11006 21056 51010
CMI,2017-02-03 23:55,M,M,M,280.00,6.00,M,30.51,M,10.00,M,CLR,M,M,M,M,M,M,M,M,KCMI 032355Z AUTO 28006KT 10SM CLR A3051 RMK MADISHF
CMI,2017-02-04 00:00,M,M,M,280.00,6.00,M,30.51,M,10.00,M,CLR,M,M,M,M,M,M,M,M,KCMI 040000Z AUTO 28006KT 10SM CLR A3051 RMK MADISHF
CMI,2017-02-04 00:05,M,M,M,280.00,6.00,M,30.51,M,10.00,M,CLR,M,M,M,M,M,M,M,M,KCMI 040005Z AUTO 28006KT 10SM CLR A3051 RMK MADISHF
CMI,2017-02-04 00:10,M,M,M,270.00,5.00,M,30.51,M,10.00,M,CLR,M,M,M,M,M,M,M,M,KCMI 040010Z AUTO 27005KT 10SM CLR A3051 RMK MADISHF
CMI,2017-02-04 00:15,M,M,M,270.00,5.00,M,30.51,M,10.00,M,CLR,M,M,M,M,M,M,M,M,KCMI 040015Z AUTO 27005KT 10SM CLR A3051 RMK MADISHF
CMI,2017-02-04 00:20,M,M,M,270.00,5.00,M,30.51,M,10.00,M,CLR,M,M,M,M,M,M,M,M,KCMI 040020Z AUTO 27005KT 10SM CLR A3051 RMK MADISHF
CMI,2017-02-04 00:25,M,M,M,270.00,5.00,M,30.51,M,10.00,M,CLR,M,M,M,M,M,M,M,M,KCMI 040025Z AUTO 27005KT 10SM CLR A3051 RMK MADISHF
CMI,2017-02-04 00:30,M,M,M,270.00,4.00,M,30.51,M,10.00,M,CLR,M,M,M,M,M,M,M,M,KCMI 040030Z AUTO 27004KT 10SM CLR A3051 RMK MADISHF
CMI,2017-02-04 00:35,M,M,M,260.00,4.00,M,30.51,M,10.00,M,CLR,M,M,M,M,M,M,M,M,KCMI 040035Z AUTO 26004KT 10SM CLR A3051 RMK MADISHF
CMI,2017-02-04 00:40,M,M,M,260.00,4.00,M,30.51,M,10.00,M,CLR,M,M,M,M,M,M,M,M,KCMI 040040Z AUTO 26004KT 10SM CLR A3051 RMK MADISHF
CMI,2017-02-04 00:45,M,M,M,270.00,5.00,M,30.51,M,10.00,M,CLR,M,M,M,M,M,M,M,M,KCMI 040045Z AUTO 27005KT 10SM CLR A3051 RMK MADISHF
CMI,2017-02-04 00:50,M,M,M,270.00,4.00,M,30.51,M,10.00,M,CLR,M,M,M,M,M,M,M,M,KCMI 040050Z AUTO 27004KT 10SM CLR A3051 RMK MADISHF
CMI,2017-02-04 00:53,23.00,8.10,52.27,270.00,4.00,0.00,30.51,1034.30,10.00,M,CLR,M,M,M,M,M,M,M,M,KCMI 040053Z 27004KT 10SM CLR M05/M13 A3051 RMK AO2 SLP343 T10501133
CMI,2017-02-04 00:55,M,M,M,260.00,3.00,M,30.51,M,10.00,M,CLR,M,M,M,M,M,M,M,M,KCMI 040055Z AUTO 26003KT 10SM CLR A3051 RMK MADISHF
CMI,2017-02-04 01:00,M,M,M,260.00,4.00,M,30.51,M,10.00,M,CLR,M,M,M,M,M,M,M,M,KCMI 040100Z AUTO 26004KT 10SM CLR A3051 RMK MADISHF
CMI,2017-02-04 01:05,M,M,M,240.00,4.00,M,30.50,M,10.00,M,CLR,M,M,M,M,M,M,M,M,KCMI 040105Z AUTO 24004KT 10SM CLR A3050 RMK MADISHF
CMI,2017-02-04 01:10,M,M,M,250.00,4.00,M,30.50,M,10.00,M,CLR,M,M,M,M,M,M,M,M,KCMI 040110Z AUTO 25004KT 10SM CLR A3050 RMK MADISHF
CMI,2017-02-04 01:15,M,M,M,260.00,4.00,M,30.50,M,10.00,M,CLR,M,M,M,M,M,M,M,M,KCMI 040115Z AUTO 26004KT 10SM CLR A3050 RMK MADISHF
CMI,2017-02-04 01:20,M,M,M,260.00,4.00,M,30.50,M,10.00,M,CLR,M,M,M,M,M,M,M,M,KCMI 040120Z AUTO 26004KT 10SM CLR A3050 RMK MADISHF
CMI,2017-02-04 01:25,M,M,M,260.00,3.00,M,30.50,M,10.00,M,CLR,M,M,M,M,M,M,M,M,KCMI 040125Z AUTO 26003KT 10SM CLR A3050 RMK MADISHF
CMI,2017-02-04 01:30,M,M,M,0.00,0.00,M,30.51,M,10.00,M,CLR,M,M,M,M,M,M,M,M,KCMI 040130Z AUTO 00000KT 10SM CLR A3051 RMK MADISHF
CMI,2017-02-04 01:35,M,M,M,270.00,3.00,M,30.51,M,10.00,M,CLR,M,M,M,M,M,M,M,M,KCMI 040135Z AUTO 27003KT 10SM CLR A3051 RMK MADISHF
CMI,2017-02-04 01:40,M,M,M,260.00,3.00,M,30.51,M,10.00,M,CLR,M,M,M,M,M,M,M,M,KCMI 040140Z AUTO 26003KT 10SM CLR A3051 RMK MADISHF
CMI,2017-02-04 01:45,M,M,M,260.00,3.00,M,30.51,M,10.00,M,CLR,M,M,M,M,M,M,M,M,KCMI 040145Z AUTO 26003KT 10SM CLR A3051 RMK MADISHF
CMI,2017-02-04 01:50,M,M,M,260.00,4.00,M,30.51,M,10.00,M,CLR,M,M,M,M,M,M,M,M,KCMI 040150Z AUTO 26004KT 10SM CLR A3051 RMK MADISHF
CMI,2017-02-04 01:53,21.90,9.00,57.02,270.00,4.00,0.00,30.51,1034.30,10.00,M,CLR,M,M,M,M,M,M,M,M,KCMI 040153Z 27004KT 10SM CLR M06/M13 A3051 RMK AO2 SLP343 T10561128
CMI,2017-02-04 01:55,M,M,M,260.00,4.00,M,30.51,M,10.00,M,CLR,M,M,M,M,M,M,M,M,KCMI 040155Z AUTO 26004KT 10SM CLR A3051 RMK MADISHF
CMI,2017-02-04 02:00,M,M,M,260.00,4.00,M,30.51,M,10.00,M,CLR,M,M,M,M,M,M,M,M,KCMI 040200Z AUTO 26004KT 10SM CLR A3051 RMK MADISHF
CMI,2017-02-04 02:05,M,M,M,250.00,4.00,M,30.51,M,10.00,M,CLR,M,M,M,M,M,M,M,M,KCMI 040205Z AUTO 25004KT 10SM CLR A3051 RMK MADISHF
CMI,2017-02-04 02:10,M,M,M,240.00,4.00,M,30.51,M,10.00,M,CLR,M,M,M,M,M,M,M,M,KCMI 040210Z AUTO 24004KT 10SM CLR A3051 RMK MADISHF
CMI,2017-02-04 02:15,M,M,M,240.00,4.00,M,30.51,M,10.00,M,CLR,M,M,M,M,M,M,M,M,KCMI 040215Z AUTO 24004KT 10SM CLR A3051 RMK MADISHF
CMI,2017-02-04 02:20,M,M,M,240.00,4.00,M,30.51,M,10.00,M,CLR,M,M,M,M,M,M,M,M,KCMI 040220Z AUTO 24004KT 10SM CLR A3051 RMK MADISHF
CMI,2017-02-04 02:25,M,M,M,240.00,4.00,M,30.51,M,10.00,M,CLR,M,M,M,M,M,M,M,M,KCMI 040225Z AUTO 24004KT 10SM CLR A3051 RMK MADISHF
CMI,2017-02-04 02:30,M,M,M,240.00,4.00,M,30.51,M,10.00,M,CLR,M,M,M,M,M,M,M,M,KCMI 040230Z AUTO 24004KT 10SM CLR A3051 RMK MADISHF
CMI,2017-02-04 02:35,M,M,M,240.00,5.00,M,30.51,M,10.00,M,CLR,M,M,M,M,M,M,M,M,KCMI 040235Z AUTO 24005KT 10SM CLR A3051 RMK MADISHF
CMI,2017-02-04 02:40,M,M,M,230.00,5.00,M,30.51,M,10.00,M,CLR,M,M,M,M,M,M,M,M,KCMI 040240Z AUTO 23005KT 10SM CLR A3051 RMK MADISHF
CMI,2017-02-04 02:45,M,M,M,230.00,5.00,M,30.51,M,10.00,M,CLR,M,M,M,M,M,M,M,M,KCMI 040245Z AUTO 23005KT 10SM CLR A3051 RMK MADISHF
CMI,2017-02-04 02:50,M,M,M,230.00,6.00,M,30.51,M,10.00,M,CLR,M,M,M,M,M,M,M,M,KCMI 040250Z AUTO 23006KT 10SM CLR A3051 RMK MADISHF
CMI,2017-02-04 02:53,19.00,8.10,61.94,240.00,6.00,0.00,30.51,1034.60,10.00,M,CLR,M,M,M,M,M,M,M,M,KCMI 040253Z 24006KT 10SM CLR M07/M13 A3051 RMK AO2 SLP346 T10721133 53002
CMI,2017-02-04 02:55,M,M,M,240.00,6.00,M,30.51,M,10.00,M,CLR,M,M,M,M,M,M,M,M,KCMI 040255Z AUTO 24006KT 10SM CLR A3051 RMK MADISHF
CMI,2017-02-04 03:00,M,M,M,240.00,5.00,M,30.51,M,10.00,M,CLR,M,M,M,M,M,M,M,M,KCMI 040300Z AUTO 24005KT 10SM CLR A3051 RMK MADISHF
CMI,2017-02-04 03:05,M,M,M,230.00,5.00,M,30.51,M,10.00,M,CLR,M,M,M,M,M,M,M,M,KCMI 040305Z AUTO 23005KT 10SM CLR A3051 RMK MADISHF
CMI,2017-02-04 03:10,M,M,M,230.00,5.00,M,30.51,M,10.00,M,CLR,M,M,M,M,M,M,M,M,KCMI 040310Z AUTO 23005KT 10SM CLR A3051 RMK MADISHF
CMI,2017-02-04 03:15,M,M,M,230.00,5.00,M,30.51,M,10.00,M,CLR,M,M,M,M,M,M,M,M,KCMI 040315Z AUTO 23005KT 10SM CLR A3051 RMK MADISHF
CMI,2017-02-04 03:20,M,M,M,220.00,5.00,M,30.51,M,10.00,M,CLR,M,M,M,M,M,M,M,M,KCMI 040320Z AUTO 22005KT 10SM CLR A3051 RMK MADISHF
CMI,2017-02-04 03:25,M,M,M,220.00,4.00,M,30.51,M,10.00,M,CLR,M,M,M,M,M,M,M,M,KCMI 040325Z AUTO 22004KT 10SM CLR A3051 RMK MADISHF
CMI,2017-02-04 03:30,M,M,M,220.00,4.00,M,30.51,M,10.00,M,CLR,M,M,M,M,M,M,M,M,KCMI 040330Z AUTO 22004KT 10SM CLR A3051 RMK MADISHF
CMI,2017-02-04 03:35,M,M,M,210.00,4.00,M,30.51,M,10.00,M,CLR,M,M,M,M,M,M,M,M,KCMI 040335Z AUTO 21004KT 10SM CLR A3051 RMK MADISHF
CMI,2017-02-04 03:40,M,M,M,210.00,4.00,M,30.51,M,10.00,M,CLR,M,M,M,M,M,M,M,M,KCMI 040340Z AUTO 21004KT 10SM CLR A3051 RMK MADISHF
CMI,2017-02-04 03:45,M,M,M,220.00,4.00,M,30.50,M,10.00,M,CLR,M,M,M,M,M,M,M,M,KCMI 040345Z AUTO 22004KT 10SM CLR A3050 RMK MADISHF
CMI,2017-02-04 03:50,M,M,M,220.00,5.00,M,30.50,M,10.00,M,CLR,M,M,M,M,M,M,M,M,KCMI 040350Z AUTO 22005KT 10SM CLR A3050 RMK MADISHF
CMI,2017-02-04 03:53,16.00,9.00,73.41,220.00,5.00,0.00,30.50,1034.20,10.00,M,CLR,M,M,M,M,M,M,M,M,KCMI 040353Z 22005KT 10SM CLR M09/M13 A3050 RMK AO2 SLP342 T10891128
CMI,2017-02-04 03:55,M,M,M,220.00,5.00,M,30.50,M,10.00,M,CLR,M,M,M,M,M,M,M,M,KCMI 040355Z AUTO 22005KT 10SM CLR A3050 RMK MADISHF
CMI,2017-02-04 04:00,M,M,M,220.00,5.00,M,30.50,M,10.00,M,CLR,M,M,M,M,M,M,M,M,KCMI 040400Z AUTO 22005KT 10SM CLR A3050 RMK MADISHF
CMI,2017-02-04 04:05,M,M,M,220.00,5.00,M,30.50,M,10.00,M,CLR,M,M,M,M,M,M,M,M,KCMI 040405Z AUTO 22005KT 10SM CLR A3050 RMK MADISHF
CMI,2017-02-04 04:10,M,M,M,210.00,5.00,M,30.50,M,10.00,M,CLR,M,M,M,M,M,M,M,M,KCMI 040410Z AUTO 21005KT 10SM CLR A3050 RMK MADISHF
CMI,2017-02-04 04:15,M,M,M,220.00,6.00,M,30.50,M,10.00,M,CLR,M,M,M,M,M,M,M,M,KCMI 040415Z AUTO 22006KT 10SM CLR A3050 RMK MADISHF
CMI,2017-02-04 04:20,M,M,M,230.00,6.00,M,30.50,M,10.00,M,CLR,M,M,M,M,M,M,M,M,KCMI 040420Z AUTO 23006KT 10SM CLR A3050 RMK MADISHF
CMI,2017-02-04 04:25,M,M,M,230.00,7.00,M,30.50,M,10.00,M,CLR,M,M,M,M,M,M,M,M,KCMI 040425Z AUTO 23007KT 10SM CLR A3050 RMK MADISHF
CMI,2017-02-04 04:30,M,M,M,230.00,6.00,M,30.50,M,10.00,M,CLR,M,M,M,M,M,M,M,M,KCMI 040430Z AUTO 23006KT 10SM CLR A3050 RMK MADISHF
CMI,2017-02-04 04:35,M,M,M,230.00,6.00,M,30.50,M,10.00,M,CLR,M,M,M,M,M,M,M,M,KCMI 040435Z AUTO 23006KT 10SM CLR A3050 RMK MADISHF
CMI,2017-02-04 04:40,M,M,M,220.00,6.00,M,30.50,M,10.00,M,CLR,M,M,M,M,M,M,M,M,KCMI 040440Z AUTO 22006KT 10SM CLR A3050 RMK MADISHF
CMI,2017-02-04 04:45,M,M,M,220.00,6.00,M,30.50,M,10.00,M,CLR,M,M,M,M,M,M,M,M,KCMI 040445Z AUTO 22006KT 10SM CLR A3050 RMK MADISHF
CMI,2017-02-04 04:50,M,M,M,220.00,6.00,M,30.50,M,10.00,M,CLR,M,M,M,M,M,M,M,M,KCMI 040450Z AUTO 22006KT 10SM CLR A3050 RMK MADISHF
CMI,2017-02-04 04:53,16.00,7.00,67.07,210.00,5.00,0.00,30.50,1034.00,10.00,M,CLR,M,M,M,M,M,M,M,M,KCMI 040453Z AUTO 21005KT 10SM CLR M09/M14 A3050 RMK AO2 SLP340 T10891139
CMI,2017-02-04 04:55,M,M,M,210.00,5.00,M,30.50,M,10.00,M,CLR,M,M,M,M,M,M,M,M,KCMI 040455Z AUTO 21005KT 10SM CLR A3050 RMK MADISHF
CMI,2017-02-04 05:00,M,M,M,220.00,5.00,M,30.50,M,10.00,M,CLR,M,M,M,M,M,M,M,M,KCMI 040500Z AUTO 22005KT 10SM CLR A3050 RMK MADISHF
CMI,2017-02-04 05:05,M,M,M,220.00,5.00,M,30.50,M,10.00,M,CLR,M,M,M,M,M,M,M,M,KCMI 040505Z AUTO 22005KT 10SM CLR A3050 RMK MADISHF
CMI,2017-02-04 05:10,M,M,M,220.00,5.00,M,30.50,M,10.00,M,CLR,M,M,M,M,M,M,M,M,KCMI 040510Z AUTO 22005KT 10SM CLR A3050 RMK MADISHF
CMI,2017-02-04 05:15,M,M,M,230.00,5.00,M,30.50,M,10.00,M,CLR,M,M,M,M,M,M,M,M,KCMI 040515Z AUTO 23005KT 10SM CLR A3050 RMK MADISHF
CMI,2017-02-04 05:20,M,M,M,230.00,5.00,M,30.50,M,10.00,M,CLR,M,M,M,M,M,M,M,M,KCMI 040520Z AUTO 23005KT 10SM CLR A3050 RMK MADISHF
CMI,2017-02-04 05:25,M,M,M,230.00,5.00,M,30.50,M,10.00,M,CLR,M,M,M,M,M,M,M,M,KCMI 040525Z AUTO 23005KT 10SM CLR A3050 RMK MADISHF
CMI,2017-02-04 05:30,M,M,M,230.00,6.00,M,30.50,M,10.00,M,CLR,M,M,M,M,M,M,M,M,KCMI 040530Z AUTO 23006KT 10SM CLR A3050 RMK MADISHF
CMI,2017-02-04 05:35,M,M,M,230.00,6.00,M,30.50,M,10.00,M,CLR,M,M,M,M,M,M,M,M,KCMI 040535Z AUTO 23006KT 10SM CLR A3050 RMK MADISHF
CMI,2017-02-04 05:40,M,M,M,240.00,6.00,M,30.50,M,10.00,M,CLR,M,M,M,M,M,M,M,M,KCMI 040540Z AUTO 24006KT 10SM CLR A3050 RMK MADISHF
CMI,2017-02-04 05:45,M,M,M,240.00,6.00,M,30.50,M,10.00,M,CLR,M,M,M,M,M,M,M,M,KCMI 040545Z AUTO 24006KT 10SM CLR A3050 RMK MADISHF
CMI,2017-02-04 05:50,M,M,M,240.00,7.00,M,30.50,M,10.00,M,CLR,M,M,M,M,M,M,M,M,KCMI 040550Z AUTO 24007KT 10SM CLR A3050 RMK MADISHF
CMI,2017-02-04 05:53,16.00,3.90,58.22,240.00,7.00,0.00,30.50,1033.90,10.00,M,CLR,M,M,M,M,M,M,M,M,KCMI 040553Z AUTO 24007KT 10SM CLR M09/M16 A3050 RMK AO2 SLP339 T10891156 11050 21094 410061094 56005
CMI,2017-02-04 05:55,M,M,M,240.00,7.00,M,30.50,M,10.00,M,CLR,M,M,M,M,M,M,M,M,KCMI 040555Z AUTO 24007KT 10SM CLR A3050 RMK MADISHF
CMI,2017-02-04 06:00,M,M,M,240.00,6.00,M,30.50,M,10.00,M,CLR,M,M,M,M,M,M,M,M,KCMI 040600Z AUTO 24006KT 10SM CLR A3050 RMK MADISHF
CMI,2017-02-04 06:05,M,M,M,240.00,6.00,M,30.50,M,10.00,M,CLR,M,M,M,M,M,M,M,M,KCMI 040605Z AUTO 24006KT 10SM CLR A3050 RMK MADISHF
CMI,2017-02-04 06:10,M,M,M,240.00,5.00,M,30.50,M,10.00,M,CLR,M,M,M,M,M,M,M,M,KCMI 040610Z AUTO 24005KT 10SM CLR A3050 RMK MADISHF
CMI,2017-02-04 06:15,M,M,M,240.00,4.00,M,30.49,M,10.00,M,CLR,M,M,M,M,M,M,M,M,KCMI 040615Z AUTO 24004KT 10SM CLR A3049 RMK MADISHF
CMI,2017-02-04 06:20,M,M,M,240.00,4.00,M,30.49,M,10.00,M,CLR,M,M,M,M,M,M,M,M,KCMI 040620Z AUTO 24004KT 10SM CLR A3049 RMK MADISHF
CMI,2017-02-04 06:25,M,M,M,250.00,4.00,M,30.49,M,10.00,M,CLR,M,M,M,M,M,M,M,M,KCMI 040625Z AUTO 25004KT 10SM CLR A3049 RMK MADISHF
CMI,2017-02-04 06:30,M,M,M,240.00,4.00,M,30.49,M,10.00,M,CLR,M,M,M,M,M,M,M,M,KCMI 040630Z AUTO 24004KT 10SM CLR A3049 RMK MADISHF
CMI,2017-02-04 06:35,M,M,M,240.00,4.00,M,30.49,M,10.00,M,CLR,M,M,M,M,M,M,M,M,KCMI 040635Z AUTO 24004KT 10SM CLR A3049 RMK MADISHF
CMI,2017-02-04 06:40,M,M,M,250.00,4.00,M,30.48,M,10.00,M,CLR,M,M,M,M,M,M,M,M,KCMI 040640Z AUTO 25004KT 10SM CLR A3048 RMK MADISHF
CMI,2017-02-04 06:45,M,M,M,230.00,3.00,M,30.48,M,10.00,M,CLR,M,M,M,M,M,M,M,M,KCMI 040645Z AUTO 23003KT 10SM CLR A3048 RMK MADISHF
CMI,2017-02-04 06:50,M,M,M,230.00,4.00,M,30.48,M,10.00,M,CLR,M,M,M,M,M,M,M,M,KCMI 040650Z AUTO 23004KT 10SM CLR A3048 RMK MADISHF
CMI,2017-02-04 06:53,15.10,7.00,69.75,230.00,4.00,0.00,30.48,1033.30,10.00,M,CLR,M,M,M,M,M,M,M,M,KCMI 040653Z AUTO 23004KT 10SM CLR M09/M14 A3048 RMK AO2 SLP333 T10941139
CMI,2017-02-04 06:55,M,M,M,220.00,4.00,M,30.48,M,10.00,M,CLR,M,M,M,M,M,M,M,M,KCMI 040655Z AUTO 22004KT 10SM CLR A3048 RMK MADISHF
CMI,2017-02-04 07:00,M,M,M,210.00,4.00,M,30.48,M,10.00,M,CLR,M,M,M,M,M,M,M,M,KCMI 040700Z AUTO 21004KT 10SM CLR A3048 RMK MADISHF
CMI,2017-02-04 07:05,M,M,M,210.00,5.00,M,30.48,M,10.00,M,CLR,M,M,M,M,M,M,M,M,KCMI 040705Z AUTO 21005KT 10SM CLR A3048 RMK MADISHF
CMI,2017-02-04 07:10,M,M,M,210.00,4.00,M,30.48,M,10.00,M,CLR,M,M,M,M,M,M,M,M,KCMI 040710Z AUTO 21004KT 10SM CLR A3048 RMK MADISHF
CMI,2017-02-04 07:15,M,M,M,210.00,4.00,M,30.48,M,10.00,M,CLR,M,M,M,M,M,M,M,M,KCMI 040715Z AUTO 21004KT 10SM CLR A3048 RMK MADISHF
CMI,2017-02-04 07:20,M,M,M,210.00,5.00,M,30.48,M,10.00,M,CLR,M,M,M,M,M,M,M,M,KCMI 040720Z AUTO 21005KT 10SM CLR A3048 RMK MADISHF
CMI,2017-02-04 07:25,M,M,M,210.00,5.00,M,30.48,M,10.00,M,CLR,M,M,M,M,M,M,M,M,KCMI 040725Z AUTO 21005KT 10SM CLR A3048 RMK MADISHF
CMI,2017-02-04 07:30,M,M,M,210.00,4.00,M,30.48,M,10.00,M,CLR,M,M,M,M,M,M,M,M,KCMI 040730Z AUTO 21004KT 10SM CLR A3048 RMK MADISHF
CMI,2017-02-04 07:35,M,M,M,210.00,5.00,M,30.48,M,10.00,M,CLR,M,M,M,M,M,M,M,M,KCMI 040735Z AUTO 21005KT 10SM CLR A3048 RMK MADISHF
CMI,2017-02-04 07:40,M,M,M,220.00,4.00,M,30.48,M,10.00,M,CLR,M,M,M,M,M,M,M,M,KCMI 040740Z AUTO 22004KT 10SM CLR A3048 RMK MADISHF
CMI,2017-02-04 07:45,M,M,M,210.00,5.00,M,30.48,M,10.00,M,CLR,M,M,M,M,M,M,M,M,KCMI 040745Z AUTO 21005KT 10SM CLR A3048 RMK MADISHF
CMI,2017-02-04 07:50,M,M,M,220.00,5.00,M,30.48,M,10.00,M,CLR,M,M,M,M,M,M,M,M,KCMI 040750Z AUTO 22005KT 10SM CLR A3048 RMK MADISHF
CMI,2017-02-04 07:53,12.90,6.10,73.74,230.00,5.00,0.00,30.48,1033.20,10.00,M,CLR,M,M,M,M,M,M,M,M,KCMI 040753Z AUTO 23005KT 10SM CLR M11/M14 A3048 RMK AO2 SLP332 T11061144
CMI,2017-02-04 07:55,M,M,M,220.00,5.00,M,30.48,M,10.00,M,CLR,M,M,M,M,M,M,M,M,KCMI 040755Z AUTO 22005KT 10SM CLR A3048 RMK MADISHF
CMI,2017-02-04 08:00,M,M,M,220.00,5.00,M,30.48,M,10.00,M,CLR,M,M,M,M,M,M,M,M,KCMI 040800Z AUTO 22005KT 10SM CLR A3048 RMK MADISHF
CMI,2017-02-04 08:05,M,M,M,220.00,5.00,M,30.48,M,10.00,M,CLR,M,M,M,M,M,M,M,M,KCMI 040805Z AUTO 22005KT 10SM CLR A3048 RMK MADISHF
CMI,2017-02-04 08:10,M,M,M,210.00,5.00,M,30.48,M,10.00,M,CLR,M,M,M,M,M,M,M,M,KCMI 040810Z AUTO 21005KT 10SM CLR A3048 RMK MADISHF
CMI,2017-02-04 08:15,M,M,M,210.00,4.00,M,30.48,M,10.00,M,CLR,M,M,M,M,M,M,M,M,KCMI 040815Z AUTO 21004KT 10SM CLR A3048 RMK MADISHF
CMI,2017-02-04 08:20,M,M,M,210.00,3.00,M,30.47,M,10.00,M,CLR,M,M,M,M,M,M,M,M,KCMI 040820Z AUTO 21003KT 10SM CLR A3047 RMK MADISHF
CMI,2017-02-04 08:25,M,M,M,200.00,4.00,M,30.47,M,10.00,M,CLR,M,M,M,M,M,M,M,M,KCMI 040825Z AUTO 20004KT 10SM CLR A3047 RMK MADISHF
CMI,2017-02-04 08:30,M,M,M,200.00,4.00,M,30.48,M,10.00,M,CLR,M,M,M,M,M,M,M,M,KCMI 040830Z AUTO 20004KT 10SM CLR A3048 RMK MADISHF
CMI,2017-02-04 08:35,M,M,M,190.00,5.00,M,30.47,M,10.00,M,CLR,M,M,M,M,M,M,M,M,KCMI 040835Z AUTO 19005KT 10SM CLR A3047 RMK MADISHF
CMI,2017-02-04 08:40,M,M,M,210.00,5.00,M,30.47,M,10.00,M,CLR,M,M,M,M,M,M,M,M,KCMI 040840Z AUTO 21005KT 10SM CLR A3047 RMK MADISHF
CMI,2017-02-04 08:45,M,M,M,210.00,4.00,M,30.47,M,10.00,M,CLR,M,M,M,M,M,M,M,M,KCMI 040845Z AUTO 21004KT 10SM CLR A3047 RMK MADISHF
CMI,2017-02-04 08:50,M,M,M,220.00,4.00,M,30.47,M,10.00,M,CLR,M,M,M,M,M,M,M,M,KCMI 040850Z AUTO 22004KT 10SM CLR A3047 RMK MADISHF
CMI,2017-02-04 08:53,14.00,7.00,73.19,220.00,4.00,0.00,30.47,1032.90,10.00,M,CLR,M,M,M,M,M,M,M,M,KCMI 040853Z AUTO 22004KT 10SM CLR M10/M14 A3047 RMK AO2 SLP329 T11001139 56010
CMI,2017-02-04 08:55,M,M,M,220.00,4.00,M,30.47,M,10.00,M,CLR,M,M,M,M,M,M,M,M,KCMI 040855Z AUTO 22004KT 10SM CLR A3047 RMK MADISHF
CMI,2017-02-04 09:00,M,M,M,220.00,5.00,M,30.47,M,10.00,M,CLR,M,M,M,M,M,M,M,M,KCMI 040900Z AUTO 22005KT 10SM CLR A3047 RMK MADISHF
CMI,2017-02-04 09:05,M,M,M,220.00,6.00,M,30.47,M,10.00,M,CLR,M,M,M,M,M,M,M,M,KCMI 040905Z AUTO 22006KT 10SM CLR A3047 RMK MADISHF
CMI,2017-02-04 09:10,M,M,M,220.00,6.00,M,30.47,M,10.00,M,CLR,M,M,M,M,M,M,M,M,KCMI 040910Z AUTO 22006KT 10SM CLR A3047 RMK MADISHF
CMI,2017-02-04 09:15,M,M,M,230.00,5.00,M,30.47,M,10.00,M,CLR,M,M,M,M,M,M,M,M,KCMI 040915Z AUTO 23005KT 10SM CLR A3047 RMK MADISHF
CMI,2017-02-04 09:20,M,M,M,230.00,5.00,M,30.47,M,10.00,M,CLR,M,M,M,M,M,M,M,M,KCMI 040920Z AUTO 23005KT 10SM CLR A3047 RMK MADISHF
CMI,2017-02-04 09:25,M,M,M,240.00,5.00,M,30.47,M,10.00,M,CLR,M,M,M,M,M,M,M,M,KCMI 040925Z AUTO 24005KT 10SM CLR A3047 RMK MADISHF
CMI,2017-02-04 09:30,M,M,M,240.00,5.00,M,30.47,M,10.00,M,CLR,M,M,M,M,M,M,M,M,KCMI 040930Z AUTO 24005KT 10SM CLR A3047 RMK MADISHF
CMI,2017-02-04 09:35,M,M,M,230.00,5.00,M,30.47,M,10.00,M,CLR,M,M,M,M,M,M,M,M,KCMI 040935Z AUTO 23005KT 10SM CLR A3047 RMK MADISHF
CMI,2017-02-04 09:40,M,M,M,220.00,4.00,M,30.46,M,10.00,M,CLR,M,M,M,M,M,M,M,M,KCMI 040940Z AUTO 22004KT 10SM CLR A3046 RMK MADISHF
CMI,2017-02-04 09:45,M,M,M,220.00,4.00,M,30.47,M,10.00,M,CLR,M,M,M,M,M,M,M,M,KCMI 040945Z AUTO 22004KT 10SM CLR A3047 RMK MADISHF
CMI,2017-02-04 09:50,M,M,M,210.00,4.00,M,30.47,M,10.00,M,CLR,M,M,M,M,M,M,M,M,KCMI 040950Z AUTO 21004KT 10SM CLR A3047 RMK MADISHF
CMI,2017-02-04 09:53,12.90,6.10,73.74,210.00,4.00,0.00,30.47,1032.80,10.00,M,CLR,M,M,M,M,M,M,M,M,KCMI 040953Z AUTO 21004KT 10SM CLR M11/M14 A3047 RMK AO2 SLP328 T11061144
CMI,2017-02-04 09:55,M,M,M,210.00,4.00,M,30.46,M,10.00,M,CLR,M,M,M,M,M,M,M,M,KCMI 040955Z AUTO 21004KT 10SM CLR A3046 RMK MADISHF
CMI,2017-02-04 10:00,M,M,M,210.00,3.00,M,30.46,M,10.00,M,CLR,M,M,M,M,M,M,M,M,KCMI 041000Z AUTO 21003KT 10SM CLR A3046 RMK MADISHF
CMI,2017-02-04 10:05,M,M,M,220.00,3.00,M,30.47,M,10.00,M,CLR,M,M,M,M,M,M,M,M,KCMI 041005Z AUTO 22003KT 10SM CLR A3047 RMK MADISHF
CMI,2017-02-04 10:10,M,M,M,210.00,3.00,M,30.47,M,10.00,M,CLR,M,M,M,M,M,M,M,M,KCMI 041010Z AUTO 21003KT 10SM CLR A3047 RMK MADISHF
CMI,2017-02-04 10:15,M,M,M,210.00,3.00,M,30.47,M,10.00,M,CLR,M,M,M,M,M,M,M,M,KCMI 041015Z AUTO 21003KT 10SM CLR A3047 RMK MADISHF
CMI,2017-02-04 10:20,M,M,M,190.00,3.00,M,30.47,M,10.00,M,CLR,M,M,M,M,M,M,M,M,KCMI 041020Z AUTO 19003KT 10SM CLR A3047 RMK MADISHF
CMI,2017-02-04 10:25,M,M,M,180.00,4.00,M,30.46,M,10.00,M,CLR,M,M,M,M,M,M,M,M,KCMI 041025Z AUTO 18004KT 10SM CLR A3046 RMK MADISHF
CMI,2017-02-04 10:30,M,M,M,180.00,4.00,M,30.46,M,10.00,M,CLR,M,M,M,M,M,M,M,M,KCMI 041030Z AUTO 18004KT 10SM CLR A3046 RMK MADISHF
CMI,2017-02-04 10:35,M,M,M,180.00,4.00,M,30.46,M,10.00,M,CLR,M,M,M,M,M,M,M,M,KCMI 041035Z AUTO 18004KT 10SM CLR A3046 RMK MADISHF
CMI,2017-02-04 10:40,M,M,M,180.00,4.00,M,30.46,M,10.00,M,CLR,M,M,M,M,M,M,M,M,KCMI 041040Z AUTO 18004KT 10SM CLR A3046 RMK MADISHF
CMI,2017-02-04 10:45,M,M,M,150.00,3.00,M,30.46,M,10.00,M,CLR,M,M,M,M,M,M,M,M,KCMI 041045Z AUTO 15003KT 10SM CLR A3046 RMK MADISHF
CMI,2017-02-04 10:50,M,M,M,160.00,3.00,M,30.46,M,10.00,M,CLR,M,M,M,M,M,M,M,M,KCMI 041050Z AUTO 16003KT 10SM CLR A3046 RMK MADISHF
CMI,2017-02-04 10:53,12.90,6.10,73.74,160.00,3.00,0.00,30.45,1032.50,10.00,M,CLR,M,M,M,M,M,M,M,M,KCMI 041053Z AUTO 16003KT 10SM CLR M11/M14 A3045 RMK AO2 SLP325 T11061144
CMI,2017-02-04 10:55,M,M,M,160.00,3.00,M,30.45,M,10.00,M,CLR,M,M,M,M,M,M,M,M,KCMI 041055Z AUTO 16003KT 10SM CLR A3045 RMK MADISHF
CMI,2017-02-04 11:00,M,M,M,150.00,4.00,M,30.45,M,10.00,M,CLR,M,M,M,M,M,M,M,M,KCMI 041100Z AUTO 15004KT 10SM CLR A3045 RMK MADISHF
CMI,2017-02-04 11:05,M,M,M,150.00,3.00,M,30.45,M,10.00,M,CLR,M,M,M,M,M,M,M,M,KCMI 041105Z AUTO 15003KT 10SM CLR A3045 RMK MADISHF
CMI,2017-02-04 11:10,M,M,M,130.00,3.00,M,30.45,M,10.00,M,CLR,M,M,M,M,M,M,M,M,KCMI 041110Z AUTO 13003KT 10SM CLR A3045 RMK MADISHF
CMI,2017-02-04 11:15,M,M,M,120.00,4.00,M,30.45,M,10.00,M,CLR,M,M,M,M,M,M,M,M,KCMI 041115Z AUTO 12004KT 10SM CLR A3045 RMK MADISHF
CMI,2017-02-04 11:20,M,M,M,110.00,4.00,M,30.45,M,10.00,M,CLR,M,M,M,M,M,M,M,M,KCMI 041120Z AUTO 11004KT 10SM CLR A3045 RMK MADISHF
CMI,2017-02-04 11:25,M,M,M,100.00,4.00,M,30.45,M,10.00,M,CLR,M,M,M,M,M,M,M,M,KCMI 041125Z AUTO 10004KT 10SM CLR A3045 RMK MADISHF
CMI,2017-02-04 11:30,M,M,M,100.00,4.00,M,30.45,M,10.00,M,CLR,M,M,M,M,M,M,M,M,KCMI 041130Z AUTO 10004KT 10SM CLR A3045 RMK MADISHF
CMI,2017-02-04 11:35,M,M,M,110.00,4.00,M,30.45,M,10.00,M,CLR,M,M,M,M,M,M,M,M,KCMI 041135Z AUTO 11004KT 10SM CLR A3045 RMK MADISHF
CMI,2017-02-04 11:40,M,M,M,120.00,4.00,M,30.45,M,10.00,M,CLR,M,M,M,M,M,M,M,M,KCMI 041140Z AUTO 12004KT 10SM CLR A3045 RMK MADISHF
CMI,2017-02-04 11:45,M,M,M,130.00,5.00,M,30.45,M,10.00,M,CLR,M,M,M,M,M,M,M,M,KCMI 041145Z AUTO 13005KT 10SM CLR A3045 RMK MADISHF
CMI,2017-02-04 11:50,M,M,M,130.00,5.00,M,30.45,M,10.00,M,CLR,M,M,M,M,M,M,M,M,KCMI 041150Z AUTO 13005KT 10SM CLR A3045 RMK MADISHF
CMI,2017-02-04 11:53,10.90,6.10,80.57,130.00,5.00,0.00,30.45,1032.40,10.00,M,CLR,M,M,M,M,M,M,M,M,KCMI 041153Z AUTO 13005KT 10SM CLR M12/M14 A3045 RMK AO2 SLP324 T11171144 11089 21117 58007
CMI,2017-02-04 11:55,M,M,M,130.00,4.00,M,30.44,M,10.00,M,CLR,M,M,M,M,M,M,M,M,KCMI 041155Z AUTO 13004KT 10SM CLR A3044 RMK MADISHF
CMI,2017-02-04 12:00,M,M,M,130.00,4.00,M,30.44,M,10.00,M,CLR,M,M,M,M,M,M,M,M,KCMI 041200Z AUTO 13004KT 10SM CLR A3044 RMK MADISHF
CMI,2017-02-04 12:05,M,M,M,130.00,6.00,M,30.44,M,10.00,M,CLR,M,M,M,M,M,M,M,M,KCMI 041205Z AUTO 13006KT 10SM CLR A3044 RMK MADISHF
CMI,2017-02-04 12:10,M,M,M,140.00,5.00,M,30.44,M,10.00,M,CLR,M,M,M,M,M,M,M,M,KCMI 041210Z AUTO 14005KT 10SM CLR A3044 RMK MADISHF
CMI,2017-02-04 12:15,M,M,M,150.00,4.00,M,30.44,M,10.00,M,CLR,M,M,M,M,M,M,M,M,KCMI 041215Z AUTO 15004KT 10SM CLR A3044 RMK MADISHF
CMI,2017-02-04 12:20,M,M,M,140.00,4.00,M,30.44,M,10.00,M,CLR,M,M,M,M,M,M,M,M,KCMI 041220Z AUTO 14004KT 10SM CLR A3044 RMK MADISHF
CMI,2017-02-04 12:25,M,M,M,150.00,5.00,M,30.44,M,10.00,M,CLR,M,M,M,M,M,M,M,M,KCMI 041225Z AUTO 15005KT 10SM CLR A3044 RMK MADISHF
CMI,2017-02-04 12:30,M,M,M,150.00,5.00,M,30.44,M,10.00,M,CLR,M,M,M,M,M,M,M,M,KCMI 041230Z AUTO 15005KT 10SM CLR A3044 RMK MADISHF
CMI,2017-02-04 12:35,M,M,M,140.00,5.00,M,30.44,M,10.00,M,CLR,M,M,M,M,M,M,M,M,KCMI 041235Z AUTO 14005KT 10SM CLR A3044 RMK MADISHF
CMI,2017-02-04 12:40,M,M,M,130.00,5.00,M,30.43,M,10.00,M,CLR,M,M,M,M,M,M,M,M,KCMI 041240Z AUTO 13005KT 10SM CLR A3043 RMK MADISHF
CMI,2017-02-04 12:45,M,M,M,130.00,6.00,M,30.43,M,10.00,M,CLR,M,M,M,M,M,M,M,M,KCMI 041245Z AUTO 13006KT 10SM CLR A3043 RMK MADISHF
CMI,2017-02-04 12:50,M,M,M,130.00,5.00,M,30.42,M,10.00,M,CLR,M,M,M,M,M,M,M,M,KCMI 041250Z AUTO 13005KT 10SM CLR A3042 RMK MADISHF
CMI,2017-02-04 12:53,14.00,8.10,76.92,130.00,6.00,0.00,30.42,1031.40,10.00,M,CLR,M,M,M,M,M,M,M,M,KCMI 041253Z 13006KT 10SM CLR M10/M13 A3042 RMK AO2 SLP314 T11001133
CMI,2017-02-04 12:55,M,M,M,130.00,6.00,M,30.42,M,10.00,M,CLR,M,M,M,M,M,M,M,M,KCMI 041255Z AUTO 13006KT 10SM CLR A3042 RMK MADISHF
CMI,2017-02-04 13:00,M,M,M,140.00,6.00,M,30.42,M,10.00,M,CLR,M,M,M,M,M,M,M,M,KCMI 041300Z AUTO 14006KT 10SM CLR A3042 RMK MADISHF
CMI,2017-02-04 13:05,M,M,M,140.00,7.00,M,30.42,M,10.00,M,CLR,M,M,M,M,M,M,M,M,KCMI 041305Z AUTO 14007KT 10SM CLR A3042 RMK MADISHF
CMI,2017-02-04 13:10,M,M,M,150.00,7.00,M,30.42,M,10.00,M,CLR,M,M,M,M,M,M,M,M,KCMI 041310Z AUTO 15007KT 10SM CLR A3042 RMK MADISHF
CMI,2017-02-04 13:15,M,M,M,140.00,7.00,M,30.42,M,10.00,M,CLR,M,M,M,M,M,M,M,M,KCMI 041315Z AUTO 14007KT 10SM CLR A3042 RMK MADISHF
CMI,2017-02-04 13:20,M,M,M,150.00,7.00,M,30.42,M,10.00,M,CLR,M,M,M,M,M,M,M,M,KCMI 041320Z AUTO 15007KT 10SM CLR A3042 RMK MADISHF
CMI,2017-02-04 13:25,M,M,M,150.00,7.00,M,30.42,M,10.00,M,CLR,M,M,M,M,M,M,M,M,KCMI 041325Z AUTO 15007KT 10SM CLR A3042 RMK MADISHF
CMI,2017-02-04 13:30,M,M,M,150.00,7.00,M,30.42,M,10.00,M,CLR,M,M,M,M,M,M,M,M,KCMI 041330Z AUTO 15007KT 10SM CLR A3042 RMK MADISHF
CMI,2017-02-04 13:35,M,M,M,150.00,6.00,M,30.42,M,10.00,M,CLR,M,M,M,M,M,M,M,M,KCMI 041335Z AUTO 15006KT 10SM CLR A3042 RMK MADISHF
CMI,2017-02-04 13:40,M,M,M,150.00,7.00,M,30.42,M,10.00,M,CLR,M,M,M,M,M,M,M,M,KCMI 041340Z AUTO 15007KT 10SM CLR A3042 RMK MADISHF
CMI,2017-02-04 13:45,M,M,M,160.00,7.00,M,30.42,M,10.00,M,CLR,M,M,M,M,M,M,M,M,KCMI 041345Z AUTO 16007KT 10SM CLR A3042 RMK MADISHF
CMI,2017-02-04 13:50,M,M,M,150.00,8.00,M,30.42,M,10.00,M,CLR,M,M,M,M,M,M,M,M,KCMI 041350Z AUTO 15008KT 10SM CLR A3042 RMK MADISHF
CMI,2017-02-04 13:53,19.90,10.90,67.57,150.00,8.00,0.00,30.42,1031.20,10.00,M,CLR,M,M,M,M,M,M,M,M,KCMI 041353Z 15008KT 10SM CLR M07/M12 A3042 RMK AO2 SLP312 T10671117
CMI,2017-02-04 13:55,M,M,M,150.00,8.00,M,30.41,M,10.00,M,CLR,M,M,M,M,M,M,M,M,KCMI 041355Z AUTO 15008KT 10SM CLR A3041 RMK MADISHF
CMI,2017-02-04 14:00,M,M,M,150.00,7.00,M,30.41,M,10.00,M,CLR,M,M,M,M,M,M,M,M,KCMI 041400Z AUTO 15007KT 10SM CLR A3041 RMK MADISHF
CMI,2017-02-04 14:05,M,M,M,150.00,8.00,M,30.41,M,10.00,M,CLR,M,M,M,M,M,M,M,M,KCMI 041405Z AUTO 15008KT 10SM CLR A3041 RMK MADISHF
CMI,2017-02-04 14:10,M,M,M,150.00,7.00,M,30.41,M,10.00,M,CLR,M,M,M,M,M,M,M,M,KCMI 041410Z AUTO 15007KT 10SM CLR A3041 RMK MADISHF
CMI,2017-02-04 14:15,M,M,M,150.00,7.00,M,30.41,M,10.00,M,CLR,M,M,M,M,M,M,M,M,KCMI 041415Z AUTO 15007KT 10SM CLR A3041 RMK MADISHF
CMI,2017-02-04 14:20,M,M,M,150.00,7.00,M,30.41,M,10.00,M,CLR,M,M,M,M,M,M,M,M,KCMI 041420Z AUTO 15007KT 10SM CLR A3041 RMK MADISHF
CMI,2017-02-04 14:25,M,M,M,150.00,9.00,M,30.41,M,10.00,M,CLR,M,M,M,M,M,M,M,M,KCMI 041425Z AUTO 15009KT 10SM CLR A3041 RMK MADISHF
CMI,2017-02-04 14:30,M,M,M,160.00,9.00,M,30.41,M,10.00,M,CLR,M,M,M,M,M,M,M,M,KCMI 041430Z AUTO 16009KT 10SM CLR A3041 RMK MADISHF
CMI,2017-02-04 14:35,M,M,M,160.00,10.00,M,30.41,M,10.00,M,CLR,M,M,M,M,M,M,M,M,KCMI 041435Z AUTO 16010KT 10SM CLR A3041 RMK MADISHF
CMI,2017-02-04 14:40,M,M,M,160.00,10.00,M,30.41,M,10.00,M,CLR,M,M,M,M,M,M,M,M,KCMI 041440Z AUTO 16010KT 10SM CLR A3041 RMK MADISHF
CMI,2017-02-04 14:45,M,M,M,160.00,11.00,M,30.41,M,10.00,M,CLR,M,M,M,M,M,M,M,M,KCMI 041445Z AUTO 16011KT 10SM CLR A3041 RMK MADISHF
CMI,2017-02-04 14:50,M,M,M,160.00,11.00,M,30.41,M,10.00,M,CLR,M,M,M,M,M,M,M,M,KCMI 041450Z AUTO 16011KT 10SM CLR A3041 RMK MADISHF
CMI,2017-02-04 14:53,25.00,14.00,62.50,170.00,12.00,0.00,30.40,1030.70,10.00,M,CLR,M,M,M,M,M,M,M,M,KCMI 041453Z 17012KT 10SM CLR M04/M10 A3040 RMK AO2 SLP307 T10391100 56014
CMI,2017-02-04 14:55,M,M,M,170.00,11.00,M,30.40,M,10.00,M,CLR,M,M,M,M,M,M,M,M,KCMI 041455Z AUTO 17011KT 10SM CLR A3040 RMK MADISHF
CMI,2017-02-04 15:00,M,M,M,160.00,13.00,M,30.40,M,10.00,M,CLR,M,M,M,M,M,M,M,M,KCMI 041500Z AUTO 16013KT 10SM CLR A3040 RMK MADISHF
CMI,2017-02-04 15:05,M,M,M,160.00,13.00,M,30.40,M,10.00,M,CLR,M,M,M,M,M,M,M,M,KCMI 041505Z AUTO 16013KT 10SM CLR A3040 RMK MADISHF
CMI,2017-02-04 15:10,M,M,M,160.00,13.00,M,30.40,M,10.00,M,CLR,M,M,M,M,M,M,M,M,KCMI 041510Z AUTO 16013KT 10SM CLR A3040 RMK MADISHF
CMI,2017-02-04 15:15,M,M,M,170.00,12.00,M,30.40,M,10.00,M,CLR,M,M,M,M,M,M,M,M,KCMI 041515Z AUTO 17012KT 10SM CLR A3040 RMK MADISHF
CMI,2017-02-04 15:20,M,M,M,160.00,14.00,M,30.39,M,10.00,M,CLR,M,M,M,M,M,M,M,M,KCMI 041520Z AUTO 16014KT 10SM CLR A3039 RMK MADISHF
CMI,2017-02-04 15:25,M,M,M,160.00,15.00,M,30.39,M,10.00,M,CLR,M,M,M,M,M,M,M,M,KCMI 041525Z AUTO 16015KT 10SM CLR A3039 RMK MADISHF
CMI,2017-02-04 15:30,M,M,M,170.00,17.00,M,30.39,M,10.00,M,CLR,M,M,M,M,M,M,M,M,KCMI 041530Z AUTO 17017KT 10SM CLR A3039 RMK MADISHF
CMI,2017-02-04 15:35,M,M,M,170.00,17.00,M,30.39,M,10.00,M,CLR,M,M,M,M,M,M,M,M,KCMI 041535Z AUTO 17017KT 10SM CLR A3039 RMK MADISHF
CMI,2017-02-04 15:40,M,M,M,160.00,15.00,M,30.38,M,10.00,M,CLR,M,M,M,M,M,M,M,M,KCMI 041540Z AUTO 16015KT 10SM CLR A3038 RMK MADISHF
CMI,2017-02-04 15:45,M,M,M,M,M,M,30.38,M,10.00,M,CLR,M,M,M,M,M,M,M,M,KCMI 041545Z AUTO /////KT 10SM CLR A3038 RMK MADISHF
CMI,2017-02-04 15:50,M,M,M,160.00,16.00,M,30.38,M,10.00,M,CLR,M,M,M,M,M,M,M,M,KCMI 041550Z AUTO 16016KT 10SM CLR A3038 RMK MADISHF
CMI,2017-02-04 15:53,28.00,12.00,50.56,160.00,16.00,0.00,30.39,1030.10,10.00,M,CLR,M,M,M,M,M,M,M,M,KCMI 041553Z 16016KT 10SM CLR M02/M11 A3039 RMK AO2 SLP301 T10221111
CMI,2017-02-04 15:55,M,M,M,160.00,15.00,M,30.39,M,10.00,M,CLR,M,M,M,M,M,M,M,M,KCMI 041555Z AUTO 16015KT 10SM CLR A3039 RMK MADISHF
CMI,2017-02-04 16:00,M,M,M,170.00,16.00,M,30.39,M,10.00,M,CLR,M,M,M,M,M,M,M,M,KCMI 041600Z AUTO 17016KT 10SM CLR A3039 RMK MADISHF
CMI,2017-02-04 16:05,M,M,M,170.00,17.00,M,30.40,M,10.00,M,CLR,M,M,M,M,M,M,M,M,KCMI 041605Z AUTO 17017KT 10SM CLR A3040 RMK MADISHF
CMI,2017-02-04 16:10,M,M,M,170.00,16.00,M,30.40,M,10.00,M,CLR,M,M,M,M,M,M,M,M,KCMI 041610Z AUTO 17016KT 10SM CLR A3040 RMK MADISHF
CMI,2017-02-04 16:15,M,M,M,170.00,17.00,M,30.40,M,10.00,M,CLR,M,M,M,M,M,M,M,M,KCMI 041615Z AUTO 17017KT 10SM CLR A3040 RMK MADISHF
CMI,2017-02-04 16:20,M,M,M,180.00,18.00,M,30.39,M,10.00,M,CLR,M,M,M,M,M,M,M,M,KCMI 041620Z AUTO 18018KT 10SM CLR A3039 RMK MADISHF
CMI,2017-02-04 16:25,M,M,M,170.00,18.00,M,30.38,M,10.00,M,CLR,M,M,M,M,M,M,M,M,KCMI 041625Z AUTO 17018KT 10SM CLR A3038 RMK MADISHF
CMI,2017-02-04 16:30,M,M,M,180.00,18.00,M,30.37,M,10.00,M,CLR,M,M,M,M,M,M,M,M,KCMI 041630Z AUTO 18018KT 10SM CLR A3037 RMK MADISHF
CMI,2017-02-04 16:35,M,M,M,170.00,17.00,M,30.37,M,10.00,M,CLR,M,M,M,M,M,M,M,M,KCMI 041635Z AUTO 17017KT 10SM CLR A3037 RMK MADISHF
CMI,2017-02-04 16:40,M,M,M,170.00,19.00,M,30.36,M,10.00,M,CLR,M,M,M,M,M,M,M,M,KCMI 041640Z AUTO 17019KT 10SM CLR A3036 RMK MADISHF
CMI,2017-02-04 16:45,M,M,M,M,M,M,30.36,M,10.00,M,CLR,M,M,M,M,M,M,M,M,KCMI 041645Z AUTO /////KT 10SM CLR A3036 RMK MADISHF
CMI,2017-02-04 16:50,M,M,M,170.00,18.00,M,30.35,M,10.00,M,CLR,M,M,M,M,M,M,M,M,KCMI 041650Z AUTO 17018KT 10SM CLR A3035 RMK MADISHF
CMI,2017-02-04 16:53,30.90,8.10,37.73,170.00,19.00,0.00,30.35,1028.80,10.00,M,CLR,M,M,M,M,M,M,M,M,KCMI 041653Z 17019KT 10SM CLR M01/M13 A3035 RMK AO2 SLP288 T10061133
CMI,2017-02-04 16:55,M,M,M,170.00,17.00,M,30.36,M,10.00,M,CLR,M,M,M,M,M,M,M,M,KCMI 041655Z AUTO 17017KT 10SM CLR A3036 RMK MADISHF
CMI,2017-02-04 17:00,M,M,M,170.00,19.00,M,30.35,M,10.00,M,CLR,M,M,M,M,M,M,M,M,KCMI 041700Z AUTO 17019KT 10SM CLR A3035 RMK MADISHF
CMI,2017-02-04 17:05,M,M,M,170.00,19.00,M,30.35,M,10.00,M,CLR,M,M,M,M,M,M,M,M,KCMI 041705Z AUTO 17019KT 10SM CLR A3035 RMK MADISHF
CMI,2017-02-04 17:10,M,M,M,170.00,20.00,M,30.35,M,10.00,M,FEW,M,M,M,12000.00,M,M,M,M,KCMI 041710Z AUTO 17020KT 10SM FEW120 A3035 RMK MADISHF
CMI,2017-02-04 17:15,M,M,M,190.00,21.00,M,30.35,M,10.00,M,FEW,M,M,M,12000.00,M,M,M,M,KCMI 041715Z AUTO 19021KT 10SM FEW120 A3035 RMK MADISHF
CMI,2017-02-04 17:20,M,M,M,190.00,19.00,M,30.34,M,10.00,M,FEW,M,M,M,12000.00,M,M,M,M,KCMI 041720Z AUTO 19019KT 10SM FEW120 A3034 RMK MADISHF
CMI,2017-02-04 17:25,M,M,M,M,M,M,30.34,M,10.00,M,FEW,M,M,M,12000.00,M,M,M,M,KCMI 041725Z AUTO /////KT 10SM FEW120 A3034 RMK MADISHF
CMI,2017-02-04 17:30,M,M,M,180.00,19.00,M,30.34,M,10.00,M,FEW,M,M,M,12000.00,M,M,M,M,KCMI 041730Z AUTO 18019KT 10SM FEW120 A3034 RMK MADISHF
CMI,2017-02-04 17:35,M,M,M,190.00,19.00,M,30.33,M,10.00,M,FEW,M,M,M,12000.00,M,M,M,M,KCMI 041735Z AUTO 19019KT 10SM FEW120 A3033 RMK MADISHF
CMI,2017-02-04 17:40,M,M,M,180.00,18.00,M,30.33,M,10.00,M,SCT,M,M,M,12000.00,M,M,M,M,KCMI 041740Z AUTO 18018KT 10SM SCT120 A3033 RMK MADISHF
CMI,2017-02-04 17:45,M,M,M,180.00,17.00,M,30.32,M,10.00,M,BKN,M,M,M,11000.00,M,M,M,M,KCMI 041745Z AUTO 18017KT 10SM BKN110 A3032 RMK MADISHF
CMI,2017-02-04 17:50,M,M,M,180.00,20.00,M,30.32,M,10.00,M,BKN,M,M,M,11000.00,M,M,M,M,KCMI 041750Z AUTO 18020KT 10SM BKN110 A3032 RMK MADISHF
CMI,2017-02-04 17:53,32.00,9.00,37.58,180.00,18.00,0.00,30.31,1027.50,10.00,M,BKN,M,M,M,11000.00,M,M,M,M,KCMI 041753Z 18018KT 10SM BKN110 00/M13 A3031 RMK AO2 PK WND 18026/1726 SLP275 T00001128 10006 21117 58030
CMI,2017-02-04 17:55,M,M,M,170.00,18.00,M,30.31,M,10.00,M,BKN,M,M,M,11000.00,M,M,M,M,KCMI 041755Z AUTO 17018KT 10SM BKN110 A3031 RMK MADISHF
CMI,2017-02-04 18:00,M,M,M,180.00,18.00,M,30.30,M,10.00,M,BKN,M,M,M,11000.00,M,M,M,M,KCMI 041800Z AUTO 18018KT 10SM BKN110 A3030 RMK MADISHF
CMI,2017-02-04 18:05,M,M,M,180.00,18.00,M,30.30,M,10.00,M,OVC,M,M,M,11000.00,M,M,M,M,KCMI 041805Z AUTO 18018KT 10SM OVC110 A3030 RMK MADISHF
CMI,2017-02-04 18:10,M,M,M,170.00,17.00,M,30.29,M,10.00,M,OVC,M,M,M,11000.00,M,M,M,M,KCMI 041810Z AUTO 17017KT 10SM OVC110 A3029 RMK MADISHF
CMI,2017-02-04 18:15,M,M,M,170.00,19.00,M,30.28,M,10.00,M,OVC,M,M,M,11000.00,M,M,M,M,KCMI 041815Z AUTO 17019KT 10SM OVC110 A3028 RMK MADISHF
CMI,2017-02-04 18:20,M,M,M,170.00,20.00,M,30.27,M,10.00,M,BKN,M,M,M,11000.00,M,M,M,M,KCMI 041820Z AUTO 17020KT 10SM BKN110 A3027 RMK MADISHF
CMI,2017-02-04 18:25,M,M,M,170.00,19.00,M,30.27,M,10.00,M,BKN,M,M,M,12000.00,M,M,M,M,KCMI 041825Z AUTO 17019KT 10SM BKN120 A3027 RMK MADISHF
CMI,2017-02-04 18:30,M,M,M,170.00,21.00,M,30.26,M,10.00,M,BKN,M,M,M,12000.00,M,M,M,M,KCMI 041830Z AUTO 17021KT 10SM BKN120 A3026 RMK MADISHF
CMI,2017-02-04 18:35,M,M,M,170.00,17.00,M,30.26,M,10.00,M,BKN,M,M,M,12000.00,M,M,M,M,KCMI 041835Z AUTO 17017KT 10SM BKN120 A3026 RMK MADISHF
CMI,2017-02-04 18:40,M,M,M,170.00,20.00,M,30.25,M,10.00,M,BKN,M,M,M,12000.00,M,M,M,M,KCMI 041840Z AUTO 17020KT 10SM BKN120 A3025 RMK MADISHF
CMI,2017-02-04 18:45,M,M,M,170.00,20.00,M,30.25,M,10.00,M,BKN,M,M,M,12000.00,M,M,M,M,KCMI 041845Z AUTO 17020KT 10SM BKN120 A3025 RMK MADISHF
CMI,2017-02-04 18:50,M,M,M,180.00,18.00,M,30.24,M,10.00,M,BKN,M,M,M,12000.00,M,M,M,M,KCMI 041850Z AUTO 18018KT 10SM BKN120 A3024 RMK MADISHF
CMI,2017-02-04 18:53,33.10,9.00,35.96,170.00,20.00,0.00,30.24,1025.10,10.00,M,BKN,M,M,M,12000.00,M,M,M,M,KCMI 041853Z 17020KT 10SM BKN120 01/M13 A3024 RMK AO2 PK WND 17027/1828 SLP251 T00061128
CMI,2017-02-04 18:55,M,M,M,170.00,17.00,M,30.24,M,10.00,M,BKN,M,M,M,12000.00,M,M,M,M,KCMI 041855Z AUTO 17017KT 10SM BKN120 A3024 RMK MADISHF
CMI,2017-02-04 19:00,M,M,M,170.00,20.00,M,30.24,M,10.00,M,BKN,M,M,M,12000.00,M,M,M,M,KCMI 041900Z AUTO 17020KT 10SM BKN120 A3024 RMK MADISHF
CMI,2017-02-04 19:05,M,M,M,170.00,17.00,M,30.23,M,10.00,M,BKN,M,M,M,11000.00,M,M,M,M,KCMI 041905Z AUTO 17017KT 10SM BKN110 A3023 RMK MADISHF
CMI,2017-02-04 19:10,M,M,M,170.00,18.00,M,30.23,M,10.00,M,BKN,M,M,M,11000.00,M,M,M,M,KCMI 041910Z AUTO 17018KT 10SM BKN110 A3023 RMK MADISHF
CMI,2017-02-04 19:15,M,M,M,170.00,19.00,M,30.22,M,10.00,M,BKN,M,M,M,11000.00,M,M,M,M,KCMI 041915Z AUTO 17019KT 10SM BKN110 A3022 RMK MADISHF
CMI,2017-02-04 19:20,M,M,M,170.00,20.00,M,30.21,M,10.00,M,BKN,M,M,M,11000.00,M,M,M,M,KCMI 041920Z AUTO 17020KT 10SM BKN110 A3021 RMK MADISHF
CMI,2017-02-04 19:25,M,M,M,170.00,17.00,M,30.21,M,10.00,M,BKN,M,M,M,11000.00,M,M,M,M,KCMI 041925Z AUTO 17017KT 10SM BKN110 A3021 RMK MADISHF
CMI,2017-02-04 19:30,M,M,M,170.00,18.00,M,30.21,M,10.00,M,BKN,M,M,M,11000.00,M,M,M,M,KCMI 041930Z AUTO 17018KT 10SM BKN110 A3021 RMK MADISHF
CMI,2017-02-04 19:35,M,M,M,170.00,20.00,M,30.21,M,10.00,M,SCT,M,M,M,12000.00,M,M,M,M,KCMI 041935Z AUTO 17020KT 10SM SCT120 A3021 RMK MADISHF
CMI,2017-02-04 19:40,M,M,M,180.00,17.00,M,30.20,M,10.00,M,FEW,M,M,M,12000.00,M,M,M,M,KCMI 041940Z AUTO 18017KT 10SM FEW120 A3020 RMK MADISHF
CMI,2017-02-04 19:45,M,M,M,190.00,17.00,M,30.20,M,10.00,M,FEW,M,M,M,12000.00,M,M,M,M,KCMI 041945Z AUTO 19017KT 10SM FEW120 A3020 RMK MADISHF
CMI,2017-02-04 19:50,M,M,M,180.00,17.00,M,30.20,M,10.00,M,CLR,M,M,M,M,M,M,M,M,KCMI 041950Z AUTO 18017KT 10SM CLR A3020 RMK MADISHF
CMI,2017-02-04 19:53,34.00,8.10,33.31,180.00,18.00,0.00,30.19,1023.50,10.00,M,CLR,M,M,M,M,M,M,M,M,KCMI 041953Z 18018KT 10SM CLR 01/M13 A3019 RMK AO2 SLP235 T00111133
CMI,2017-02-04 19:55,M,M,M,170.00,18.00,M,30.19,M,10.00,M,CLR,M,M,M,M,M,M,M,M,KCMI 041955Z AUTO 17018KT 10SM CLR A3019 RMK MADISHF
CMI,2017-02-04 20:00,M,M,M,180.00,16.00,M,30.18,M,10.00,M,CLR,M,M,M,M,M,M,M,M,KCMI 042000Z AUTO 18016KT 10SM CLR A3018 RMK MADISHF
CMI,2017-02-04 20:05,M,M,M,180.00,18.00,M,30.18,M,10.00,M,CLR,M,M,M,M,M,M,M,M,KCMI 042005Z AUTO 18018KT 10SM CLR A3018 RMK MADISHF
CMI,2017-02-04 20:10,M,M,M,180.00,18.00,M,30.18,M,10.00,M,CLR,M,M,M,M,M,M,M,M,KCMI 042010Z AUTO 18018KT 10SM CLR A3018 RMK MADISHF
CMI,2017-02-04 20:15,M,M,M,180.00,17.00,M,30.18,M,10.00,M,CLR,M,M,M,M,M,M,M,M,KCMI 042015Z AUTO 18017KT 10SM CLR A3018 RMK MADISHF
CMI,2017-02-04 20:20,M,M,M,190.00,18.00,M,30.17,M,10.00,M,CLR,M,M,M,M,M,M,M,M,KCMI 042020Z AUTO 19018KT 10SM CLR A3017 RMK MADISHF
CMI,2017-02-04 20:25,M,M,M,180.00,16.00,M,30.16,M,10.00,M,CLR,M,M,M,M,M,M,M,M,KCMI 042025Z AUTO 18016KT 10SM CLR A3016 RMK MADISHF
CMI,2017-02-04 20:30,M,M,M,170.00,17.00,M,30.16,M,10.00,M,CLR,M,M,M,M,M,M,M,M,KCMI 042030Z AUTO 17017KT 10SM CLR A3016 RMK MADISHF
CMI,2017-02-04 20:35,M,M,M,180.00,17.00,M,30.15,M,10.00,M,CLR,M,M,M,M,M,M,M,M,KCMI 042035Z AUTO 18017KT 10SM CLR A3015 RMK MADISHF
CMI,2017-02-04 20:40,M,M,M,170.00,16.00,M,30.15,M,10.00,M,CLR,M,M,M,M,M,M,M,M,KCMI 042040Z AUTO 17016KT 10SM CLR A3015 RMK MADISHF
CMI,2017-02-04 20:45,M,M,M,170.00,15.00,M,30.14,M,10.00,M,CLR,M,M,M,M,M,M,M,M,KCMI 042045Z AUTO 17015KT 10SM CLR A3014 RMK MADISHF
CMI,2017-02-04 20:50,M,M,M,170.00,19.00,M,30.13,M,10.00,M,CLR,M,M,M,M,M,M,M,M,KCMI 042050Z AUTO 17019KT 10SM CLR A3013 RMK MADISHF
CMI,2017-02-04 20:53,35.10,9.00,33.20,170.00,19.00,0.00,30.13,1021.40,10.00,23.00,CLR,M,M,M,M,M,M,M,M,KCMI 042053Z 17019G23KT 10SM CLR 02/M13 A3013 RMK AO2 SLP214 T00171128 56059
CMI,2017-02-04 20:55,M,M,M,170.00,19.00,M,30.13,M,10.00,M,CLR,M,M,M,M,M,M,M,M,KCMI 042055Z AUTO 17019KT 10SM CLR A3013 RMK MADISHF
CMI,2017-02-04 21:00,M,M,M,170.00,16.00,M,30.12,M,10.00,M,CLR,M,M,M,M,M,M,M,M,KCMI 042100Z AUTO 17016KT 10SM CLR A3012 RMK MADISHF
CMI,2017-02-04 21:05,M,M,M,170.00,19.00,M,30.12,M,10.00,M,CLR,M,M,M,M,M,M,M,M,KCMI 042105Z AUTO 17019KT 10SM CLR A3012 RMK MADISHF
CMI,2017-02-04 21:10,M,M,M,M,M,M,30.11,M,10.00,M,CLR,M,M,M,M,M,M,M,M,KCMI 042110Z AUTO /////KT 10SM CLR A3011 RMK MADISHF
CMI,2017-02-04 21:15,M,M,M,180.00,20.00,M,30.11,M,10.00,M,CLR,M,M,M,M,M,M,M,M,KCMI 042115Z AUTO 18020KT 10SM CLR A3011 RMK MADISHF
CMI,2017-02-04 21:20,M,M,M,190.00,17.00,M,30.11,M,10.00,M,CLR,M,M,M,M,M,M,M,M,KCMI 042120Z AUTO 19017KT 10SM CLR A3011 RMK MADISHF
CMI,2017-02-04 21:25,M,M,M,180.00,16.00,M,30.11,M,10.00,M,CLR,M,M,M,M,M,M,M,M,KCMI 042125Z AUTO 18016KT 10SM CLR A3011 RMK MADISHF
CMI,2017-02-04 21:30,M,M,M,170.00,16.00,M,30.11,M,10.00,M,CLR,M,M,M,M,M,M,M,M,KCMI 042130Z AUTO 17016KT 10SM CLR A3011 RMK MADISHF
CMI,2017-02-04 21:35,M,M,M,170.00,20.00,M,30.10,M,10.00,M,FEW,M,M,M,7500.00,M,M,M,M,KCMI 042135Z AUTO 17020KT 10SM FEW075 A3010 RMK MADISHF
CMI,2017-02-04 21:40,M,M,M,170.00,16.00,M,30.10,M,10.00,M,SCT,M,M,M,7500.00,M,M,M,M,KCMI 042140Z AUTO 17016KT 10SM SCT075 A3010 RMK MADISHF
CMI,2017-02-04 21:45,M,M,M,180.00,19.00,M,30.10,M,10.00,M,BKN,M,M,M,7500.00,M,M,M,M,KCMI 042145Z AUTO 18019KT 10SM BKN075 A3010 RMK MADISHF
CMI,2017-02-04 21:50,M,M,M,170.00,19.00,M,30.09,M,10.00,M,BKN,M,M,M,7500.00,M,M,M,M,KCMI 042150Z AUTO 17019KT 10SM BKN075 A3009 RMK MADISHF
CMI,2017-02-04 21:53,35.10,9.00,33.20,170.00,20.00,0.00,30.09,1020.10,10.00,M,BKN,M,M,M,7500.00,M,M,M,M,KCMI 042153Z 17020KT 10SM BKN075 02/M13 A3009 RMK AO2 SLP201 T00171128
CMI,2017-02-04 21:55,M,M,M,180.00,20.00,M,30.09,M,10.00,M,BKN,M,M,M,7000.00,M,M,M,M,KCMI 042155Z AUTO 18020KT 10SM BKN070 A3009 RMK MADISHF
CMI,2017-02-04 22:00,M,M,M,180.00,18.00,M,30.09,M,10.00,M,OVC,M,M,M,7000.00,M,M,M,M,KCMI 042200Z AUTO 18018KT 10SM OVC070 A3009 RMK MADISHF
CMI,2017-02-04 22:05,M,M,M,180.00,21.00,M,30.09,M,10.00,M,OVC,M,M,M,7000.00,M,M,M,M,KCMI 042205Z AUTO 18021KT 10SM OVC070 A3009 RMK MADISHF
CMI,2017-02-04 22:10,M,M,M,180.00,20.00,M,30.08,M,10.00,M,OVC,M,M,M,7000.00,M,M,M,M,KCMI 042210Z AUTO 18020KT 10SM OVC070 A3008 RMK MADISHF
CMI,2017-02-04 22:15,M,M,M,180.00,19.00,M,30.08,M,10.00,M,OVC,M,M,M,7000.00,M,M,M,M,KCMI 042215Z AUTO 18019KT 10SM OVC070 A3008 RMK MADISHF
CMI,2017-02-04 22:20,M,M,M,180.00,17.00,M,30.08,M,10.00,M,OVC,M,M,M,6500.00,M,M,M,M,KCMI 042220Z AUTO 18017KT 10SM OVC065 A3008 RMK MADISHF
CMI,2017-02-04 22:25,M,M,M,170.00,18.00,M,30.07,M,10.00,M,OVC,M,M,M,6500.00,M,M,M,M,KCMI 042225Z AUTO 17018KT 10SM OVC065 A3007 RMK MADISHF
CMI,2017-02-04 22:30,M,M,M,170.00,18.00,M,30.07,M,10.00,M,OVC,M,M,M,6500.00,M,M,M,M,KCMI 042230Z AUTO 17018KT 10SM OVC065 A3007 RMK MADISHF
CMI,2017-02-04 22:35,M,M,M,180.00,18.00,M,30.07,M,10.00,M,OVC,M,M,M,6000.00,M,M,M,M,KCMI 042235Z AUTO 18018KT 10SM OVC060 A3007 RMK MADISHF
CMI,2017-02-04 22:40,M,M,M,170.00,16.00,M,30.07,M,10.00,M,OVC,M,M,M,6000.00,M,M,M,M,KCMI 042240Z AUTO 17016KT 10SM OVC060 A3007 RMK MADISHF
CMI,2017-02-04 22:45,M,M,M,170.00,15.00,M,30.07,M,10.00,M,OVC,M,M,M,6000.00,M,M,M,M,KCMI 042245Z AUTO 17015KT 10SM OVC060 A3007 RMK MADISHF
CMI,2017-02-04 22:50,M,M,M,170.00,12.00,M,30.07,M,10.00,M,OVC,M,M,M,6000.00,M,M,M,M,KCMI 042250Z AUTO 17012KT 10SM OVC060 A3007 RMK MADISHF
CMI,2017-02-04 22:53,34.00,12.00,39.65,170.00,14.00,0.00,30.07,1019.30,10.00,M,OVC,M,M,M,6000.00,M,M,M,M,KCMI 042253Z 17014KT 10SM OVC060 01/M11 A3007 RMK AO2 SLP193 T00111111
CMI,2017-02-04 22:55,M,M,M,170.00,13.00,M,30.07,M,10.00,M,OVC,M,M,M,6000.00,M,M,M,M,KCMI 042255Z AUTO 17013KT 10SM OVC060 A3007 RMK MADISHF
CMI,2017-02-04 23:00,M,M,M,170.00,13.00,M,30.07,M,10.00,M,OVC,M,M,M,6000.00,M,M,M,M,KCMI 042300Z AUTO 17013KT 10SM OVC060 A3007 RMK MADISHF
CMI,2017-02-04 23:05,M,M,M,170.00,11.00,M,30.07,M,10.00,M,OVC,M,M,M,6000.00,M,M,M,M,KCMI 042305Z AUTO 17011KT 10SM OVC060 A3007 RMK MADISHF
CMI,2017-02-04 23:10,M,M,M,170.00,13.00,M,30.07,M,10.00,M,OVC,M,M,M,6000.00,M,M,M,M,KCMI 042310Z AUTO 17013KT 10SM OVC060 A3007 RMK MADISHF
CMI,2017-02-04 23:15,M,M,M,170.00,11.00,M,30.07,M,10.00,M,OVC,M,M,M,6000.00,M,M,M,M,KCMI 042315Z AUTO 17011KT 10SM OVC060 A3007 RMK MADISHF
CMI,2017-02-04 23:20,M,M,M,170.00,12.00,M,30.06,M,10.00,M,OVC,M,M,M,6000.00,M,M,M,M,KCMI 042320Z AUTO 17012KT 10SM OVC060 A3006 RMK MADISHF
CMI,2017-02-04 23:25,M,M,M,170.00,14.00,M,30.06,M,10.00,M,OVC,M,M,M,6000.00,M,M,M,M,KCMI 042325Z AUTO 17014KT 10SM OVC060 A3006 RMK MADISHF
CMI,2017-02-04 23:30,M,M,M,170.00,14.00,M,30.06,M,10.00,M,OVC,M,M,M,6000.00,M,M,M,M,KCMI 042330Z AUTO 17014KT 10SM OVC060 A3006 RMK MADISHF
CMI,2017-02-04 23:35,M,M,M,170.00,14.00,M,30.06,M,10.00,M,OVC,M,M,M,6000.00,M,M,M,M,KCMI 042335Z AUTO 17014KT 10SM OVC060 A3006 RMK MADISHF
CMI,2017-02-04 23:40,M,M,M,160.00,13.00,M,30.06,M,10.00,M,OVC,M,M,M,6000.00,M,M,M,M,KCMI 042340Z AUTO 16013KT 10SM OVC060 A3006 RMK MADISHF
CMI,2017-02-04 23:45,M,M,M,160.00,12.00,M,30.06,M,10.00,M,OVC,M,M,M,6000.00,M,M,M,M,KCMI 042345Z AUTO 16012KT 10SM OVC060 A3006 RMK MADISHF
CMI,2017-02-04 23:50,M,M,M,170.00,14.00,M,30.06,M,10.00,M,OVC,M,M,M,6000.00,M,M,M,M,KCMI 042350Z AUTO 17014KT 10SM OVC060 A3006 RMK MADISHF
CMI,2017-02-04 23:53,34.00,12.90,41.26,170.00,14.00,0.00,30.06,1018.90,10.00,M,OVC,M,M,M,6000.00,M,M,M,M,KCMI 042353Z 17014KT 10SM OVC060 01/M11 A3006 RMK AO2 SLP189 T00111106 10022 21006 56026
CMI,2017-02-04 23:55,M,M,M,170.00,13.00,M,30.06,M,10.00,M,OVC,M,M,M,6000.00,M,M,M,M,KCMI 042355Z AUTO 17013KT 10SM OVC060 A3006 RMK MADISHF
CMI,2017-02-05 00:00,M,M,M,170.00,13.00,M,30.05,M,10.00,M,OVC,M,M,M,5500.00,M,M,M,M,KCMI 050000Z AUTO 17013KT 10SM OVC055 A3005 RMK MADISHF
CMI,2017-02-05 00:05,M,M,M,170.00,13.00,M,30.05,M,10.00,M,OVC,M,M,M,5500.00,M,M,M,M,KCMI 050005Z AUTO 17013KT 10SM OVC055 A3005 RMK MADISHF
CMI,2017-02-05 00:10,M,M,M,170.00,15.00,M,30.05,M,10.00,M,OVC,M,M,M,5500.00,M,M,M,M,KCMI 050010Z AUTO 17015KT 10SM OVC055 A3005 RMK MADISHF
CMI,2017-02-05 00:15,M,M,M,160.00,13.00,M,30.05,M,10.00,M,OVC,M,M,M,5500.00,M,M,M,M,KCMI 050015Z AUTO 16013KT 10SM OVC055 A3005 RMK MADISHF
CMI,2017-02-05 00:20,M,M,M,160.00,12.00,M,30.05,M,10.00,M,OVC,M,M,M,6000.00,M,M,M,M,KCMI 050020Z AUTO 16012KT 10SM OVC060 A3005 RMK MADISHF
CMI,2017-02-05 00:25,M,M,M,160.00,14.00,M,30.05,M,10.00,M,OVC,M,M,M,6000.00,M,M,M,M,KCMI 050025Z AUTO 16014KT 10SM OVC060 A3005 RMK MADISHF
CMI,2017-02-05 00:30,M,M,M,170.00,12.00,M,30.04,M,10.00,M,OVC,M,M,M,6000.00,M,M,M,M,KCMI 050030Z AUTO 17012KT 10SM OVC060 A3004 RMK MADISHF
CMI,2017-02-05 00:35,M,M,M,160.00,14.00,M,30.04,M,10.00,M,OVC,M,M,M,6000.00,M,M,M,M,KCMI 050035Z AUTO 16014KT 10SM OVC060 A3004 RMK MADISHF
CMI,2017-02-05 00:40,M,M,M,160.00,13.00,M,30.04,M,10.00,M,OVC,M,M,M,6000.00,M,M,M,M,KCMI 050040Z AUTO 16013KT 10SM OVC060 A3004 RMK MADISHF
CMI,2017-02-05 00:45,M,M,M,160.00,13.00,M,30.04,M,10.00,M,OVC,M,M,M,6000.00,M,M,M,M,KCMI 050045Z AUTO 16013KT 10SM OVC060 A3004 RMK MADISHF
CMI,2017-02-05 00:50,M,M,M,160.00,12.00,M,30.04,M,10.00,M,OVC,M,M,M,6500.00,M,M,M,M,KCMI 050050Z AUTO 16012KT 10SM OVC065 A3004 RMK MADISHF
CMI,2017-02-05 00:53,33.10,14.00,44.89,160.00,12.00,0.00,30.04,1018.20,10.00,M,OVC,M,M,M,6500.00,M,M,M,M,KCMI 050053Z 16012KT 10SM OVC065 01/M10 A3004 RMK AO2 SLP182 T00061100
CMI,2017-02-05 00:55,M,M,M,160.00,12.00,M,30.04,M,10.00,M,OVC,M,M,M,6500.00,M,M,M,M,KCMI 050055Z AUTO 16012KT 10SM OVC065 A3004 RMK MADISHF
CMI,2017-02-05 01:00,M,M,M,170.00,13.00,M,30.04,M,10.00,M,OVC,M,M,M,6000.00,M,M,M,M,KCMI 050100Z AUTO 17013KT 10SM OVC060 A3004 RMK MADISHF
CMI,2017-02-05 01:05,M,M,M,160.00,12.00,M,30.04,M,10.00,M,OVC,M,M,M,6000.00,M,M,M,M,KCMI 050105Z AUTO 16012KT 10SM OVC060 A3004 RMK MADISHF
CMI,2017-02-05 01:10,M,M,M,170.00,14.00,M,30.03,M,10.00,19.00,OVC,M,M,M,6000.00,M,M,M,M,KCMI 050110Z AUTO 17014G19KT 10SM OVC060 A3003 RMK MADISHF
CMI,2017-02-05 01:15,M,M,M,170.00,14.00,M,30.03,M,10.00,M,OVC,M,M,M,6000.00,M,M,M,M,KCMI 050115Z AUTO 17014KT 10SM OVC060 A3003 RMK MADISHF
CMI,2017-02-05 01:20,M,M,M,170.00,15.00,M,30.03,M,10.00,M,OVC,M,M,M,6000.00,M,M,M,M,KCMI 050120Z AUTO 17015KT 10SM OVC060 A3003 RMK MADISHF
CMI,2017-02-05 01:25,M,M,M,170.00,16.00,M,30.02,M,10.00,M,OVC,M,M,M,6000.00,M,M,M,M,KCMI 050125Z AUTO 17016KT 10SM OVC060 A3002 RMK MADISHF
CMI,2017-02-05 01:30,M,M,M,170.00,16.00,M,30.02,M,10.00,M,OVC,M,M,M,6000.00,M,M,M,M,KCMI 050130Z AUTO 17016KT 10SM OVC060 A3002 RMK MADISHF
CMI,2017-02-05 01:35,M,M,M,170.00,16.00,M,30.02,M,10.00,M,OVC,M,M,M,6000.00,M,M,M,M,KCMI 050135Z AUTO 17016KT 10SM OVC060 A3002 RMK MADISHF
CMI,2017-02-05 01:40,M,M,M,170.00,15.00,M,30.02,M,10.00,M,OVC,M,M,M,6000.00,M,M,M,M,KCMI 050140Z AUTO 17015KT 10SM OVC060 A3002 RMK MADISHF
CMI,2017-02-05 01:45,M,M,M,170.00,17.00,M,30.02,M,10.00,M,OVC,M,M,M,6000.00,M,M,M,M,KCMI 050145Z AUTO 17017KT 10SM OVC060 A3002 RMK MADISHF
CMI,2017-02-05 01:50,M,M,M,170.00,15.00,M,30.01,M,10.00,M,FEW,OVC,M,M,5000.00,6000.00,M,M,M,KCMI 050150Z AUTO 17015KT 10SM FEW050 OVC060 A3001 RMK MADISHF
CMI,2017-02-05 01:53,33.10,14.00,44.89,170.00,16.00,0.00,30.01,1017.10,10.00,M,FEW,OVC,M,M,4800.00,6000.00,M,M,M,KCMI 050153Z 17016KT 10SM FEW048 OVC060 01/M10 A3001 RMK AO2 SLP171 T00061100
CMI,2017-02-05 01:55,M,M,M,170.00,18.00,M,30.01,M,10.00,M,SCT,OVC,M,M,4600.00,6000.00,M,M,M,KCMI 050155Z AUTO 17018KT 10SM SCT046 OVC060 A3001 RMK MADISHF
CMI,2017-02-05 02:00,M,M,M,170.00,17.00,M,30.01,M,10.00,M,BKN,OVC,M,M,4600.00,6000.00,M,M,M,KCMI 050200Z AUTO 17017KT 10SM BKN046 OVC060 A3001 RMK MADISHF
CMI,2017-02-05 02:05,M,M,M,170.00,16.00,M,30.01,M,10.00,M,BKN,OVC,M,M,4600.00,6000.00,M,M,M,KCMI 050205Z AUTO 17016KT 10SM BKN046 OVC060 A3001 RMK MADISHF
CMI,2017-02-05 02:10,M,M,M,170.00,13.00,M,30.01,M,10.00,M,BKN,OVC,M,M,4600.00,6000.00,M,M,M,KCMI 050210Z AUTO 17013KT 10SM BKN046 OVC060 A3001 RMK MADISHF
CMI,2017-02-05 02:15,M,M,M,170.00,13.00,M,30.01,M,10.00,M,OVC,M,M,M,4600.00,M,M,M,M,KCMI 050215Z AUTO 17013KT 10SM OVC046 A3001 RMK MADISHF
CMI,2017-02-05 02:20,M,M,M,170.00,14.00,M,30.01,M,10.00,M,OVC,M,M,M,4600.00,M,M,M,M,KCMI 050220Z AUTO 17014KT 10SM OVC046 A3001 RMK MADISHF
CMI,2017-02-05 02:25,M,M,M,170.00,13.00,M,30.01,M,10.00,M,OVC,M,M,M,4400.00,M,M,M,M,KCMI 050225Z AUTO 17013KT 10SM OVC044 A3001 RMK MADISHF
CMI,2017-02-05 02:30,M,M,M,170.00,14.00,M,30.01,M,10.00,M,OVC,M,M,M,4400.00,M,M,M,M,KCMI 050230Z AUTO 17014KT 10SM OVC044 A3001 RMK MADISHF
CMI,2017-02-05 02:35,M,M,M,170.00,15.00,M,30.00,M,M,M,OVC,M,M,M,4300.00,M,M,M,M,KCMI 050235Z AUTO 17015KT OVC043 A3000 RMK MADISHF
CMI,2017-02-05 02:40,M,M,M,180.00,15.00,M,30.00,M,M,M,OVC,M,M,M,4300.00,M,M,M,M,KCMI 050240Z AUTO 18015KT OVC043 A3000 RMK MADISHF
CMI,2017-02-05 02:45,M,M,M,180.00,14.00,M,30.00,M,M,M,OVC,M,M,M,4300.00,M,M,M,M,KCMI 050245Z AUTO 18014KT OVC043 A3000 RMK MADISHF
CMI,2017-02-05 02:50,M,M,M,180.00,15.00,M,30.00,M,10.00,M,OVC,M,M,M,4300.00,M,M,M,M,KCMI 050250Z AUTO 18015KT 10SM OVC043 A3000 RMK MADISHF
CMI,2017-02-05 02:53,34.00,14.00,43.30,180.00,15.00,0.00,30.00,1016.80,10.00,M,OVC,M,M,M,4100.00,M,M,M,M,KCMI 050253Z 18015KT 10SM OVC041 01/M10 A3000 RMK AO2 SLP168 T00111100 56017 $
CMI,2017-02-05 02:55,M,M,M,180.00,15.00,M,30.00,M,10.00,M,OVC,M,M,M,4100.00,M,M,M,M,KCMI 050255Z AUTO 18015KT 10SM OVC041 A3000 RMK MADISHF
CMI,2017-02-05 03:00,M,M,M,180.00,13.00,M,30.00,M,10.00,M,OVC,M,M,M,4100.00,M,M,M,M,KCMI 050300Z AUTO 18013KT 10SM OVC041 A3000 RMK MADISHF
CMI,2017-02-05 03:05,M,M,M,180.00,13.00,M,30.00,M,10.00,M,OVC,M,M,M,3900.00,M,M,M,M,KCMI 050305Z AUTO 18013KT 10SM OVC039 A3000 RMK MADISHF
CMI,2017-02-05 03:10,M,M,M,180.00,14.00,M,30.00,M,10.00,M,OVC,M,M,M,3700.00,M,M,M,M,KCMI 050310Z AUTO 18014KT 10SM OVC037 A3000 RMK MADISHF
CMI,2017-02-05 03:15,M,M,M,180.00,13.00,M,30.00,M,10.00,M,OVC,M,M,M,3700.00,M,M,M,M,KCMI 050315Z AUTO 18013KT 10SM OVC037 A3000 RMK MADISHF
CMI,2017-02-05 03:20,M,M,M,180.00,16.00,M,29.99,M,10.00,M,OVC,M,M,M,3700.00,M,M,M,M,KCMI 050320Z AUTO 18016KT 10SM OVC037 A2999 RMK MADISHF
CMI,2017-02-05 03:25,M,M,M,190.00,14.00,M,30.00,M,10.00,M,OVC,M,M,M,3500.00,M,M,M,M,KCMI 050325Z AUTO 19014KT 10SM OVC035 A3000 RMK MADISHF
CMI,2017-02-05 03:30,M,M,M,180.00,13.00,M,30.00,M,10.00,M,OVC,M,M,M,3500.00,M,M,M,M,KCMI 050330Z AUTO 18013KT 10SM OVC035 A3000 RMK MADISHF
CMI,2017-02-05 03:35,M,M,M,180.00,13.00,M,30.00,M,10.00,M,OVC,M,M,M,3600.00,M,M,M,M,KCMI 050335Z AUTO 18013KT 10SM OVC036 A3000 RMK MADISHF
CMI,2017-02-05 03:40,M,M,M,190.00,11.00,M,30.00,M,10.00,M,OVC,M,M,M,3600.00,M,M,M,M,KCMI 050340Z AUTO 19011KT 10SM OVC036 A3000 RMK MADISHF
CMI,2017-02-05 03:45,M,M,M,190.00,13.00,M,30.00,M,10.00,M,OVC,M,M,M,3700.00,M,M,M,M,KCMI 050345Z AUTO 19013KT 10SM OVC037 A3000 RMK MADISHF
CMI,2017-02-05 03:50,M,M,M,190.00,12.00,M,30.00,M,10.00,M,OVC,M,M,M,3700.00,M,M,M,M,KCMI 050350Z AUTO 19012KT 10SM OVC037 A3000 RMK MADISHF
CMI,2017-02-05 03:53,34.00,15.10,45.43,200.00,12.00,0.00,30.00,1016.60,10.00,M,OVC,M,M,M,3700.00,M,M,M,M,KCMI 050353Z 20012KT 10SM OVC037 01/M09 A3000 RMK AO2 SLP166 T00111094 $
CMI,2017-02-05 03:55,M,M,M,200.00,11.00,M,30.00,M,10.00,M,OVC,M,M,M,3700.00,M,M,M,M,KCMI 050355Z AUTO 20011KT 10SM OVC037 A3000 RMK MADISHF
CMI,2017-02-05 04:00,M,M,M,200.00,13.00,M,30.00,M,10.00,M,OVC,M,M,M,3700.00,M,M,M,M,KCMI 050400Z AUTO 20013KT 10SM OVC037 A3000 RMK MADISHF
CMI,2017-02-05 04:05,M,M,M,200.00,15.00,M,30.00,M,10.00,M,OVC,M,M,M,3700.00,M,M,M,M,KCMI 050405Z AUTO 20015KT 10SM OVC037 A3000 RMK MADISHF
CMI,2017-02-05 04:10,M,M,M,200.00,13.00,M,29.99,M,10.00,M,OVC,M,M,M,3700.00,M,M,M,M,KCMI 050410Z AUTO 20013KT 10SM OVC037 A2999 RMK MADISHF
CMI,2017-02-05 04:15,M,M,M,200.00,14.00,M,29.99,M,10.00,M,OVC,M,M,M,3700.00,M,M,M,M,KCMI 050415Z AUTO 20014KT 10SM OVC037 A2999 RMK MADISHF
CMI,2017-02-05 04:20,M,M,M,200.00,14.00,M,29.99,M,10.00,M,OVC,M,M,M,3600.00,M,M,M,M,KCMI 050420Z AUTO 20014KT 10SM OVC036 A2999 RMK MADISHF
CMI,2017-02-05 04:25,M,M,M,200.00,13.00,M,29.98,M,10.00,M,OVC,M,M,M,3600.00,M,M,M,M,KCMI 050425Z AUTO 20013KT 10SM OVC036 A2998 RMK MADISHF
CMI,2017-02-05 04:30,M,M,M,200.00,13.00,M,29.98,M,10.00,M,OVC,M,M,M,3600.00,M,M,M,M,KCMI 050430Z AUTO 20013KT 10SM OVC036 A2998 RMK MADISHF
CMI,2017-02-05 04:35,M,M,M,200.00,14.00,M,29.98,M,10.00,M,OVC,M,M,M,3600.00,M,M,M,M,KCMI 050435Z AUTO 20014KT 10SM OVC036 A2998 RMK MADISHF
CMI,2017-02-05 04:40,M,M,M,200.00,13.00,M,29.98,M,10.00,M,OVC,M,M,M,3600.00,M,M,M,M,KCMI 050440Z AUTO 20013KT 10SM OVC036 A2998 RMK MADISHF
CMI,2017-02-05 04:45,M,M,M,200.00,14.00,M,29.98,M,10.00,M,OVC,M,M,M,3600.00,M,M,M,M,KCMI 050445Z AUTO 20014KT 10SM OVC036 A2998 RMK MADISHF
CMI,2017-02-05 04:50,M,M,M,200.00,13.00,M,29.98,M,10.00,M,BKN,OVC,M,M,3200.00,3900.00,M,M,M,KCMI 050450Z AUTO 20013KT 10SM BKN032 OVC039 A2998 RMK MADISHF
CMI,2017-02-05 04:53,34.00,16.00,47.25,200.00,12.00,0.00,29.98,1016.00,10.00,M,OVC,M,M,M,3400.00,M,M,M,M,KCMI 050453Z 20012KT 10SM OVC034 01/M09 A2998 RMK AO2 SLP160 T00111089 $
CMI,2017-02-05 04:55,M,M,M,200.00,13.00,M,29.98,M,10.00,M,OVC,M,M,M,3399.00,M,M,M,M,KCMI 050455Z AUTO 20013KT 10SM OVC033 A2998 RMK MADISHF
CMI,2017-02-05 05:00,M,M,M,200.00,13.00,M,29.98,M,10.00,M,OVC,M,M,M,3399.00,M,M,M,M,KCMI 050500Z AUTO 20013KT 10SM OVC033 A2998 RMK MADISHF
CMI,2017-02-05 05:05,M,M,M,200.00,12.00,M,29.98,M,10.00,M,OVC,M,M,M,3399.00,M,M,M,M,KCMI 050505Z AUTO 20012KT 10SM OVC033 A2998 RMK MADISHF
CMI,2017-02-05 05:10,M,M,M,200.00,11.00,M,29.98,M,10.00,M,BKN,M,M,M,3399.00,M,M,M,M,KCMI 050510Z AUTO 20011KT 10SM BKN033 A2998 RMK MADISHF
CMI,2017-02-05 05:15,M,M,M,210.00,11.00,M,29.98,M,10.00,M,BKN,M,M,M,3399.00,M,M,M,M,KCMI 050515Z AUTO 21011KT 10SM BKN033 A2998 RMK MADISHF
CMI,2017-02-05 05:20,M,M,M,200.00,11.00,M,29.97,M,10.00,M,SCT,M,M,M,3600.00,M,M,M,M,KCMI 050520Z AUTO 20011KT 10SM SCT036 A2997 RMK MADISHF
CMI,2017-02-05 05:25,M,M,M,200.00,10.00,M,29.97,M,10.00,M,FEW,M,M,M,3600.00,M,M,M,M,KCMI 050525Z AUTO 20010KT 10SM FEW036 A2997 RMK MADISHF
CMI,2017-02-05 05:30,M,M,M,200.00,10.00,M,29.97,M,10.00,M,FEW,M,M,M,3600.00,M,M,M,M,KCMI 050530Z AUTO 20010KT 10SM FEW036 A2997 RMK MADISHF
CMI,2017-02-05 05:35,M,M,M,200.00,9.00,M,29.97,M,10.00,M,CLR,M,M,M,M,M,M,M,M,KCMI 050535Z AUTO 20009KT 10SM CLR A2997 RMK MADISHF
CMI,2017-02-05 05:40,M,M,M,200.00,10.00,M,29.96,M,10.00,M,CLR,M,M,M,M,M,M,M,M,KCMI 050540Z AUTO 20010KT 10SM CLR A2996 RMK MADISHF
CMI,2017-02-05 05:45,M,M,M,200.00,9.00,M,29.96,M,10.00,M,CLR,M,M,M,M,M,M,M,M,KCMI 050545Z AUTO 20009KT 10SM CLR A2996 RMK MADISHF
CMI,2017-02-05 05:50,M,M,M,200.00,9.00,M,29.96,M,10.00,M,CLR,M,M,M,M,M,M,M,M,KCMI 050550Z AUTO 20009KT 10SM CLR A2996 RMK MADISHF
CMI,2017-02-05 05:53,30.00,15.10,53.38,200.00,9.00,0.00,29.96,1015.40,10.00,M,CLR,M,M,M,M,M,M,M,M,KCMI 050553Z AUTO 20009KT 10SM CLR M01/M09 A2996 RMK AO2 SLP154 T10111094 10017 21011 400221117 58013 $
CMI,2017-02-05 05:55,M,M,M,200.00,10.00,M,29.96,M,10.00,M,CLR,M,M,M,M,M,M,M,M,KCMI 050555Z AUTO 20010KT 10SM CLR A2996 RMK MADISHF
CMI,2017-02-05 06:00,M,M,M,200.00,10.00,M,29.96,M,10.00,M,CLR,M,M,M,M,M,M,M,M,KCMI 050600Z AUTO 20010KT 10SM CLR A2996 RMK MADISHF
CMI,2017-02-05 06:05,M,M,M,200.00,10.00,M,29.96,M,10.00,M,CLR,M,M,M,M,M,M,M,M,KCMI 050605Z AUTO 20010KT 10SM CLR A2996 RMK MADISHF
CMI,2017-02-05 06:10,M,M,M,200.00,10.00,M,29.96,M,10.00,M,CLR,M,M,M,M,M,M,M,M,KCMI 050610Z AUTO 20010KT 10SM CLR A2996 RMK MADISHF
CMI,2017-02-05 06:15,M,M,M,200.00,9.00,M,29.96,M,10.00,M,CLR,M,M,M,M,M,M,M,M,KCMI 050615Z AUTO 20009KT 10SM CLR A2996 RMK MADISHF
CMI,2017-02-05 06:20,M,M,M,200.00,10.00,M,29.96,M,10.00,M,CLR,M,M,M,M,M,M,M,M,KCMI 050620Z AUTO 20010KT 10SM CLR A2996 RMK MADISHF
CMI,2017-02-05 06:25,M,M,M,200.00,10.00,M,29.96,M,10.00,M,CLR,M,M,M,M,M,M,M,M,KCMI 050625Z AUTO 20010KT 10SM CLR A2996 RMK MADISHF
CMI,2017-02-05 06:30,M,M,M,200.00,10.00,M,29.96,M,10.00,M,CLR,M,M,M,M,M,M,M,M,KCMI 050630Z AUTO 20010KT 10SM CLR A2996 RMK MADISHF
CMI,2017-02-05 06:35,M,M,M,200.00,11.00,M,29.96,M,10.00,M,CLR,M,M,M,M,M,M,M,M,KCMI 050635Z AUTO 20011KT 10SM CLR A2996 RMK MADISHF
CMI,2017-02-05 06:40,M,M,M,210.00,11.00,M,29.96,M,10.00,M,CLR,M,M,M,M,M,M,M,M,KCMI 050640Z AUTO 21011KT 10SM CLR A2996 RMK MADISHF
CMI,2017-02-05 06:45,M,M,M,200.00,11.00,M,29.95,M,10.00,M,CLR,M,M,M,M,M,M,M,M,KCMI 050645Z AUTO 20011KT 10SM CLR A2995 RMK MADISHF
CMI,2017-02-05 06:50,M,M,M,210.00,11.00,M,29.95,M,10.00,M,CLR,M,M,M,M,M,M,M,M,KCMI 050650Z AUTO 21011KT 10SM CLR A2995 RMK MADISHF
CMI,2017-02-05 06:53,30.90,16.00,53.53,210.00,12.00,0.00,29.95,1015.00,10.00,M,CLR,M,M,M,M,M,M,M,M,KCMI 050653Z AUTO 21012KT 10SM CLR M01/M09 A2995 RMK AO2 SLP150 T10061089 $
CMI,2017-02-05 06:55,M,M,M,210.00,11.00,M,29.95,M,10.00,M,CLR,M,M,M,M,M,M,M,M,KCMI 050655Z AUTO 21011KT 10SM CLR A2995 RMK MADISHF
CMI,2017-02-05 07:00,M,M,M,210.00,12.00,M,29.95,M,10.00,M,CLR,M,M,M,M,M,M,M,M,KCMI 050700Z AUTO 21012KT 10SM CLR A2995 RMK MADISHF
CMI,2017-02-05 07:05,M,M,M,200.00,11.00,M,29.95,M,10.00,M,CLR,M,M,M,M,M,M,M,M,KCMI 050705Z AUTO 20011KT 10SM CLR A2995 RMK MADISHF
CMI,2017-02-05 07:10,M,M,M,200.00,12.00,M,29.95,M,10.00,M,CLR,M,M,M,M,M,M,M,M,KCMI 050710Z AUTO 20012KT 10SM CLR A2995 RMK MADISHF
CMI,2017-02-05 07:15,M,M,M,210.00,12.00,M,29.95,M,10.00,M,CLR,M,M,M,M,M,M,M,M,KCMI 050715Z AUTO 21012KT 10SM CLR A2995 RMK MADISHF
CMI,2017-02-05 07:20,M,M,M,210.00,12.00,M,29.95,M,10.00,M,CLR,M,M,M,M,M,M,M,M,KCMI 050720Z AUTO 21012KT 10SM CLR A2995 RMK MADISHF
CMI,2017-02-05 07:25,M,M,M,210.00,12.00,M,29.95,M,10.00,M,CLR,M,M,M,M,M,M,M,M,KCMI 050725Z AUTO 21012KT 10SM CLR A2995 RMK MADISHF
CMI,2017-02-05 07:30,M,M,M,210.00,12.00,M,29.95,M,10.00,M,CLR,M,M,M,M,M,M,M,M,KCMI 050730Z AUTO 21012KT 10SM CLR A2995 RMK MADISHF
CMI,2017-02-05 07:35,M,M,M,210.00,11.00,M,29.95,M,10.00,M,CLR,M,M,M,M,M,M,M,M,KCMI 050735Z AUTO 21011KT 10SM CLR A2995 RMK MADISHF
CMI,2017-02-05 07:40,M,M,M,210.00,12.00,M,29.95,M,10.00,M,CLR,M,M,M,M,M,M,M,M,KCMI 050740Z AUTO 21012KT 10SM CLR A2995 RMK MADISHF
CMI,2017-02-05 07:45,M,M,M,210.00,12.00,M,29.95,M,10.00,M,CLR,M,M,M,M,M,M,M,M,KCMI 050745Z AUTO 21012KT 10SM CLR A2995 RMK MADISHF
CMI,2017-02-05 07:50,M,M,M,210.00,12.00,M,29.95,M,10.00,M,CLR,M,M,M,M,M,M,M,M,KCMI 050750Z AUTO 21012KT 10SM CLR A2995 RMK MADISHF
CMI,2017-02-05 07:53,30.90,18.00,58.36,210.00,12.00,0.00,29.95,1014.90,10.00,M,CLR,M,M,M,M,M,M,M,M,KCMI 050753Z AUTO 21012KT 10SM CLR M01/M08 A2995 RMK AO2 SLP149 T10061078 $
CMI,2017-02-05 07:55,M,M,M,210.00,11.00,M,29.95,M,10.00,M,CLR,M,M,M,M,M,M,M,M,KCMI 050755Z AUTO 21011KT 10SM CLR A2995 RMK MADISHF
CMI,2017-02-05 08:00,M,M,M,210.00,11.00,M,29.95,M,10.00,M,CLR,M,M,M,M,M,M,M,M,KCMI 050800Z AUTO 21011KT 10SM CLR A2995 RMK MADISHF
CMI,2017-02-05 08:05,M,M,M,210.00,11.00,M,29.95,M,10.00,M,CLR,M,M,M,M,M,M,M,M,KCMI 050805Z AUTO 21011KT 10SM CLR A2995 RMK MADISHF
CMI,2017-02-05 08:10,M,M,M,200.00,10.00,M,29.94,M,10.00,M,CLR,M,M,M,M,M,M,M,M,KCMI 050810Z AUTO 20010KT 10SM CLR A2994 RMK MADISHF
CMI,2017-02-05 08:15,M,M,M,210.00,11.00,M,29.94,M,10.00,M,CLR,M,M,M,M,M,M,M,M,KCMI 050815Z AUTO 21011KT 10SM CLR A2994 RMK MADISHF
CMI,2017-02-05 08:20,M,M,M,210.00,11.00,M,29.94,M,10.00,M,CLR,M,M,M,M,M,M,M,M,KCMI 050820Z AUTO 21011KT 10SM CLR A2994 RMK MADISHF
CMI,2017-02-05 08:25,M,M,M,210.00,11.00,M,29.94,M,10.00,M,CLR,M,M,M,M,M,M,M,M,KCMI 050825Z AUTO 21011KT 10SM CLR A2994 RMK MADISHF
CMI,2017-02-05 08:30,M,M,M,210.00,11.00,M,29.94,M,10.00,M,CLR,M,M,M,M,M,M,M,M,KCMI 050830Z AUTO 21011KT 10SM CLR A2994 RMK MADISHF
CMI,2017-02-05 08:35,M,M,M,210.00,11.00,M,29.94,M,10.00,M,CLR,M,M,M,M,M,M,M,M,KCMI 050835Z AUTO 21011KT 10SM CLR A2994 RMK MADISHF
CMI,2017-02-05 08:40,M,M,M,210.00,10.00,M,29.94,M,10.00,M,CLR,M,M,M,M,M,M,M,M,KCMI 050840Z AUTO 21010KT 10SM CLR A2994 RMK MADISHF
CMI,2017-02-05 08:45,M,M,M,210.00,11.00,M,29.94,M,10.00,M,CLR,M,M,M,M,M,M,M,M,KCMI 050845Z AUTO 21011KT 10SM CLR A2994 RMK MADISHF
CMI,2017-02-05 08:50,M,M,M,210.00,10.00,M,29.94,M,10.00,M,CLR,M,M,M,M,M,M,M,M,KCMI 050850Z AUTO 21010KT 10SM CLR A2994 RMK MADISHF
CMI,2017-02-05 08:53,30.00,19.00,63.18,210.00,11.00,0.00,29.94,1014.70,10.00,M,CLR,M,M,M,M,M,M,M,M,KCMI 050853Z AUTO 21011KT 10SM CLR M01/M07 A2994 RMK AO2 SLP147 T10111072 56006 $
CMI,2017-02-05 08:55,M,M,M,210.00,11.00,M,29.94,M,10.00,M,CLR,M,M,M,M,M,M,M,M,KCMI 050855Z AUTO 21011KT 10SM CLR A2994 RMK MADISHF
CMI,2017-02-05 09:00,M,M,M,210.00,11.00,M,29.94,M,10.00,M,CLR,M,M,M,M,M,M,M,M,KCMI 050900Z AUTO 21011KT 10SM CLR A2994 RMK MADISHF
CMI,2017-02-05 09:05,M,M,M,210.00,11.00,M,29.95,M,10.00,M,CLR,M,M,M,M,M,M,M,M,KCMI 050905Z AUTO 21011KT 10SM CLR A2995 RMK MADISHF
CMI,2017-02-05 09:10,M,M,M,210.00,11.00,M,29.95,M,10.00,M,CLR,M,M,M,M,M,M,M,M,KCMI 050910Z AUTO 21011KT 10SM CLR A2995 RMK MADISHF
CMI,2017-02-05 09:15,M,M,M,210.00,10.00,M,29.95,M,10.00,M,CLR,M,M,M,M,M,M,M,M,KCMI 050915Z AUTO 21010KT 10SM CLR A2995 RMK MADISHF
CMI,2017-02-05 09:20,M,M,M,210.00,11.00,M,29.95,M,10.00,M,CLR,M,M,M,M,M,M,M,M,KCMI 050920Z AUTO 21011KT 10SM CLR A2995 RMK MADISHF
CMI,2017-02-05 09:25,M,M,M,210.00,10.00,M,29.95,M,10.00,M,CLR,M,M,M,M,M,M,M,M,KCMI 050925Z AUTO 21010KT 10SM CLR A2995 RMK MADISHF
CMI,2017-02-05 09:30,M,M,M,210.00,10.00,M,29.95,M,10.00,M,CLR,M,M,M,M,M,M,M,M,KCMI 050930Z AUTO 21010KT 10SM CLR A2995 RMK MADISHF
CMI,2017-02-05 09:35,M,M,M,210.00,10.00,M,29.95,M,10.00,M,CLR,M,M,M,M,M,M,M,M,KCMI 050935Z AUTO 21010KT 10SM CLR A2995 RMK MADISHF
CMI,2017-02-05 09:40,M,M,M,210.00,9.00,M,29.95,M,10.00,M,CLR,M,M,M,M,M,M,M,M,KCMI 050940Z AUTO 21009KT 10SM CLR A2995 RMK MADISHF
CMI,2017-02-05 09:45,M,M,M,210.00,9.00,M,29.95,M,10.00,M,CLR,M,M,M,M,M,M,M,M,KCMI 050945Z AUTO 21009KT 10SM CLR A2995 RMK MADISHF
CMI,2017-02-05 09:50,M,M,M,210.00,9.00,M,29.95,M,10.00,M,CLR,M,M,M,M,M,M,M,M,KCMI 050950Z AUTO 21009KT 10SM CLR A2995 RMK MADISHF
CMI,2017-02-05 09:53,30.00,19.90,65.66,210.00,9.00,0.00,29.95,1014.80,10.00,M,CLR,M,M,M,M,M,M,M,M,KCMI 050953Z AUTO 21009KT 10SM CLR M01/M07 A2995 RMK AO2 SLP148 T10111067 $
CMI,2017-02-05 09:55,M,M,M,210.00,9.00,M,29.95,M,10.00,M,CLR,M,M,M,M,M,M,M,M,KCMI 050955Z AUTO 21009KT 10SM CLR A2995 RMK MADISHF
CMI,2017-02-05 10:00,M,M,M,210.00,9.00,M,29.95,M,10.00,M,CLR,M,M,M,M,M,M,M,M,KCMI 051000Z AUTO 21009KT 10SM CLR A2995 RMK MADISHF
CMI,2017-02-05 10:05,M,M,M,220.00,9.00,M,29.95,M,10.00,M,CLR,M,M,M,M,M,M,M,M,KCMI 051005Z AUTO 22009KT 10SM CLR A2995 RMK MADISHF
CMI,2017-02-05 10:10,M,M,M,220.00,9.00,M,29.95,M,10.00,M,CLR,M,M,M,M,M,M,M,M,KCMI 051010Z AUTO 22009KT 10SM CLR A2995 RMK MADISHF
CMI,2017-02-05 10:15,M,M,M,220.00,9.00,M,29.95,M,10.00,M,CLR,M,M,M,M,M,M,M,M,KCMI 051015Z AUTO 22009KT 10SM CLR A2995 RMK MADISHF
CMI,2017-02-05 10:20,M,M,M,220.00,8.00,M,29.94,M,10.00,M,CLR,M,M,M,M,M,M,M,M,KCMI 051020Z AUTO 22008KT 10SM CLR A2994 RMK MADISHF
CMI,2017-02-05 10:25,M,M,M,220.00,9.00,M,29.94,M,10.00,M,CLR,M,M,M,M,M,M,M,M,KCMI 051025Z AUTO 22009KT 10SM CLR A2994 RMK MADISHF
CMI,2017-02-05 10:30,M,M,M,220.00,9.00,M,29.95,M,10.00,M,CLR,M,M,M,M,M,M,M,M,KCMI 051030Z AUTO 22009KT 10SM CLR A2995 RMK MADISHF
CMI,2017-02-05 10:35,M,M,M,220.00,9.00,M,29.95,M,10.00,M,CLR,M,M,M,M,M,M,M,M,KCMI 051035Z AUTO 22009KT 10SM CLR A2995 RMK MADISHF
CMI,2017-02-05 10:40,M,M,M,220.00,10.00,M,29.95,M,10.00,M,CLR,M,M,M,M,M,M,M,M,KCMI 051040Z AUTO 22010KT 10SM CLR A2995 RMK MADISHF
CMI,2017-02-05 10:45,M,M,M,220.00,10.00,M,29.95,M,10.00,M,CLR,M,M,M,M,M,M,M,M,KCMI 051045Z AUTO 22010KT 10SM CLR A2995 RMK MADISHF
CMI,2017-02-05 10:50,M,M,M,220.00,10.00,M,29.95,M,10.00,M,CLR,M,M,M,M,M,M,M,M,KCMI 051050Z AUTO 22010KT 10SM CLR A2995 RMK MADISHF
CMI,2017-02-05 10:53,28.90,19.90,68.67,220.00,10.00,0.00,29.95,1014.90,10.00,M,CLR,M,M,M,M,M,M,M,M,KCMI 051053Z AUTO 22010KT 10SM CLR M02/M07 A2995 RMK AO2 SLP149 T10171067 $
CMI,2017-02-05 10:55,M,M,M,220.00,10.00,M,29.95,M,10.00,M,CLR,M,M,M,M,M,M,M,M,KCMI 051055Z AUTO 22010KT 10SM CLR A2995 RMK MADISHF
CMI,2017-02-05 11:00,M,M,M,220.00,11.00,M,29.95,M,10.00,M,CLR,M,M,M,M,M,M,M,M,KCMI 051100Z AUTO 22011KT 10SM CLR A2995 RMK MADISHF
CMI,2017-02-05 11:05,M,M,M,220.00,12.00,M,29.96,M,10.00,M,CLR,M,M,M,M,M,M,M,M,KCMI 051105Z AUTO 22012KT 10SM CLR A2996 RMK MADISHF
CMI,2017-02-05 11:10,M,M,M,220.00,13.00,M,29.96,M,10.00,M,CLR,M,M,M,M,M,M,M,M,KCMI 051110Z AUTO 22013KT 10SM CLR A2996 RMK MADISHF
CMI,2017-02-05 11:15,M,M,M,220.00,12.00,M,29.96,M,10.00,M,CLR,M,M,M,M,M,M,M,M,KCMI 051115Z AUTO 22012KT 10SM CLR A2996 RMK MADISHF
CMI,2017-02-05 11:20,M,M,M,220.00,13.00,M,29.95,M,10.00,M,CLR,M,M,M,M,M,M,M,M,KCMI 051120Z AUTO 22013KT 10SM CLR A2995 RMK MADISHF
CMI,2017-02-05 11:25,M,M,M,220.00,12.00,M,29.95,M,10.00,M,CLR,M,M,M,M,M,M,M,M,KCMI 051125Z AUTO 22012KT 10SM CLR A2995 RMK MADISHF
CMI,2017-02-05 11:30,M,M,M,220.00,14.00,M,29.96,M,10.00,M,CLR,M,M,M,M,M,M,M,M,KCMI 051130Z AUTO 22014KT 10SM CLR A2996 RMK MADISHF
CMI,2017-02-05 11:35,M,M,M,220.00,13.00,M,29.95,M,10.00,M,CLR,M,M,M,M,M,M,M,M,KCMI 051135Z AUTO 22013KT 10SM CLR A2995 RMK MADISHF
CMI,2017-02-05 11:40,M,M,M,220.00,14.00,M,29.96,M,10.00,M,CLR,M,M,M,M,M,M,M,M,KCMI 051140Z AUTO 22014KT 10SM CLR A2996 RMK MADISHF
CMI,2017-02-05 11:45,M,M,M,220.00,13.00,M,29.96,M,10.00,M,CLR,M,M,M,M,M,M,M,M,KCMI 051145Z AUTO 22013KT 10SM CLR A2996 RMK MADISHF
CMI,2017-02-05 11:50,M,M,M,220.00,13.00,M,29.96,M,10.00,M,CLR,M,M,M,M,M,M,M,M,KCMI 051150Z AUTO 22013KT 10SM CLR A2996 RMK MADISHF
CMI,2017-02-05 11:53,28.90,21.00,71.96,230.00,14.00,0.00,29.96,1015.20,10.00,M,CLR,M,M,M,M,M,M,M,M,KCMI 051153Z 23014KT 10SM CLR M02/M06 A2996 RMK AO2 SLP152 T10171061 11006 21017 53005 $
CMI,2017-02-05 11:55,M,M,M,220.00,13.00,M,29.96,M,10.00,M,CLR,M,M,M,M,M,M,M,M,KCMI 051155Z AUTO 22013KT 10SM CLR A2996 RMK MADISHF
CMI,2017-02-05 12:00,M,M,M,220.00,14.00,M,29.96,M,10.00,M,CLR,M,M,M,M,M,M,M,M,KCMI 051200Z AUTO 22014KT 10SM CLR A2996 RMK MADISHF
CMI,2017-02-05 12:05,M,M,M,220.00,12.00,M,29.96,M,10.00,M,CLR,M,M,M,M,M,M,M,M,KCMI 051205Z AUTO 22012KT 10SM CLR A2996 RMK MADISHF
CMI,2017-02-05 12:10,M,M,M,220.00,14.00,M,29.96,M,10.00,M,CLR,M,M,M,M,M,M,M,M,KCMI 051210Z AUTO 22014KT 10SM CLR A2996 RMK MADISHF
CMI,2017-02-05 12:15,M,M,M,220.00,14.00,M,29.96,M,10.00,M,CLR,M,M,M,M,M,M,M,M,KCMI 051215Z AUTO 22014KT 10SM CLR A2996 RMK MADISHF
CMI,2017-02-05 12:20,M,M,M,220.00,14.00,M,29.96,M,10.00,M,CLR,M,M,M,M,M,M,M,M,KCMI 051220Z AUTO 22014KT 10SM CLR A2996 RMK MADISHF
CMI,2017-02-05 12:25,M,M,M,220.00,15.00,M,29.96,M,10.00,M,CLR,M,M,M,M,M,M,M,M,KCMI 051225Z AUTO 22015KT 10SM CLR A2996 RMK MADISHF
CMI,2017-02-05 12:30,M,M,M,220.00,14.00,M,29.97,M,10.00,M,CLR,M,M,M,M,M,M,M,M,KCMI 051230Z AUTO 22014KT 10SM CLR A2997 RMK MADISHF
CMI,2017-02-05 12:35,M,M,M,220.00,14.00,M,29.97,M,10.00,M,CLR,M,M,M,M,M,M,M,M,KCMI 051235Z AUTO 22014KT 10SM CLR A2997 RMK MADISHF
CMI,2017-02-05 12:40,M,M,M,220.00,15.00,M,29.97,M,10.00,M,CLR,M,M,M,M,M,M,M,M,KCMI 051240Z AUTO 22015KT 10SM CLR A2997 RMK MADISHF
CMI,2017-02-05 12:45,M,M,M,220.00,15.00,M,29.97,M,10.00,M,CLR,M,M,M,M,M,M,M,M,KCMI 051245Z AUTO 22015KT 10SM CLR A2997 RMK MADISHF
CMI,2017-02-05 12:50,M,M,M,220.00,15.00,M,29.97,M,10.00,M,CLR,M,M,M,M,M,M,M,M,KCMI 051250Z AUTO 22015KT 10SM CLR A2997 RMK MADISHF
CMI,2017-02-05 12:53,28.90,21.00,71.96,230.00,14.00,0.00,29.98,1015.90,10.00,M,CLR,M,M,M,M,M,M,M,M,KCMI 051253Z 23014KT 10SM CLR M02/M06 A2998 RMK AO2 SLP159 T10171061 $
CMI,2017-02-05 12:55,M,M,M,230.00,14.00,M,29.98,M,10.00,M,CLR,M,M,M,M,M,M,M,M,KCMI 051255Z AUTO 23014KT 10SM CLR A2998 RMK MADISHF
CMI,2017-02-05 13:00,M,M,M,230.00,14.00,M,29.98,M,10.00,M,CLR,M,M,M,M,M,M,M,M,KCMI 051300Z AUTO 23014KT 10SM CLR A2998 RMK MADISHF
CMI,2017-02-05 13:05,M,M,M,230.00,13.00,M,29.98,M,10.00,M,CLR,M,M,M,M,M,M,M,M,KCMI 051305Z AUTO 23013KT 10SM CLR A2998 RMK MADISHF
CMI,2017-02-05 13:10,M,M,M,230.00,14.00,M,29.98,M,10.00,M,CLR,M,M,M,M,M,M,M,M,KCMI 051310Z AUTO 23014KT 10SM CLR A2998 RMK MADISHF
CMI,2017-02-05 13:15,M,M,M,230.00,13.00,M,29.98,M,10.00,M,CLR,M,M,M,M,M,M,M,M,KCMI 051315Z AUTO 23013KT 10SM CLR A2998 RMK MADISHF
CMI,2017-02-05 13:20,M,M,M,230.00,14.00,M,29.98,M,10.00,M,CLR,M,M,M,M,M,M,M,M,KCMI 051320Z AUTO 23014KT 10SM CLR A2998 RMK MADISHF
CMI,2017-02-05 13:25,M,M,M,230.00,13.00,M,29.99,M,10.00,M,CLR,M,M,M,M,M,M,M,M,KCMI 051325Z AUTO 23013KT 10SM CLR A2999 RMK MADISHF
CMI,2017-02-05 13:30,M,M,M,230.00,12.00,M,29.99,M,10.00,M,CLR,M,M,M,M,M,M,M,M,KCMI 051330Z AUTO 23012KT 10SM CLR A2999 RMK MADISHF
CMI,2017-02-05 13:35,M,M,M,230.00,13.00,M,29.99,M,10.00,M,CLR,M,M,M,M,M,M,M,M,KCMI 051335Z AUTO 23013KT 10SM CLR A2999 RMK MADISHF
CMI,2017-02-05 13:40,M,M,M,230.00,13.00,M,30.00,M,10.00,M,CLR,M,M,M,M,M,M,M,M,KCMI 051340Z AUTO 23013KT 10SM CLR A3000 RMK MADISHF
CMI,2017-02-05 13:45,M,M,M,230.00,12.00,M,30.00,M,10.00,M,CLR,M,M,M,M,M,M,M,M,KCMI 051345Z AUTO 23012KT 10SM CLR A3000 RMK MADISHF
CMI,2017-02-05 13:50,M,M,M,230.00,12.00,M,30.00,M,10.00,M,CLR,M,M,M,M,M,M,M,M,KCMI 051350Z AUTO 23012KT 10SM CLR A3000 RMK MADISHF
CMI,2017-02-05 13:53,30.00,21.90,71.48,240.00,12.00,0.00,30.00,1016.60,10.00,M,CLR,M,M,M,M,M,M,M,M,KCMI 051353Z 24012KT 10SM CLR M01/M06 A3000 RMK AO2 SLP166 T10111056 $
CMI,2017-02-05 13:55,M,M,M,240.00,12.00,M,30.00,M,10.00,M,CLR,M,M,M,M,M,M,M,M,KCMI 051355Z AUTO 24012KT 10SM CLR A3000 RMK MADISHF
CMI,2017-02-05 14:00,M,M,M,230.00,12.00,M,30.01,M,10.00,M,CLR,M,M,M,M,M,M,M,M,KCMI 051400Z AUTO 23012KT 10SM CLR A3001 RMK MADISHF
CMI,2017-02-05 14:05,M,M,M,240.00,13.00,M,30.01,M,10.00,M,CLR,M,M,M,M,M,M,M,M,KCMI 051405Z AUTO 24013KT 10SM CLR A3001 RMK MADISHF
CMI,2017-02-05 14:10,M,M,M,240.00,12.00,M,30.01,M,10.00,M,CLR,M,M,M,M,M,M,M,M,KCMI 051410Z AUTO 24012KT 10SM CLR A3001 RMK MADISHF
CMI,2017-02-05 14:15,M,M,M,240.00,13.00,M,30.01,M,10.00,M,CLR,M,M,M,M,M,M,M,M,KCMI 051415Z AUTO 24013KT 10SM CLR A3001 RMK MADISHF
CMI,2017-02-05 14:20,M,M,M,240.00,12.00,M,30.01,M,10.00,M,CLR,M,M,M,M,M,M,M,M,KCMI 051420Z AUTO 24012KT 10SM CLR A3001 RMK MADISHF
CMI,2017-02-05 14:25,M,M,M,240.00,12.00,M,30.01,M,10.00,M,CLR,M,M,M,M,M,M,M,M,KCMI 051425Z AUTO 24012KT 10SM CLR A3001 RMK MADISHF
CMI,2017-02-05 14:30,M,M,M,240.00,13.00,M,30.01,M,10.00,M,CLR,M,M,M,M,M,M,M,M,KCMI 051430Z AUTO 24013KT 10SM CLR A3001 RMK MADISHF
CMI,2017-02-05 14:35,M,M,M,250.00,12.00,M,30.01,M,10.00,M,CLR,M,M,M,M,M,M,M,M,KCMI 051435Z AUTO 25012KT 10SM CLR A3001 RMK MADISHF
CMI,2017-02-05 14:40,M,M,M,240.00,12.00,M,30.01,M,10.00,M,CLR,M,M,M,M,M,M,M,M,KCMI 051440Z AUTO 24012KT 10SM CLR A3001 RMK MADISHF
CMI,2017-02-05 14:45,M,M,M,250.00,11.00,M,30.02,M,10.00,M,CLR,M,M,M,M,M,M,M,M,KCMI 051445Z AUTO 25011KT 10SM CLR A3002 RMK MADISHF
CMI,2017-02-05 14:50,M,M,M,250.00,13.00,M,30.02,M,10.00,M,CLR,M,M,M,M,M,M,M,M,KCMI 051450Z AUTO 25013KT 10SM CLR A3002 RMK MADISHF
CMI,2017-02-05 14:53,35.10,24.10,63.86,260.00,12.00,0.00,30.02,1017.20,10.00,M,CLR,M,M,M,M,M,M,M,M,KCMI 051453Z 26012KT 10SM CLR 02/M04 A3002 RMK AO2 SLP172 T00171044 53020 $
CMI,2017-02-05 14:55,M,M,M,260.00,13.00,M,30.02,M,10.00,M,CLR,M,M,M,M,M,M,M,M,KCMI 051455Z AUTO 26013KT 10SM CLR A3002 RMK MADISHF
CMI,2017-02-05 15:00,M,M,M,270.00,13.00,M,30.02,M,10.00,M,CLR,M,M,M,M,M,M,M,M,KCMI 051500Z AUTO 27013KT 10SM CLR A3002 RMK MADISHF
CMI,2017-02-05 15:05,M,M,M,280.00,14.00,M,30.03,M,10.00,M,CLR,M,M,M,M,M,M,M,M,KCMI 051505Z AUTO 28014KT 10SM CLR A3003 RMK MADISHF
CMI,2017-02-05 15:10,M,M,M,280.00,14.00,M,30.02,M,10.00,M,CLR,M,M,M,M,M,M,M,M,KCMI 051510Z AUTO 28014KT 10SM CLR A3002 RMK MADISHF
CMI,2017-02-05 15:15,M,M,M,280.00,16.00,M,30.02,M,10.00,M,CLR,M,M,M,M,M,M,M,M,KCMI 051515Z AUTO 28016KT 10SM CLR A3002 RMK MADISHF
CMI,2017-02-05 15:20,M,M,M,280.00,14.00,M,30.03,M,10.00,M,CLR,M,M,M,M,M,M,M,M,KCMI 051520Z AUTO 28014KT 10SM CLR A3003 RMK MADISHF
CMI,2017-02-05 15:25,M,M,M,M,M,M,30.03,M,10.00,M,CLR,M,M,M,M,M,M,M,M,KCMI 051525Z AUTO /////KT 10SM CLR A3003 RMK MADISHF
CMI,2017-02-05 15:30,M,M,M,280.00,15.00,M,30.03,M,10.00,M,CLR,M,M,M,M,M,M,M,M,KCMI 051530Z AUTO 28015KT 10SM CLR A3003 RMK MADISHF
CMI,2017-02-05 15:35,M,M,M,290.00,14.00,M,30.03,M,10.00,M,CLR,M,M,M,M,M,M,M,M,KCMI 051535Z AUTO 29014KT 10SM CLR A3003 RMK MADISHF
CMI,2017-02-05 15:40,M,M,M,290.00,13.00,M,30.03,M,10.00,M,CLR,M,M,M,M,M,M,M,M,KCMI 051540Z AUTO 29013KT 10SM CLR A3003 RMK MADISHF
CMI,2017-02-05 15:45,M,M,M,290.00,12.00,M,30.04,M,10.00,M,CLR,M,M,M,M,M,M,M,M,KCMI 051545Z AUTO 29012KT 10SM CLR A3004 RMK MADISHF
CMI,2017-02-05 15:50,M,M,M,280.00,12.00,M,30.03,M,10.00,M,CLR,M,M,M,M,M,M,M,M,KCMI 051550Z AUTO 28012KT 10SM CLR A3003 RMK MADISHF
CMI,2017-02-05 15:53,37.90,24.10,57.18,290.00,13.00,0.00,30.04,1017.70,10.00,M,CLR,M,M,M,M,M,M,M,M,KCMI 051553Z 29013KT 10SM CLR 03/M04 A3004 RMK AO2 SLP177 T00331044 $
CMI,2017-02-05 15:55,M,M,M,300.00,14.00,M,30.04,M,10.00,M,CLR,M,M,M,M,M,M,M,M,KCMI 051555Z AUTO 30014KT 10SM CLR A3004 RMK MADISHF
CMI,2017-02-05 16:00,M,M,M,300.00,11.00,M,30.04,M,10.00,M,CLR,M,M,M,M,M,M,M,M,KCMI 051600Z AUTO 30011KT 10SM CLR A3004 RMK MADISHF
CMI,2017-02-05 16:05,M,M,M,290.00,12.00,M,30.04,M,10.00,M,CLR,M,M,M,M,M,M,M,M,KCMI 051605Z AUTO 29012KT 10SM CLR A3004 RMK MADISHF
CMI,2017-02-05 16:10,M,M,M,300.00,14.00,M,30.04,M,10.00,M,CLR,M,M,M,M,M,M,M,M,KCMI 051610Z AUTO 30014KT 10SM CLR A3004 RMK MADISHF
CMI,2017-02-05 16:15,M,M,M,310.00,12.00,M,30.05,M,10.00,M,CLR,M,M,M,M,M,M,M,M,KCMI 051615Z AUTO 31012KT 10SM CLR A3005 RMK MADISHF
CMI,2017-02-05 16:20,M,M,M,300.00,11.00,M,30.05,M,10.00,M,CLR,M,M,M,M,M,M,M,M,KCMI 051620Z AUTO 30011KT 10SM CLR A3005 RMK MADISHF
CMI,2017-02-05 16:25,M,M,M,310.00,11.00,M,30.05,M,10.00,M,CLR,M,M,M,M,M,M,M,M,KCMI 051625Z AUTO 31011KT 10SM CLR A3005 RMK MADISHF
CMI,2017-02-05 16:30,M,M,M,300.00,11.00,M,30.05,M,10.00,M,CLR,M,M,M,M,M,M,M,M,KCMI 051630Z AUTO 30011KT 10SM CLR A3005 RMK MADISHF
CMI,2017-02-05 16:35,M,M,M,310.00,11.00,M,30.05,M,10.00,M,CLR,M,M,M,M,M,M,M,M,KCMI 051635Z AUTO 31011KT 10SM CLR A3005 RMK MADISHF
CMI,2017-02-05 16:40,M,M,M,300.00,12.00,M,30.05,M,10.00,M,CLR,M,M,M,M,M,M,M,M,KCMI 051640Z AUTO 30012KT 10SM CLR A3005 RMK MADISHF
CMI,2017-02-05 16:45,M,M,M,310.00,11.00,M,30.05,M,10.00,M,CLR,M,M,M,M,M,M,M,M,KCMI 051645Z AUTO 31011KT 10SM CLR A3005 RMK MADISHF
CMI,2017-02-05 16:50,M,M,M,310.00,12.00,M,30.06,M,10.00,M,CLR,M,M,M,M,M,M,M,M,KCMI 051650Z AUTO 31012KT 10SM CLR A3006 RMK MADISHF
CMI,2017-02-05 16:53,41.00,23.00,48.39,300.00,10.00,0.00,30.06,1018.30,10.00,M,CLR,M,M,M,M,M,M,M,M,KCMI 051653Z 30010KT 10SM CLR 05/M05 A3006 RMK AO2 SLP183 T00501050 $
CMI,2017-02-05 16:55,M,M,M,300.00,12.00,M,30.06,M,10.00,M,CLR,M,M,M,M,M,M,M,M,KCMI 051655Z AUTO 30012KT 10SM CLR A3006 RMK MADISHF
CMI,2017-02-05 17:00,M,M,M,310.00,10.00,M,30.06,M,10.00,M,CLR,M,M,M,M,M,M,M,M,KCMI 051700Z AUTO 31010KT 10SM CLR A3006 RMK MADISHF
CMI,2017-02-05 17:05,M,M,M,320.00,11.00,M,30.06,M,10.00,M,CLR,M,M,M,M,M,M,M,M,KCMI 051705Z AUTO 32011KT 10SM CLR A3006 RMK MADISHF
CMI,2017-02-05 17:10,M,M,M,310.00,9.00,M,30.06,M,10.00,M,CLR,M,M,M,M,M,M,M,M,KCMI 051710Z AUTO 31009KT 10SM CLR A3006 RMK MADISHF
CMI,2017-02-05 17:15,M,M,M,310.00,8.00,M,30.06,M,10.00,M,CLR,M,M,M,M,M,M,M,M,KCMI 051715Z AUTO 31008KT 10SM CLR A3006 RMK MADISHF
CMI,2017-02-05 17:20,M,M,M,300.00,10.00,M,30.06,M,10.00,M,CLR,M,M,M,M,M,M,M,M,KCMI 051720Z AUTO 30010KT 10SM CLR A3006 RMK MADISHF
CMI,2017-02-05 17:25,M,M,M,320.00,11.00,M,30.06,M,10.00,M,CLR,M,M,M,M,M,M,M,M,KCMI 051725Z AUTO 32011KT 10SM CLR A3006 RMK MADISHF
CMI,2017-02-05 17:30,M,M,M,320.00,9.00,M,30.06,M,10.00,M,CLR,M,M,M,M,M,M,M,M,KCMI 051730Z AUTO 32009KT 10SM CLR A3006 RMK MADISHF
CMI,2017-02-05 17:35,M,M,M,300.00,12.00,M,30.06,M,10.00,M,CLR,M,M,M,M,M,M,M,M,KCMI 051735Z AUTO 30012KT 10SM CLR A3006 RMK MADISHF
CMI,2017-02-05 17:40,M,M,M,300.00,11.00,M,30.05,M,10.00,M,CLR,M,M,M,M,M,M,M,M,KCMI 051740Z AUTO 30011KT 10SM CLR A3005 RMK MADISHF
CMI,2017-02-05 17:45,M,M,M,320.00,8.00,M,30.05,M,10.00,M,CLR,M,M,M,M,M,M,M,M,KCMI 051745Z AUTO 32008KT 10SM CLR A3005 RMK MADISHF
CMI,2017-02-05 17:50,M,M,M,310.00,10.00,M,30.05,M,10.00,M,CLR,M,M,M,M,M,M,M,M,KCMI 051750Z AUTO 31010KT 10SM CLR A3005 RMK MADISHF
CMI,2017-02-05 17:53,44.10,24.10,44.98,320.00,10.00,0.00,30.05,1018.30,10.00,M,CLR,M,M,M,M,M,M,M,M,KCMI 051753Z 32010KT 10SM CLR 07/M04 A3005 RMK AO2 SLP183 T00671044 10067 21017 50011 $
CMI,2017-02-05 17:55,M,M,M,320.00,9.00,M,30.05,M,10.00,M,CLR,M,M,M,M,M,M,M,M,KCMI 051755Z AUTO 32009KT 10SM CLR A3005 RMK MADISHF
CMI,2017-02-05 18:00,M,M,M,290.00,11.00,M,30.06,M,10.00,M,CLR,M,M,M,M,M,M,M,M,KCMI 051800Z AUTO 29011KT 10SM CLR A3006 RMK MADISHF
CMI,2017-02-05 18:05,M,M,M,290.00,13.00,M,30.06,M,10.00,M,CLR,M,M,M,M,M,M,M,M,KCMI 051805Z AUTO 29013KT 10SM CLR A3006 RMK MADISHF
CMI,2017-02-05 18:10,M,M,M,300.00,13.00,M,30.06,M,10.00,M,CLR,M,M,M,M,M,M,M,M,KCMI 051810Z AUTO 30013KT 10SM CLR A3006 RMK MADISHF
CMI,2017-02-05 18:15,M,M,M,300.00,11.00,M,30.06,M,10.00,M,CLR,M,M,M,M,M,M,M,M,KCMI 051815Z AUTO 30011KT 10SM CLR A3006 RMK MADISHF
CMI,2017-02-05 18:20,M,M,M,310.00,11.00,M,30.05,M,10.00,M,CLR,M,M,M,M,M,M,M,M,KCMI 051820Z AUTO 31011KT 10SM CLR A3005 RMK MADISHF
CMI,2017-02-05 18:25,M,M,M,310.00,9.00,M,30.05,M,10.00,M,CLR,M,M,M,M,M,M,M,M,KCMI 051825Z AUTO 31009KT 10SM CLR A3005 RMK MADISHF
CMI,2017-02-05 18:30,M,M,M,310.00,8.00,M,30.05,M,10.00,M,CLR,M,M,M,M,M,M,M,M,KCMI 051830Z AUTO 31008KT 10SM CLR A3005 RMK MADISHF
CMI,2017-02-05 18:35,M,M,M,290.00,8.00,M,30.05,M,10.00,M,CLR,M,M,M,M,M,M,M,M,KCMI 051835Z AUTO 29008KT 10SM CLR A3005 RMK MADISHF
CMI,2017-02-05 18:40,M,M,M,290.00,9.00,M,30.05,M,10.00,14.00,CLR,M,M,M,M,M,M,M,M,KCMI 051840Z AUTO 29009G14KT 10SM CLR A3005 RMK MADISHF
CMI,2017-02-05 18:45,M,M,M,300.00,7.00,M,30.05,M,10.00,M,CLR,M,M,M,M,M,M,M,M,KCMI 051845Z AUTO 30007KT 10SM CLR A3005 RMK MADISHF
CMI,2017-02-05 18:50,M,M,M,300.00,11.00,M,30.05,M,10.00,M,CLR,M,M,M,M,M,M,M,M,KCMI 051850Z AUTO 30011KT 10SM CLR A3005 RMK MADISHF
CMI,2017-02-05 18:53,45.00,25.00,45.12,310.00,8.00,0.00,30.05,1018.00,10.00,M,CLR,M,M,M,M,M,M,M,M,KCMI 051853Z 31008KT 10SM CLR 07/M04 A3005 RMK AO2 SLP180 T00721039 $
CMI,2017-02-05 18:55,M,M,M,290.00,10.00,M,30.05,M,10.00,M,CLR,M,M,M,M,M,M,M,M,KCMI 051855Z AUTO 29010KT 10SM CLR A3005 RMK MADISHF
CMI,2017-02-05 19:00,M,M,M,310.00,12.00,M,30.05,M,10.00,M,CLR,M,M,M,M,M,M,M,M,KCMI 051900Z AUTO 31012KT 10SM CLR A3005 RMK MADISHF
CMI,2017-02-05 19:05,M,M,M,310.00,11.00,M,30.05,M,10.00,M,CLR,M,M,M,M,M,M,M,M,KCMI 051905Z AUTO 31011KT 10SM CLR A3005 RMK MADISHF
CMI,2017-02-05 19:10,M,M,M,300.00,11.00,M,30.05,M,10.00,M,CLR,M,M,M,M,M,M,M,M,KCMI 051910Z AUTO 30011KT 10SM CLR A3005 RMK MADISHF
CMI,2017-02-05 19:15,M,M,M,290.00,11.00,M,30.05,M,10.00,M,CLR,M,M,M,M,M,M,M,M,KCMI 051915Z AUTO 29011KT 10SM CLR A3005 RMK MADISHF
CMI,2017-02-05 19:20,M,M,M,290.00,8.00,M,30.05,M,10.00,M,CLR,M,M,M,M,M,M,M,M,KCMI 051920Z AUTO 29008KT 10SM CLR A3005 RMK MADISHF
CMI,2017-02-05 19:25,M,M,M,300.00,9.00,M,30.05,M,10.00,M,CLR,M,M,M,M,M,M,M,M,KCMI 051925Z AUTO 30009KT 10SM CLR A3005 RMK MADISHF
CMI,2017-02-05 19:30,M,M,M,300.00,11.00,M,30.05,M,10.00,M,CLR,M,M,M,M,M,M,M,M,KCMI 051930Z AUTO 30011KT 10SM CLR A3005 RMK MADISHF
CMI,2017-02-05 19:35,M,M,M,270.00,8.00,M,30.05,M,10.00,M,CLR,M,M,M,M,M,M,M,M,KCMI 051935Z AUTO 27008KT 10SM CLR A3005 RMK MADISHF
CMI,2017-02-05 19:40,M,M,M,300.00,10.00,M,30.05,M,10.00,M,CLR,M,M,M,M,M,M,M,M,KCMI 051940Z AUTO 30010KT 10SM CLR A3005 RMK MADISHF
CMI,2017-02-05 19:45,M,M,M,320.00,9.00,M,30.05,M,10.00,M,CLR,M,M,M,M,M,M,M,M,KCMI 051945Z AUTO 32009KT 10SM CLR A3005 RMK MADISHF
CMI,2017-02-05 19:50,M,M,M,300.00,10.00,M,30.05,M,10.00,M,CLR,M,M,M,M,M,M,M,M,KCMI 051950Z AUTO 30010KT 10SM CLR A3005 RMK MADISHF
CMI,2017-02-05 19:53,46.00,25.00,43.44,300.00,8.00,0.00,30.05,1018.00,10.00,16.00,CLR,M,M,M,M,M,M,M,M,KCMI 051953Z 30008G16KT 10SM CLR 08/M04 A3005 RMK AO2 SLP180 T00781039 $
CMI,2017-02-05 19:55,M,M,M,290.00,8.00,M,30.05,M,10.00,M,CLR,M,M,M,M,M,M,M,M,KCMI 051955Z AUTO 29008KT 10SM CLR A3005 RMK MADISHF
CMI,2017-02-05 20:00,M,M,M,310.00,9.00,M,30.05,M,10.00,M,CLR,M,M,M,M,M,M,M,M,KCMI 052000Z AUTO 31009KT 10SM CLR A3005 RMK MADISHF
CMI,2017-02-05 20:05,M,M,M,300.00,9.00,M,30.05,M,10.00,M,CLR,M,M,M,M,M,M,M,M,KCMI 052005Z AUTO 30009KT 10SM CLR A3005 RMK MADISHF
CMI,2017-02-05 20:10,M,M,M,280.00,5.00,M,30.05,M,10.00,M,CLR,M,M,M,M,M,M,M,M,KCMI 052010Z AUTO 28005KT 10SM CLR A3005 RMK MADISHF
CMI,2017-02-05 20:15,M,M,M,300.00,9.00,M,30.05,M,10.00,M,CLR,M,M,M,M,M,M,M,M,KCMI 052015Z AUTO 30009KT 10SM CLR A3005 RMK MADISHF
CMI,2017-02-05 20:20,M,M,M,280.00,8.00,M,30.05,M,10.00,M,CLR,M,M,M,M,M,M,M,M,KCMI 052020Z AUTO 28008KT 10SM CLR A3005 RMK MADISHF
CMI,2017-02-05 20:25,M,M,M,290.00,12.00,M,30.05,M,10.00,M,CLR,M,M,M,M,M,M,M,M,KCMI 052025Z AUTO 29012KT 10SM CLR A3005 RMK MADISHF
CMI,2017-02-05 20:30,M,M,M,290.00,8.00,M,30.05,M,10.00,M,CLR,M,M,M,M,M,M,M,M,KCMI 052030Z AUTO 29008KT 10SM CLR A3005 RMK MADISHF
CMI,2017-02-05 20:35,M,M,M,300.00,7.00,M,30.05,M,10.00,M,CLR,M,M,M,M,M,M,M,M,KCMI 052035Z AUTO 30007KT 10SM CLR A3005 RMK MADISHF
CMI,2017-02-05 20:40,M,M,M,270.00,9.00,M,30.06,M,10.00,M,CLR,M,M,M,M,M,M,M,M,KCMI 052040Z AUTO 27009KT 10SM CLR A3006 RMK MADISHF
CMI,2017-02-05 20:45,M,M,M,280.00,10.00,M,30.06,M,10.00,M,CLR,M,M,M,M,M,M,M,M,KCMI 052045Z AUTO 28010KT 10SM CLR A3006 RMK MADISHF
CMI,2017-02-05 20:50,M,M,M,280.00,11.00,M,30.06,M,10.00,M,CLR,M,M,M,M,M,M,M,M,KCMI 052050Z AUTO 28011KT 10SM CLR A3006 RMK MADISHF
CMI,2017-02-05 20:53,46.00,25.00,43.44,270.00,10.00,0.00,30.07,1018.60,10.00,M,CLR,M,M,M,M,M,M,M,M,KCMI 052053Z 27010KT 10SM CLR 08/M04 A3007 RMK AO2 SLP186 T00781039 53004 $
CMI,2017-02-05 20:55,M,M,M,280.00,9.00,M,30.07,M,10.00,M,CLR,M,M,M,M,M,M,M,M,KCMI 052055Z AUTO 28009KT 10SM CLR A3007 RMK MADISHF
CMI,2017-02-05 21:00,M,M,M,290.00,10.00,M,30.07,M,10.00,M,CLR,M,M,M,M,M,M,M,M,KCMI 052100Z AUTO 29010KT 10SM CLR A3007 RMK MADISHF
CMI,2017-02-05 21:05,M,M,M,310.00,7.00,M,30.07,M,10.00,M,CLR,M,M,M,M,M,M,M,M,KCMI 052105Z AUTO 31007KT 10SM CLR A3007 RMK MADISHF
CMI,2017-02-05 21:10,M,M,M,290.00,10.00,M,30.07,M,10.00,M,CLR,M,M,M,M,M,M,M,M,KCMI 052110Z AUTO 29010KT 10SM CLR A3007 RMK MADISHF
CMI,2017-02-05 21:15,M,M,M,300.00,8.00,M,30.07,M,10.00,M,CLR,M,M,M,M,M,M,M,M,KCMI 052115Z AUTO 30008KT 10SM CLR A3007 RMK MADISHF
CMI,2017-02-05 21:20,M,M,M,290.00,6.00,M,30.07,M,10.00,M,CLR,M,M,M,M,M,M,M,M,KCMI 052120Z AUTO 29006KT 10SM CLR A3007 RMK MADISHF
CMI,2017-02-05 21:25,M,M,M,300.00,8.00,M,30.07,M,10.00,M,CLR,M,M,M,M,M,M,M,M,KCMI 052125Z AUTO 30008KT 10SM CLR A3007 RMK MADISHF
CMI,2017-02-05 21:30,M,M,M,300.00,7.00,M,30.07,M,10.00,M,CLR,M,M,M,M,M,M,M,M,KCMI 052130Z AUTO 30007KT 10SM CLR A3007 RMK MADISHF
CMI,2017-02-05 21:35,M,M,M,290.00,8.00,M,30.06,M,10.00,M,CLR,M,M,M,M,M,M,M,M,KCMI 052135Z AUTO 29008KT 10SM CLR A3006 RMK MADISHF
CMI,2017-02-05 21:40,M,M,M,280.00,7.00,M,30.06,M,10.00,M,CLR,M,M,M,M,M,M,M,M,KCMI 052140Z AUTO 28007KT 10SM CLR A3006 RMK MADISHF
CMI,2017-02-05 21:45,M,M,M,290.00,7.00,M,30.07,M,10.00,M,CLR,M,M,M,M,M,M,M,M,KCMI 052145Z AUTO 29007KT 10SM CLR A3007 RMK MADISHF
CMI,2017-02-05 21:50,M,M,M,280.00,7.00,M,30.07,M,10.00,M,CLR,M,M,M,M,M,M,M,M,KCMI 052150Z AUTO 28007KT 10SM CLR A3007 RMK MADISHF
CMI,2017-02-05 21:53,45.00,25.00,45.12,300.00,8.00,0.00,30.07,1018.80,10.00,M,CLR,M,M,M,M,M,M,M,M,KCMI 052153Z 30008KT 10SM CLR 07/M04 A3007 RMK AO2 SLP188 T00721039 $
CMI,2017-02-05 21:55,M,M,M,290.00,7.00,M,30.07,M,10.00,M,CLR,M,M,M,M,M,M,M,M,KCMI 052155Z AUTO 29007KT 10SM CLR A3007 RMK MADISHF
CMI,2017-02-05 22:00,M,M,M,290.00,8.00,M,30.07,M,10.00,M,CLR,M,M,M,M,M,M,M,M,KCMI 052200Z AUTO 29008KT 10SM CLR A3007 RMK MADISHF
CMI,2017-02-05 22:05,M,M,M,290.00,7.00,M,30.07,M,10.00,M,CLR,M,M,M,M,M,M,M,M,KCMI 052205Z AUTO 29007KT 10SM CLR A3007 RMK MADISHF
CMI,2017-02-05 22:10,M,M,M,280.00,8.00,M,30.07,M,10.00,M,CLR,M,M,M,M,M,M,M,M,KCMI 052210Z AUTO 28008KT 10SM CLR A3007 RMK MADISHF
CMI,2017-02-05 22:15,M,M,M,290.00,6.00,M,30.07,M,10.00,M,CLR,M,M,M,M,M,M,M,M,KCMI 052215Z AUTO 29006KT 10SM CLR A3007 RMK MADISHF
CMI,2017-02-05 22:20,M,M,M,290.00,6.00,M,30.08,M,10.00,M,CLR,M,M,M,M,M,M,M,M,KCMI 052220Z AUTO 29006KT 10SM CLR A3008 RMK MADISHF
CMI,2017-02-05 22:25,M,M,M,290.00,7.00,M,30.08,M,10.00,M,CLR,M,M,M,M,M,M,M,M,KCMI 052225Z AUTO 29007KT 10SM CLR A3008 RMK MADISHF
CMI,2017-02-05 22:30,M,M,M,290.00,7.00,M,30.09,M,10.00,M,CLR,M,M,M,M,M,M,M,M,KCMI 052230Z AUTO 29007KT 10SM CLR A3009 RMK MADISHF
CMI,2017-02-05 22:35,M,M,M,300.00,6.00,M,30.09,M,10.00,M,CLR,M,M,M,M,M,M,M,M,KCMI 052235Z AUTO 30006KT 10SM CLR A3009 RMK MADISHF
CMI,2017-02-05 22:40,M,M,M,280.00,5.00,M,30.09,M,10.00,M,CLR,M,M,M,M,M,M,M,M,KCMI 052240Z AUTO 28005KT 10SM CLR A3009 RMK MADISHF
CMI,2017-02-05 22:45,M,M,M,270.00,6.00,M,30.09,M,10.00,M,CLR,M,M,M,M,M,M,M,M,KCMI 052245Z AUTO 27006KT 10SM CLR A3009 RMK MADISHF
CMI,2017-02-05 22:50,M,M,M,280.00,5.00,M,30.09,M,10.00,M,CLR,M,M,M,M,M,M,M,M,KCMI 052250Z AUTO 28005KT 10SM CLR A3009 RMK MADISHF
CMI,2017-02-05 22:53,39.90,24.10,52.88,280.00,5.00,0.00,30.09,1019.60,10.00,M,CLR,M,M,M,M,M,M,M,M,KCMI 052253Z 28005KT 10SM CLR 04/M04 A3009 RMK AO2 SLP196 T00441044 $
CMI,2017-02-05 22:55,M,M,M,280.00,5.00,M,30.09,M,10.00,M,CLR,M,M,M,M,M,M,M,M,KCMI 052255Z AUTO 28005KT 10SM CLR A3009 RMK MADISHF
CMI,2017-02-05 23:00,M,M,M,280.00,4.00,M,30.09,M,10.00,M,CLR,M,M,M,M,M,M,M,M,KCMI 052300Z AUTO 28004KT 10SM CLR A3009 RMK MADISHF
CMI,2017-02-05 23:05,M,M,M,290.00,4.00,M,30.09,M,10.00,M,CLR,M,M,M,M,M,M,M,M,KCMI 052305Z AUTO 29004KT 10SM CLR A3009 RMK MADISHF
CMI,2017-02-05 23:10,M,M,M,280.00,4.00,M,30.09,M,10.00,M,CLR,M,M,M,M,M,M,M,M,KCMI 052310Z AUTO 28004KT 10SM CLR A3009 RMK MADISHF
CMI,2017-02-05 23:15,M,M,M,290.00,5.00,M,30.10,M,10.00,M,CLR,M,M,M,M,M,M,M,M,KCMI 052315Z AUTO 29005KT 10SM CLR A3010 RMK MADISHF
CMI,2017-02-05 23:20,M,M,M,290.00,4.00,M,30.09,M,10.00,M,CLR,M,M,M,M,M,M,M,M,KCMI 052320Z AUTO 29004KT 10SM CLR A3009 RMK MADISHF
CMI,2017-02-05 23:25,M,M,M,300.00,4.00,M,30.09,M,10.00,M,CLR,M,M,M,M,M,M,M,M,KCMI 052325Z AUTO 30004KT 10SM CLR A3009 RMK MADISHF
CMI,2017-02-05 23:30,M,M,M,310.00,4.00,M,30.09,M,10.00,M,CLR,M,M,M,M,M,M,M,M,KCMI 052330Z AUTO 31004KT 10SM CLR A3009 RMK MADISHF
CMI,2017-02-05 23:35,M,M,M,300.00,3.00,M,30.10,M,10.00,M,CLR,M,M,M,M,M,M,M,M,KCMI 052335Z AUTO 30003KT 10SM CLR A3010 RMK MADISHF
CMI,2017-02-05 23:40,M,M,M,290.00,3.00,M,30.10,M,10.00,M,CLR,M,M,M,M,M,M,M,M,KCMI 052340Z AUTO 29003KT 10SM CLR A3010 RMK MADISHF
CMI,2017-02-05 23:45,M,M,M,290.00,3.00,M,30.10,M,10.00,M,CLR,M,M,M,M,M,M,M,M,KCMI 052345Z AUTO 29003KT 10SM CLR A3010 RMK MADISHF
CMI,2017-02-05 23:50,M,M,M,290.00,3.00,M,30.10,M,10.00,M,CLR,M,M,M,M,M,M,M,M,KCMI 052350Z AUTO 29003KT 10SM CLR A3010 RMK MADISHF
CMI,2017-02-05 23:53,37.90,24.10,57.18,290.00,4.00,0.00,30.11,1020.20,10.00,M,CLR,M,M,M,M,M,M,M,M,KCMI 052353Z 29004KT 10SM CLR 03/M04 A3011 RMK AO2 SLP202 T00331044 10083 20033 53013 $
CMI,2017-02-05 23:55,M,M,M,290.00,4.00,M,30.11,M,10.00,M,CLR,M,M,M,M,M,M,M,M,KCMI 052355Z AUTO 29004KT 10SM CLR A3011 RMK MADISHF
CMI,2017-02-06 00:00,M,M,M,280.00,3.00,M,30.11,M,10.00,M,CLR,M,M,M,M,M,M,M,M,KCMI 060000Z AUTO 28003KT 10SM CLR A3011 RMK MADISHF
CMI,2017-02-06 00:05,M,M,M,280.00,3.00,M,30.11,M,10.00,M,CLR,M,M,M,M,M,M,M,M,KCMI 060005Z AUTO 28003KT 10SM CLR A3011 RMK MADISHF
CMI,2017-02-06 00:10,M,M,M,290.00,3.00,M,30.11,M,10.00,M,CLR,M,M,M,M,M,M,M,M,KCMI 060010Z AUTO 29003KT 10SM CLR A3011 RMK MADISHF
CMI,2017-02-06 00:15,M,M,M,290.00,3.00,M,30.11,M,10.00,M,CLR,M,M,M,M,M,M,M,M,KCMI 060015Z AUTO 29003KT 10SM CLR A3011 RMK MADISHF
CMI,2017-02-06 00:20,M,M,M,0.00,0.00,M,30.11,M,10.00,M,CLR,M,M,M,M,M,M,M,M,KCMI 060020Z AUTO 00000KT 10SM CLR A3011 RMK MADISHF
CMI,2017-02-06 00:25,M,M,M,0.00,0.00,M,30.11,M,10.00,M,CLR,M,M,M,M,M,M,M,M,KCMI 060025Z AUTO 00000KT 10SM CLR A3011 RMK MADISHF
CMI,2017-02-06 00:30,M,M,M,0.00,0.00,M,30.11,M,10.00,M,CLR,M,M,M,M,M,M,M,M,KCMI 060030Z AUTO 00000KT 10SM CLR A3011 RMK MADISHF
CMI,2017-02-06 00:35,M,M,M,0.00,0.00,M,30.11,M,10.00,M,CLR,M,M,M,M,M,M,M,M,KCMI 060035Z AUTO 00000KT 10SM CLR A3011 RMK MADISHF
CMI,2017-02-06 00:40,M,M,M,0.00,0.00,M,30.11,M,10.00,M,CLR,M,M,M,M,M,M,M,M,KCMI 060040Z AUTO 00000KT 10SM CLR A3011 RMK MADISHF
CMI,2017-02-06 00:45,M,M,M,0.00,0.00,M,30.11,M,10.00,M,CLR,M,M,M,M,M,M,M,M,KCMI 060045Z AUTO 00000KT 10SM CLR A3011 RMK MADISHF
CMI,2017-02-06 00:50,M,M,M,0.00,0.00,M,30.11,M,10.00,M,CLR,M,M,M,M,M,M,M,M,KCMI 060050Z AUTO 00000KT 10SM CLR A3011 RMK MADISHF
CMI,2017-02-06 00:53,35.10,24.10,63.86,0.00,0.00,0.00,30.11,1020.20,10.00,M,CLR,M,M,M,M,M,M,M,M,KCMI 060053Z 00000KT 10SM CLR 02/M04 A3011 RMK AO2 SLP202 T00171044 $
CMI,2017-02-06 00:55,M,M,M,0.00,0.00,M,30.11,M,10.00,M,CLR,M,M,M,M,M,M,M,M,KCMI 060055Z AUTO 00000KT 10SM CLR A3011 RMK MADISHF
CMI,2017-02-06 01:00,M,M,M,220.00,3.00,M,30.11,M,10.00,M,CLR,M,M,M,M,M,M,M,M,KCMI 060100Z AUTO 22003KT 10SM CLR A3011 RMK MADISHF
CMI,2017-02-06 01:05,M,M,M,0.00,0.00,M,30.11,M,10.00,M,CLR,M,M,M,M,M,M,M,M,KCMI 060105Z AUTO 00000KT 10SM CLR A3011 RMK MADISHF
CMI,2017-02-06 01:10,M,M,M,210.00,3.00,M,30.10,M,10.00,M,CLR,M,M,M,M,M,M,M,M,KCMI 060110Z AUTO 21003KT 10SM CLR A3010 RMK MADISHF
CMI,2017-02-06 01:15,M,M,M,0.00,0.00,M,30.11,M,10.00,M,CLR,M,M,M,M,M,M,M,M,KCMI 060115Z AUTO 00000KT 10SM CLR A3011 RMK MADISHF
CMI,2017-02-06 01:20,M,M,M,0.00,0.00,M,30.11,M,10.00,M,CLR,M,M,M,M,M,M,M,M,KCMI 060120Z AUTO 00000KT 10SM CLR A3011 RMK MADISHF
CMI,2017-02-06 01:25,M,M,M,0.00,0.00,M,30.11,M,10.00,M,CLR,M,M,M,M,M,M,M,M,KCMI 060125Z AUTO 00000KT 10SM CLR A3011 RMK MADISHF
CMI,2017-02-06 01:30,M,M,M,0.00,0.00,M,30.11,M,10.00,M,CLR,M,M,M,M,M,M,M,M,KCMI 060130Z AUTO 00000KT 10SM CLR A3011 RMK MADISHF
CMI,2017-02-06 01:35,M,M,M,0.00,0.00,M,30.11,M,10.00,M,CLR,M,M,M,M,M,M,M,M,KCMI 060135Z AUTO 00000KT 10SM CLR A3011 RMK MADISHF
CMI,2017-02-06 01:40,M,M,M,0.00,0.00,M,30.11,M,10.00,M,CLR,M,M,M,M,M,M,M,M,KCMI 060140Z AUTO 00000KT 10SM CLR A3011 RMK MADISHF
CMI,2017-02-06 01:45,M,M,M,0.00,0.00,M,30.11,M,10.00,M,CLR,M,M,M,M,M,M,M,M,KCMI 060145Z AUTO 00000KT 10SM CLR A3011 RMK MADISHF
CMI,2017-02-06 01:50,M,M,M,0.00,0.00,M,30.12,M,10.00,M,CLR,M,M,M,M,M,M,M,M,KCMI 060150Z AUTO 00000KT 10SM CLR A3012 RMK MADISHF
CMI,2017-02-06 01:53,34.00,24.10,66.72,0.00,0.00,0.00,30.12,1020.70,10.00,M,CLR,M,M,M,M,M,M,M,M,KCMI 060153Z 00000KT 10SM CLR 01/M04 A3012 RMK AO2 SLP207 T00111044 $
CMI,2017-02-06 01:55,M,M,M,270.00,3.00,M,30.12,M,10.00,M,CLR,M,M,M,M,M,M,M,M,KCMI 060155Z AUTO 27003KT 10SM CLR A3012 RMK MADISHF
CMI,2017-02-06 02:00,M,M,M,260.00,3.00,M,30.12,M,10.00,M,CLR,M,M,M,M,M,M,M,M,KCMI 060200Z AUTO 26003KT 10SM CLR A3012 RMK MADISHF
CMI,2017-02-06 02:05,M,M,M,260.00,3.00,M,30.12,M,10.00,M,CLR,M,M,M,M,M,M,M,M,KCMI 060205Z AUTO 26003KT 10SM CLR A3012 RMK MADISHF
CMI,2017-02-06 02:10,M,M,M,0.00,0.00,M,30.12,M,10.00,M,CLR,M,M,M,M,M,M,M,M,KCMI 060210Z AUTO 00000KT 10SM CLR A3012 RMK MADISHF
CMI,2017-02-06 02:15,M,M,M,290.00,3.00,M,30.12,M,10.00,M,CLR,M,M,M,M,M,M,M,M,KCMI 060215Z AUTO 29003KT 10SM CLR A3012 RMK MADISHF
CMI,2017-02-06 02:20,M,M,M,0.00,0.00,M,30.12,M,10.00,M,CLR,M,M,M,M,M,M,M,M,KCMI 060220Z AUTO 00000KT 10SM CLR A3012 RMK MADISHF
CMI,2017-02-06 02:25,M,M,M,0.00,0.00,M,30.12,M,10.00,M,CLR,M,M,M,M,M,M,M,M,KCMI 060225Z AUTO 00000KT 10SM CLR A3012 RMK MADISHF
CMI,2017-02-06 02:30,M,M,M,0.00,0.00,M,30.12,M,10.00,M,CLR,M,M,M,M,M,M,M,M,KCMI 060230Z AUTO 00000KT 10SM CLR A3012 RMK MADISHF
CMI,2017-02-06 02:35,M,M,M,0.00,0.00,M,30.12,M,10.00,M,CLR,M,M,M,M,M,M,M,M,KCMI 060235Z AUTO 00000KT 10SM CLR A3012 RMK MADISHF
CMI,2017-02-06 02:40,M,M,M,0.00,0.00,M,30.13,M,10.00,M,CLR,M,M,M,M,M,M,M,M,KCMI 060240Z AUTO 00000KT 10SM CLR A3013 RMK MADISHF
CMI,2017-02-06 02:45,M,M,M,0.00,0.00,M,30.12,M,10.00,M,CLR,M,M,M,M,M,M,M,M,KCMI 060245Z AUTO 00000KT 10SM CLR A3012 RMK MADISHF
CMI,2017-02-06 02:50,M,M,M,0.00,0.00,M,30.12,M,10.00,M,CLR,M,M,M,M,M,M,M,M,KCMI 060250Z AUTO 00000KT 10SM CLR A3012 RMK MADISHF
CMI,2017-02-06 02:53,30.90,23.00,72.18,0.00,0.00,0.00,30.12,1020.80,10.00,M,CLR,M,M,M,M,M,M,M,M,KCMI 060253Z AUTO 00000KT 10SM CLR M01/M05 A3012 RMK AO2 SLP208 T10061050 53005 $
CMI,2017-02-06 02:55,M,M,M,0.00,0.00,M,30.12,M,10.00,M,CLR,M,M,M,M,M,M,M,M,KCMI 060255Z AUTO 00000KT 10SM CLR A3012 RMK MADISHF
CMI,2017-02-06 03:00,M,M,M,0.00,0.00,M,30.12,M,10.00,M,CLR,M,M,M,M,M,M,M,M,KCMI 060300Z AUTO 00000KT 10SM CLR A3012 RMK MADISHF
CMI,2017-02-06 03:05,M,M,M,0.00,0.00,M,30.11,M,10.00,M,CLR,M,M,M,M,M,M,M,M,KCMI 060305Z AUTO 00000KT 10SM CLR A3011 RMK MADISHF
CMI,2017-02-06 03:10,M,M,M,0.00,0.00,M,30.11,M,10.00,M,CLR,M,M,M,M,M,M,M,M,KCMI 060310Z AUTO 00000KT 10SM CLR A3011 RMK MADISHF
CMI,2017-02-06 03:15,M,M,M,0.00,0.00,M,30.11,M,10.00,M,CLR,M,M,M,M,M,M,M,M,KCMI 060315Z AUTO 00000KT 10SM CLR A3011 RMK MADISHF
CMI,2017-02-06 03:20,M,M,M,100.00,3.00,M,30.11,M,10.00,M,CLR,M,M,M,M,M,M,M,M,KCMI 060320Z AUTO 10003KT 10SM CLR A3011 RMK MADISHF
CMI,2017-02-06 03:25,M,M,M,80.00,3.00,M,30.11,M,10.00,M,CLR,M,M,M,M,M,M,M,M,KCMI 060325Z AUTO 08003KT 10SM CLR A3011 RMK MADISHF
CMI,2017-02-06 03:30,M,M,M,70.00,3.00,M,30.11,M,10.00,M,CLR,M,M,M,M,M,M,M,M,KCMI 060330Z AUTO 07003KT 10SM CLR A3011 RMK MADISHF
CMI,2017-02-06 03:35,M,M,M,90.00,4.00,M,30.11,M,10.00,M,CLR,M,M,M,M,M,M,M,M,KCMI 060335Z AUTO 09004KT 10SM CLR A3011 RMK MADISHF
CMI,2017-02-06 03:40,M,M,M,100.00,4.00,M,30.10,M,10.00,M,CLR,M,M,M,M,M,M,M,M,KCMI 060340Z AUTO 10004KT 10SM CLR A3010 RMK MADISHF
CMI,2017-02-06 03:45,M,M,M,90.00,5.00,M,30.10,M,10.00,M,CLR,M,M,M,M,M,M,M,M,KCMI 060345Z AUTO 09005KT 10SM CLR A3010 RMK MADISHF
CMI,2017-02-06 03:50,M,M,M,60.00,7.00,M,30.10,M,10.00,M,CLR,M,M,M,M,M,M,M,M,KCMI 060350Z AUTO 06007KT 10SM CLR A3010 RMK MADISHF
CMI,2017-02-06 03:53,28.90,23.00,78.30,60.00,7.00,0.00,30.10,1019.80,10.00,M,CLR,M,M,M,M,M,M,M,M,KCMI 060353Z 06007KT 10SM CLR M02/M05 A3010 RMK AO2 SLP198 T10171050 $
CMI,2017-02-06 03:55,M,M,M,60.00,8.00,M,30.10,M,10.00,M,CLR,M,M,M,M,M,M,M,M,KCMI 060355Z AUTO 06008KT 10SM CLR A3010 RMK MADISHF
CMI,2017-02-06 04:00,M,M,M,60.00,5.00,M,30.10,M,10.00,M,CLR,M,M,M,M,M,M,M,M,KCMI 060400Z AUTO 06005KT 10SM CLR A3010 RMK MADISHF
CMI,2017-02-06 04:05,M,M,M,90.00,4.00,M,30.11,M,10.00,M,CLR,M,M,M,M,M,M,M,M,KCMI 060405Z AUTO 09004KT 10SM CLR A3011 RMK MADISHF
CMI,2017-02-06 04:10,M,M,M,100.00,5.00,M,30.10,M,10.00,M,CLR,M,M,M,M,M,M,M,M,KCMI 060410Z AUTO 10005KT 10SM CLR A3010 RMK MADISHF
CMI,2017-02-06 04:15,M,M,M,120.00,4.00,M,30.10,M,10.00,M,CLR,M,M,M,M,M,M,M,M,KCMI 060415Z AUTO 12004KT 10SM CLR A3010 RMK MADISHF
CMI,2017-02-06 04:20,M,M,M,130.00,5.00,M,30.10,M,10.00,M,CLR,M,M,M,M,M,M,M,M,KCMI 060420Z AUTO 13005KT 10SM CLR A3010 RMK MADISHF
CMI,2017-02-06 04:25,M,M,M,120.00,6.00,M,30.10,M,10.00,M,CLR,M,M,M,M,M,M,M,M,KCMI 060425Z AUTO 12006KT 10SM CLR A3010 RMK MADISHF
CMI,2017-02-06 04:30,M,M,M,120.00,5.00,M,30.10,M,10.00,M,CLR,M,M,M,M,M,M,M,M,KCMI 060430Z AUTO 12005KT 10SM CLR A3010 RMK MADISHF
CMI,2017-02-06 04:35,M,M,M,120.00,6.00,M,30.10,M,10.00,M,CLR,M,M,M,M,M,M,M,M,KCMI 060435Z AUTO 12006KT 10SM CLR A3010 RMK MADISHF
CMI,2017-02-06 04:40,M,M,M,120.00,6.00,M,30.09,M,10.00,M,CLR,M,M,M,M,M,M,M,M,KCMI 060440Z AUTO 12006KT 10SM CLR A3009 RMK MADISHF
CMI,2017-02-06 04:45,M,M,M,120.00,7.00,M,30.09,M,10.00,M,CLR,M,M,M,M,M,M,M,M,KCMI 060445Z AUTO 12007KT 10SM CLR A3009 RMK MADISHF
CMI,2017-02-06 04:50,M,M,M,130.00,6.00,M,30.09,M,10.00,M,CLR,M,M,M,M,M,M,M,M,KCMI 060450Z AUTO 13006KT 10SM CLR A3009 RMK MADISHF
CMI,2017-02-06 04:53,27.00,21.90,80.82,130.00,7.00,0.00,30.09,1019.60,10.00,M,CLR,M,M,M,M,M,M,M,M,KCMI 060453Z 13007KT 10SM CLR M03/M06 A3009 RMK AO2 SLP196 T10281056 $
CMI,2017-02-06 04:55,M,M,M,130.00,6.00,M,30.09,M,10.00,M,CLR,M,M,M,M,M,M,M,M,KCMI 060455Z AUTO 13006KT 10SM CLR A3009 RMK MADISHF
CMI,2017-02-06 05:00,M,M,M,120.00,5.00,M,30.09,M,10.00,M,CLR,M,M,M,M,M,M,M,M,KCMI 060500Z AUTO 12005KT 10SM CLR A3009 RMK MADISHF
CMI,2017-02-06 05:05,M,M,M,120.00,5.00,M,30.09,M,10.00,M,CLR,M,M,M,M,M,M,M,M,KCMI 060505Z AUTO 12005KT 10SM CLR A3009 RMK MADISHF
CMI,2017-02-06 05:10,M,M,M,130.00,6.00,M,30.09,M,10.00,M,CLR,M,M,M,M,M,M,M,M,KCMI 060510Z AUTO 13006KT 10SM CLR A3009 RMK MADISHF
CMI,2017-02-06 05:15,M,M,M,120.00,6.00,M,30.09,M,10.00,M,CLR,M,M,M,M,M,M,M,M,KCMI 060515Z AUTO 12006KT 10SM CLR A3009 RMK MADISHF
CMI,2017-02-06 05:20,M,M,M,120.00,6.00,M,30.08,M,10.00,M,CLR,M,M,M,M,M,M,M,M,KCMI 060520Z AUTO 12006KT 10SM CLR A3008 RMK MADISHF
CMI,2017-02-06 05:25,M,M,M,130.00,6.00,M,30.08,M,10.00,M,CLR,M,M,M,M,M,M,M,M,KCMI 060525Z AUTO 13006KT 10SM CLR A3008 RMK MADISHF
CMI,2017-02-06 05:30,M,M,M,120.00,6.00,M,30.08,M,10.00,M,CLR,M,M,M,M,M,M,M,M,KCMI 060530Z AUTO 12006KT 10SM CLR A3008 RMK MADISHF
CMI,2017-02-06 05:35,M,M,M,130.00,7.00,M,30.08,M,10.00,M,CLR,M,M,M,M,M,M,M,M,KCMI 060535Z AUTO 13007KT 10SM CLR A3008 RMK MADISHF
CMI,2017-02-06 05:40,M,M,M,120.00,7.00,M,30.07,M,10.00,M,CLR,M,M,M,M,M,M,M,M,KCMI 060540Z AUTO 12007KT 10SM CLR A3007 RMK MADISHF
CMI,2017-02-06 05:45,M,M,M,120.00,8.00,M,30.07,M,10.00,M,CLR,M,M,M,M,M,M,M,M,KCMI 060545Z AUTO 12008KT 10SM CLR A3007 RMK MADISHF
CMI,2017-02-06 05:50,M,M,M,120.00,7.00,M,30.07,M,10.00,M,CLR,M,M,M,M,M,M,M,M,KCMI 060550Z AUTO 12007KT 10SM CLR A3007 RMK MADISHF
CMI,2017-02-06 05:53,27.00,21.00,77.80,120.00,7.00,0.00,30.07,1018.70,10.00,M,CLR,M,M,M,M,M,M,M,M,KCMI 060553Z AUTO 12007KT 10SM CLR M03/M06 A3007 RMK AO2 SLP187 T10281061 10033 21033 400831033 56019 $
CMI,2017-02-06 05:55,M,M,M,120.00,7.00,M,30.07,M,10.00,M,CLR,M,M,M,M,M,M,M,M,KCMI 060555Z AUTO 12007KT 10SM CLR A3007 RMK MADISHF
CMI,2017-02-06 06:00,M,M,M,120.00,7.00,M,30.06,M,10.00,M,CLR,M,M,M,M,M,M,M,M,KCMI 060600Z AUTO 12007KT 10SM CLR A3006 RMK MADISHF
CMI,2017-02-06 06:05,M,M,M,130.00,8.00,M,30.06,M,10.00,M,CLR,M,M,M,M,M,M,M,M,KCMI 060605Z AUTO 13008KT 10SM CLR A3006 RMK MADISHF
CMI,2017-02-06 06:10,M,M,M,130.00,8.00,M,30.05,M,10.00,M,CLR,M,M,M,M,M,M,M,M,KCMI 060610Z AUTO 13008KT 10SM CLR A3005 RMK MADISHF
CMI,2017-02-06 06:15,M,M,M,120.00,7.00,M,30.05,M,10.00,M,CLR,M,M,M,M,M,M,M,M,KCMI 060615Z AUTO 12007KT 10SM CLR A3005 RMK MADISHF
CMI,2017-02-06 06:20,M,M,M,110.00,6.00,M,30.05,M,10.00,M,CLR,M,M,M,M,M,M,M,M,KCMI 060620Z AUTO 11006KT 10SM CLR A3005 RMK MADISHF
CMI,2017-02-06 06:25,M,M,M,110.00,6.00,M,30.05,M,9.00,M,CLR,M,M,M,M,M,M,M,M,KCMI 060625Z AUTO 11006KT 9SM CLR A3005 RMK MADISHF
CMI,2017-02-06 06:30,M,M,M,110.00,6.00,M,30.05,M,9.00,M,CLR,M,M,M,M,M,M,M,M,KCMI 060630Z AUTO 11006KT 9SM CLR A3005 RMK MADISHF
CMI,2017-02-06 06:35,M,M,M,110.00,6.00,M,30.05,M,9.00,M,CLR,M,M,M,M,M,M,M,M,KCMI 060635Z AUTO 11006KT 9SM CLR A3005 RMK MADISHF
CMI,2017-02-06 06:40,M,M,M,110.00,5.00,M,30.05,M,9.00,M,CLR,M,M,M,M,M,M,M,M,KCMI 060640Z AUTO 11005KT 9SM CLR A3005 RMK MADISHF
CMI,2017-02-06 06:45,M,M,M,120.00,6.00,M,30.05,M,9.00,M,CLR,M,M,M,M,M,M,M,M,KCMI 060645Z AUTO 12006KT 9SM CLR A3005 RMK MADISHF
CMI,2017-02-06 06:50,M,M,M,110.00,6.00,M,30.04,M,9.00,M,CLR,M,M,M,M,M,M,M,M,KCMI 060650Z AUTO 11006KT 9SM CLR A3004 RMK MADISHF
CMI,2017-02-06 06:53,26.10,21.90,83.89,110.00,6.00,0.00,30.05,1018.00,9.00,M,CLR,M,M,M,M,M,M,M,M,KCMI 060653Z AUTO 11006KT 9SM CLR M03/M06 A3005 RMK AO2 SLP180 T10331056 $
CMI,2017-02-06 06:55,M,M,M,110.00,6.00,M,30.05,M,9.00,M,CLR,M,M,M,M,M,M,M,M,KCMI 060655Z AUTO 11006KT 9SM CLR A3005 RMK MADISHF
CMI,2017-02-06 07:00,M,M,M,100.00,5.00,M,30.05,M,9.00,M,CLR,M,M,M,M,M,M,M,M,KCMI 060700Z AUTO 10005KT 9SM CLR A3005 RMK MADISHF
CMI,2017-02-06 07:05,M,M,M,100.00,6.00,M,30.04,M,9.00,M,CLR,M,M,M,M,M,M,M,M,KCMI 060705Z AUTO 10006KT 9SM CLR A3004 RMK MADISHF
CMI,2017-02-06 07:10,M,M,M,120.00,6.00,M,30.04,M,10.00,M,CLR,M,M,M,M,M,M,M,M,KCMI 060710Z AUTO 12006KT 10SM CLR A3004 RMK MADISHF
CMI,2017-02-06 07:15,M,M,M,120.00,6.00,M,30.04,M,9.00,M,CLR,M,M,M,M,M,M,M,M,KCMI 060715Z AUTO 12006KT 9SM CLR A3004 RMK MADISHF
CMI,2017-02-06 07:20,M,M,M,120.00,6.00,M,30.04,M,9.00,M,CLR,M,M,M,M,M,M,M,M,KCMI 060720Z AUTO 12006KT 9SM CLR A3004 RMK MADISHF
CMI,2017-02-06 07:25,M,M,M,120.00,6.00,M,30.04,M,9.00,M,CLR,M,M,M,M,M,M,M,M,KCMI 060725Z AUTO 12006KT 9SM CLR A3004 RMK MADISHF
CMI,2017-02-06 07:30,M,M,M,120.00,6.00,M,30.05,M,9.00,M,CLR,M,M,M,M,M,M,M,M,KCMI 060730Z AUTO 12006KT 9SM CLR A3005 RMK MADISHF
CMI,2017-02-06 07:35,M,M,M,110.00,5.00,M,30.05,M,9.00,M,CLR,M,M,M,M,M,M,M,M,KCMI 060735Z AUTO 11005KT 9SM CLR A3005 RMK MADISHF
CMI,2017-02-06 07:40,M,M,M,100.00,5.00,M,30.04,M,9.00,M,CLR,M,M,M,M,M,M,M,M,KCMI 060740Z AUTO 10005KT 9SM CLR A3004 RMK MADISHF
CMI,2017-02-06 07:45,M,M,M,110.00,5.00,M,30.04,M,9.00,M,CLR,M,M,M,M,M,M,M,M,KCMI 060745Z AUTO 11005KT 9SM CLR A3004 RMK MADISHF
CMI,2017-02-06 07:50,M,M,M,120.00,6.00,M,30.04,M,9.00,M,CLR,M,M,M,M,M,M,M,M,KCMI 060750Z AUTO 12006KT 9SM CLR A3004 RMK MADISHF
CMI,2017-02-06 07:53,26.10,21.00,80.75,130.00,6.00,0.00,30.04,1017.80,9.00,M,CLR,M,M,M,M,M,M,M,M,KCMI 060753Z AUTO 13006KT 9SM CLR M03/M06 A3004 RMK AO2 SLP178 T10331061 $
CMI,2017-02-06 07:55,M,M,M,130.00,6.00,M,30.04,M,9.00,M,CLR,M,M,M,M,M,M,M,M,KCMI 060755Z AUTO 13006KT 9SM CLR A3004 RMK MADISHF
CMI,2017-02-06 08:00,M,M,M,130.00,7.00,M,30.04,M,9.00,M,CLR,M,M,M,M,M,M,M,M,KCMI 060800Z AUTO 13007KT 9SM CLR A3004 RMK MADISHF
CMI,2017-02-06 08:05,M,M,M,120.00,6.00,M,30.04,M,9.00,M,CLR,M,M,M,M,M,M,M,M,KCMI 060805Z AUTO 12006KT 9SM CLR A3004 RMK MADISHF
CMI,2017-02-06 08:10,M,M,M,120.00,5.00,M,30.04,M,9.00,M,CLR,M,M,M,M,M,M,M,M,KCMI 060810Z AUTO 12005KT 9SM CLR A3004 RMK MADISHF
CMI,2017-02-06 08:15,M,M,M,110.00,5.00,M,30.04,M,9.00,M,CLR,M,M,M,M,M,M,M,M,KCMI 060815Z AUTO 11005KT 9SM CLR A3004 RMK MADISHF
CMI,2017-02-06 08:20,M,M,M,110.00,5.00,M,30.04,M,9.00,M,CLR,M,M,M,M,M,M,M,M,KCMI 060820Z AUTO 11005KT 9SM CLR A3004 RMK MADISHF
CMI,2017-02-06 08:25,M,M,M,110.00,5.00,M,30.04,M,9.00,M,CLR,M,M,M,M,M,M,M,M,KCMI 060825Z AUTO 11005KT 9SM CLR A3004 RMK MADISHF
CMI,2017-02-06 08:30,M,M,M,120.00,5.00,M,30.04,M,9.00,M,CLR,M,M,M,M,M,M,M,M,KCMI 060830Z AUTO 12005KT 9SM CLR A3004 RMK MADISHF
CMI,2017-02-06 08:35,M,M,M,120.00,5.00,M,30.04,M,9.00,M,CLR,M,M,M,M,M,M,M,M,KCMI 060835Z AUTO 12005KT 9SM CLR A3004 RMK MADISHF
CMI,2017-02-06 08:40,M,M,M,110.00,5.00,M,30.04,M,9.00,M,CLR,M,M,M,M,M,M,M,M,KCMI 060840Z AUTO 11005KT 9SM CLR A3004 RMK MADISHF
CMI,2017-02-06 08:45,M,M,M,110.00,5.00,M,30.03,M,9.00,M,CLR,M,M,M,M,M,M,M,M,KCMI 060845Z AUTO 11005KT 9SM CLR A3003 RMK MADISHF
CMI,2017-02-06 08:50,M,M,M,110.00,6.00,M,30.03,M,9.00,M,CLR,M,M,M,M,M,M,M,M,KCMI 060850Z AUTO 11006KT 9SM CLR A3003 RMK MADISHF
CMI,2017-02-06 08:53,26.10,21.00,80.75,110.00,6.00,0.00,30.03,1017.50,9.00,M,CLR,M,M,M,M,M,M,M,M,KCMI 060853Z AUTO 11006KT 9SM CLR M03/M06 A3003 RMK AO2 SLP175 T10331061 56013 $
CMI,2017-02-06 08:55,M,M,M,100.00,6.00,M,30.03,M,9.00,M,CLR,M,M,M,M,M,M,M,M,KCMI 060855Z AUTO 10006KT 9SM CLR A3003 RMK MADISHF
CMI,2017-02-06 09:00,M,M,M,100.00,6.00,M,30.03,M,9.00,M,CLR,M,M,M,M,M,M,M,M,KCMI 060900Z AUTO 10006KT 9SM CLR A3003 RMK MADISHF
CMI,2017-02-06 09:05,M,M,M,100.00,6.00,M,30.02,M,9.00,M,CLR,M,M,M,M,M,M,M,M,KCMI 060905Z AUTO 10006KT 9SM CLR A3002 RMK MADISHF
CMI,2017-02-06 09:10,M,M,M,90.00,6.00,M,30.02,M,9.00,M,CLR,M,M,M,M,M,M,M,M,KCMI 060910Z AUTO 09006KT 9SM CLR A3002 RMK MADISHF
CMI,2017-02-06 09:15,M,M,M,100.00,6.00,M,30.02,M,9.00,M,CLR,M,M,M,M,M,M,M,M,KCMI 060915Z AUTO 10006KT 9SM CLR A3002 RMK MADISHF
CMI,2017-02-06 09:20,M,M,M,100.00,5.00,M,30.02,M,9.00,M,CLR,M,M,M,M,M,M,M,M,KCMI 060920Z AUTO 10005KT 9SM CLR A3002 RMK MADISHF
CMI,2017-02-06 09:25,M,M,M,100.00,5.00,M,30.03,M,9.00,M,CLR,M,M,M,M,M,M,M,M,KCMI 060925Z AUTO 10005KT 9SM CLR A3003 RMK MADISHF
CMI,2017-02-06 09:30,M,M,M,100.00,5.00,M,30.02,M,9.00,M,CLR,M,M,M,M,M,M,M,M,KCMI 060930Z AUTO 10005KT 9SM CLR A3002 RMK MADISHF
CMI,2017-02-06 09:35,M,M,M,90.00,5.00,M,30.03,M,9.00,M,CLR,M,M,M,M,M,M,M,M,KCMI 060935Z AUTO 09005KT 9SM CLR A3003 RMK MADISHF
CMI,2017-02-06 09:40,M,M,M,90.00,5.00,M,30.02,M,9.00,M,CLR,M,M,M,M,M,M,M,M,KCMI 060940Z AUTO 09005KT 9SM CLR A3002 RMK MADISHF
CMI,2017-02-06 09:45,M,M,M,90.00,6.00,M,30.02,M,9.00,M,CLR,M,M,M,M,M,M,M,M,KCMI 060945Z AUTO 09006KT 9SM CLR A3002 RMK MADISHF
CMI,2017-02-06 09:50,M,M,M,100.00,6.00,M,30.02,M,9.00,M,CLR,M,M,M,M,M,M,M,M,KCMI 060950Z AUTO 10006KT 9SM CLR A3002 RMK MADISHF
CMI,2017-02-06 09:53,27.00,21.90,80.82,110.00,6.00,0.00,30.02,1017.30,9.00,M,CLR,M,M,M,M,M,M,M,M,KCMI 060953Z AUTO 11006KT 9SM CLR M03/M06 A3002 RMK AO2 SLP173 T10281056 $
CMI,2017-02-06 09:55,M,M,M,100.00,6.00,M,30.02,M,9.00,M,CLR,M,M,M,M,M,M,M,M,KCMI 060955Z AUTO 10006KT 9SM CLR A3002 RMK MADISHF
CMI,2017-02-06 10:00,M,M,M,90.00,6.00,M,30.03,M,9.00,M,CLR,M,M,M,M,M,M,M,M,KCMI 061000Z AUTO 09006KT 9SM CLR A3003 RMK MADISHF
CMI,2017-02-06 10:05,M,M,M,90.00,7.00,M,30.02,M,9.00,M,CLR,M,M,M,M,M,M,M,M,KCMI 061005Z AUTO 09007KT 9SM CLR A3002 RMK MADISHF
CMI,2017-02-06 10:10,M,M,M,90.00,7.00,M,30.02,M,9.00,M,CLR,M,M,M,M,M,M,M,M,KCMI 061010Z AUTO 09007KT 9SM CLR A3002 RMK MADISHF
CMI,2017-02-06 10:15,M,M,M,80.00,7.00,M,30.02,M,9.00,M,CLR,M,M,M,M,M,M,M,M,KCMI 061015Z AUTO 08007KT 9SM CLR A3002 RMK MADISHF
CMI,2017-02-06 10:20,M,M,M,90.00,7.00,M,30.02,M,9.00,M,CLR,M,M,M,M,M,M,M,M,KCMI 061020Z AUTO 09007KT 9SM CLR A3002 RMK MADISHF
CMI,2017-02-06 10:25,M,M,M,90.00,7.00,M,30.02,M,9.00,M,CLR,M,M,M,M,M,M,M,M,KCMI 061025Z AUTO 09007KT 9SM CLR A3002 RMK MADISHF
CMI,2017-02-06 10:30,M,M,M,90.00,7.00,M,30.02,M,9.00,M,CLR,M,M,M,M,M,M,M,M,KCMI 061030Z AUTO 09007KT 9SM CLR A3002 RMK MADISHF
CMI,2017-02-06 10:35,M,M,M,90.00,7.00,M,30.02,M,9.00,M,CLR,M,M,M,M,M,M,M,M,KCMI 061035Z AUTO 09007KT 9SM CLR A3002 RMK MADISHF
CMI,2017-02-06 10:40,M,M,M,90.00,8.00,M,30.02,M,10.00,M,CLR,M,M,M,M,M,M,M,M,KCMI 061040Z AUTO 09008KT 10SM CLR A3002 RMK MADISHF
CMI,2017-02-06 10:45,M,M,M,100.00,8.00,M,30.02,M,9.00,M,CLR,M,M,M,M,M,M,M,M,KCMI 061045Z AUTO 10008KT 9SM CLR A3002 RMK MADISHF
CMI,2017-02-06 10:50,M,M,M,100.00,8.00,M,30.02,M,9.00,M,CLR,M,M,M,M,M,M,M,M,KCMI 061050Z AUTO 10008KT 9SM CLR A3002 RMK MADISHF
CMI,2017-02-06 10:53,28.00,23.00,81.25,100.00,8.00,0.00,30.01,1017.10,9.00,M,CLR,M,M,M,M,M,M,M,M,KCMI 061053Z AUTO 10008KT 9SM CLR M02/M05 A3001 RMK AO2 SLP171 T10221050 $
CMI,2017-02-06 10:55,M,M,M,110.00,8.00,M,30.01,M,9.00,M,CLR,M,M,M,M,M,M,M,M,KCMI 061055Z AUTO 11008KT 9SM CLR A3001 RMK MADISHF
CMI,2017-02-06 11:00,M,M,M,110.00,8.00,M,30.01,M,9.00,M,CLR,M,M,M,M,M,M,M,M,KCMI 061100Z AUTO 11008KT 9SM CLR A3001 RMK MADISHF
CMI,2017-02-06 11:05,M,M,M,110.00,8.00,M,30.01,M,9.00,M,CLR,M,M,M,M,M,M,M,M,KCMI 061105Z AUTO 11008KT 9SM CLR A3001 RMK MADISHF
CMI,2017-02-06 11:10,M,M,M,110.00,8.00,M,30.01,M,9.00,M,CLR,M,M,M,M,M,M,M,M,KCMI 061110Z AUTO 11008KT 9SM CLR A3001 RMK MADISHF
CMI,2017-02-06 11:15,M,M,M,110.00,8.00,M,30.01,M,9.00,M,CLR,M,M,M,M,M,M,M,M,KCMI 061115Z AUTO 11008KT 9SM CLR A3001 RMK MADISHF
CMI,2017-02-06 11:20,M,M,M,110.00,8.00,M,30.01,M,9.00,M,CLR,M,M,M,M,M,M,M,M,KCMI 061120Z AUTO 11008KT 9SM CLR A3001 RMK MADISHF
CMI,2017-02-06 11:25,M,M,M,120.00,7.00,M,30.01,M,9.00,M,CLR,M,M,M,M,M,M,M,M,KCMI 061125Z AUTO 12007KT 9SM CLR A3001 RMK MADISHF
CMI,2017-02-06 11:30,M,M,M,120.00,6.00,M,30.01,M,8.00,M,CLR,M,M,M,M,M,M,M,M,KCMI 061130Z AUTO 12006KT 8SM CLR A3001 RMK MADISHF
CMI,2017-02-06 11:35,M,M,M,120.00,6.00,M,30.01,M,8.00,M,CLR,M,M,M,M,M,M,M,M,KCMI 061135Z AUTO 12006KT 8SM CLR A3001 RMK MADISHF
CMI,2017-02-06 11:40,M,M,M,120.00,5.00,M,30.01,M,8.00,M,CLR,M,M,M,M,M,M,M,M,KCMI 061140Z AUTO 12005KT 8SM CLR A3001 RMK MADISHF
CMI,2017-02-06 11:45,M,M,M,110.00,5.00,M,30.00,M,8.00,M,CLR,M,M,M,M,M,M,M,M,KCMI 061145Z AUTO 11005KT 8SM CLR A3000 RMK MADISHF
CMI,2017-02-06 11:50,M,M,M,110.00,5.00,M,30.00,M,8.00,M,CLR,M,M,M,M,M,M,M,M,KCMI 061150Z AUTO 11005KT 8SM CLR A3000 RMK MADISHF
CMI,2017-02-06 11:53,28.00,23.00,81.25,110.00,5.00,0.00,30.00,1016.70,8.00,M,CLR,M,M,M,M,M,M,M,M,KCMI 061153Z 11005KT 8SM CLR M02/M05 A3000 RMK AO2 SLP167 T10221050 11017 21044 58008 $
CMI,2017-02-06 11:55,M,M,M,110.00,5.00,M,30.00,M,8.00,M,CLR,M,M,M,M,M,M,M,M,KCMI 061155Z AUTO 11005KT 8SM CLR A3000 RMK MADISHF
CMI,2017-02-06 12:00,M,M,M,110.00,6.00,M,30.00,M,8.00,M,CLR,M,M,M,M,M,M,M,M,KCMI 061200Z AUTO 11006KT 8SM CLR A3000 RMK MADISHF
CMI,2017-02-06 12:05,M,M,M,110.00,5.00,M,30.00,M,8.00,M,CLR,M,M,M,M,M,M,M,M,KCMI 061205Z AUTO 11005KT 8SM CLR A3000 RMK MADISHF
CMI,2017-02-06 12:10,M,M,M,110.00,5.00,M,30.00,M,8.00,M,CLR,M,M,M,M,M,M,M,M,KCMI 061210Z AUTO 11005KT 8SM CLR A3000 RMK MADISHF
CMI,2017-02-06 12:15,M,M,M,120.00,6.00,M,30.00,M,8.00,M,CLR,M,M,M,M,M,M,M,M,KCMI 061215Z AUTO 12006KT 8SM CLR A3000 RMK MADISHF
CMI,2017-02-06 12:20,M,M,M,110.00,6.00,M,30.00,M,8.00,M,CLR,M,M,M,M,M,M,M,M,KCMI 061220Z AUTO 11006KT 8SM CLR A3000 RMK MADISHF
CMI,2017-02-06 12:25,M,M,M,110.00,6.00,M,30.00,M,8.00,M,CLR,M,M,M,M,M,M,M,M,KCMI 061225Z AUTO 11006KT 8SM CLR A3000 RMK MADISHF
CMI,2017-02-06 12:30,M,M,M,120.00,7.00,M,30.00,M,8.00,M,CLR,M,M,M,M,M,M,M,M,KCMI 061230Z AUTO 12007KT 8SM CLR A3000 RMK MADISHF
CMI,2017-02-06 12:35,M,M,M,110.00,6.00,M,29.99,M,8.00,M,CLR,M,M,M,M,M,M,M,M,KCMI 061235Z AUTO 11006KT 8SM CLR A2999 RMK MADISHF
CMI,2017-02-06 12:40,M,M,M,110.00,6.00,M,30.00,M,8.00,M,CLR,M,M,M,M,M,M,M,M,KCMI 061240Z AUTO 11006KT 8SM CLR A3000 RMK MADISHF
CMI,2017-02-06 12:45,M,M,M,110.00,6.00,M,29.99,M,8.00,M,CLR,M,M,M,M,M,M,M,M,KCMI 061245Z AUTO 11006KT 8SM CLR A2999 RMK MADISHF
CMI,2017-02-06 12:50,M,M,M,100.00,7.00,M,29.99,M,7.00,M,CLR,M,M,M,M,M,M,M,M,KCMI 061250Z AUTO 10007KT 7SM CLR A2999 RMK MADISHF
CMI,2017-02-06 12:53,27.00,23.00,84.66,110.00,7.00,0.00,29.99,1016.30,7.00,M,CLR,M,M,M,M,M,M,M,M,KCMI 061253Z 11007KT 7SM CLR M03/M05 A2999 RMK AO2 SLP163 T10281050 $
CMI,2017-02-06 13:00,M,M,M,120.00,6.00,M,29.99,M,7.00,M,CLR,M,M,M,M,M,M,M,M,KCMI 061300Z AUTO 12006KT 7SM CLR A2999 RMK MADISHF
CMI,2017-02-06 13:05,M,M,M,130.00,6.00,M,29.98,M,6.00,M,CLR,M,M,M,M,M,M,M,BR,KCMI 061305Z AUTO 13006KT 6SM BR CLR A2998 RMK MADISHF
CMI,2017-02-06 13:10,M,M,M,130.00,6.00,M,29.99,M,6.00,M,CLR,M,M,M,M,M,M,M,BR,KCMI 061310Z AUTO 13006KT 6SM BR CLR A2999 RMK MADISHF
CMI,2017-02-06 13:15,M,M,M,130.00,6.00,M,29.99,M,6.00,M,CLR,M,M,M,M,M,M,M,BR,KCMI 061315Z AUTO 13006KT 6SM BR CLR A2999 RMK MADISHF
CMI,2017-02-06 13:20,M,M,M,130.00,6.00,M,29.99,M,6.00,M,CLR,M,M,M,M,M,M,M,BR,KCMI 061320Z AUTO 13006KT 6SM BR CLR A2999 RMK MADISHF
CMI,2017-02-06 13:25,M,M,M,120.00,6.00,M,29.99,M,7.00,M,CLR,M,M,M,M,M,M,M,M,KCMI 061325Z AUTO 12006KT 7SM CLR A2999 RMK MADISHF
CMI,2017-02-06 13:30,M,M,M,120.00,7.00,M,29.99,M,7.00,M,CLR,M,M,M,M,M,M,M,M,KCMI 061330Z AUTO 12007KT 7SM CLR A2999 RMK MADISHF
CMI,2017-02-06 13:35,M,M,M,120.00,6.00,M,29.98,M,7.00,M,CLR,M,M,M,M,M,M,M,M,KCMI 061335Z AUTO 12006KT 7SM CLR A2998 RMK MADISHF
CMI,2017-02-06 13:40,M,M,M,130.00,6.00,M,29.98,M,7.00,M,CLR,M,M,M,M,M,M,M,M,KCMI 061340Z AUTO 13006KT 7SM CLR A2998 RMK MADISHF
CMI,2017-02-06 13:45,M,M,M,130.00,6.00,M,29.98,M,7.00,M,CLR,M,M,M,M,M,M,M,M,KCMI 061345Z AUTO 13006KT 7SM CLR A2998 RMK MADISHF
CMI,2017-02-06 13:50,M,M,M,130.00,6.00,M,29.98,M,7.00,M,CLR,M,M,M,M,M,M,M,M,KCMI 061350Z AUTO 13006KT 7SM CLR A2998 RMK MADISHF
CMI,2017-02-06 13:53,32.00,27.00,81.55,140.00,7.00,0.00,29.98,1016.10,7.00,M,CLR,M,M,M,M,M,M,M,M,KCMI 061353Z 14007KT 7SM CLR 00/M03 A2998 RMK AO2 SLP161 T00001028 $
CMI,2017-02-06 13:55,M,M,M,140.00,7.00,M,29.98,M,7.00,M,CLR,M,M,M,M,M,M,M,M,KCMI 061355Z AUTO 14007KT 7SM CLR A2998 RMK MADISHF
CMI,2017-02-06 14:00,M,M,M,140.00,8.00,M,29.98,M,8.00,M,CLR,M,M,M,M,M,M,M,M,KCMI 061400Z AUTO 14008KT 8SM CLR A2998 RMK MADISHF
CMI,2017-02-06 14:05,M,M,M,140.00,9.00,M,29.98,M,8.00,M,CLR,M,M,M,M,M,M,M,M,KCMI 061405Z AUTO 14009KT 8SM CLR A2998 RMK MADISHF
CMI,2017-02-06 14:10,M,M,M,140.00,10.00,M,29.98,M,8.00,M,CLR,M,M,M,M,M,M,M,M,KCMI 061410Z AUTO 14010KT 8SM CLR A2998 RMK MADISHF
CMI,2017-02-06 14:15,M,M,M,140.00,11.00,M,29.98,M,8.00,M,CLR,M,M,M,M,M,M,M,M,KCMI 061415Z AUTO 14011KT 8SM CLR A2998 RMK MADISHF
CMI,2017-02-06 14:20,M,M,M,150.00,11.00,M,29.98,M,9.00,M,CLR,M,M,M,M,M,M,M,M,KCMI 061420Z AUTO 15011KT 9SM CLR A2998 RMK MADISHF
CMI,2017-02-06 14:25,M,M,M,150.00,12.00,M,29.98,M,9.00,M,CLR,M,M,M,M,M,M,M,M,KCMI 061425Z AUTO 15012KT 9SM CLR A2998 RMK MADISHF
CMI,2017-02-06 14:30,M,M,M,160.00,12.00,M,29.98,M,9.00,M,CLR,M,M,M,M,M,M,M,M,KCMI 061430Z AUTO 16012KT 9SM CLR A2998 RMK MADISHF
CMI,2017-02-06 14:35,M,M,M,160.00,12.00,M,29.98,M,9.00,M,CLR,M,M,M,M,M,M,M,M,KCMI 061435Z AUTO 16012KT 9SM CLR A2998 RMK MADISHF
CMI,2017-02-06 14:40,M,M,M,M,M,M,29.98,M,9.00,M,FEW,M,M,M,600.00,M,M,M,M,KCMI 061440Z AUTO /////KT 9SM FEW006 A2998 RMK MADISHF
CMI,2017-02-06 14:45,37.90,32.00,79.08,170.00,12.00,0.00,29.98,M,8.00,M,SCT,M,M,M,600.00,M,M,M,M,KCMI 061445Z 17012KT 8SM SCT006 03/00 A2998 RMK AO2 T00330000
CMI,2017-02-06 14:50,M,M,M,170.00,11.00,M,29.98,M,7.00,M,BKN,M,M,M,400.00,M,M,M,M,KCMI 061450Z AUTO 17011KT 7SM BKN004 A2998 RMK MADISHF
CMI,2017-02-06 14:53,39.00,34.00,82.08,170.00,9.00,0.00,29.98,1015.80,7.00,M,BKN,M,M,M,400.00,M,M,M,M,KCMI 061453Z 17009KT 7SM BKN004 04/01 A2998 RMK AO2 SLP158 T00390011 56008
CMI,2017-02-06 14:55,M,M,M,170.00,10.00,M,29.98,M,6.00,M,BKN,M,M,M,400.00,M,M,M,HZ,KCMI 061455Z AUTO 17010KT 6SM HZ BKN004 A2998 RMK MADISHF
CMI,2017-02-06 15:00,M,M,M,170.00,8.00,M,29.98,M,6.00,M,BKN,M,M,M,400.00,M,M,M,HZ,KCMI 061500Z AUTO 17008KT 6SM HZ BKN004 A2998 RMK MADISHF
CMI,2017-02-06 15:05,M,M,M,170.00,8.00,M,29.98,M,6.00,M,OVC,M,M,M,499.00,M,M,M,HZ,KCMI 061505Z AUTO 17008KT 6SM HZ OVC004 A2998 RMK MADISHF
CMI,2017-02-06 15:10,M,M,M,170.00,9.00,M,29.98,M,6.00,M,OVC,M,M,M,499.00,M,M,M,HZ,KCMI 061510Z AUTO 17009KT 6SM HZ OVC004 A2998 RMK MADISHF
CMI,2017-02-06 15:11,39.90,35.10,82.80,170.00,9.00,0.00,29.98,M,6.00,M,OVC,M,M,M,500.00,M,M,M,HZ,KCMI 061511Z 17009KT 6SM HZ OVC005 04/02 A2998 RMK AO2 T00440017
CMI,2017-02-06 15:15,M,M,M,170.00,10.00,M,29.98,M,5.00,M,OVC,M,M,M,499.00,M,M,M,BR,KCMI 061515Z AUTO 17010KT 5SM BR OVC004 A2998 RMK MADISHF
CMI,2017-02-06 15:20,M,M,M,170.00,9.00,M,29.97,M,4.00,M,OVC,M,M,M,499.00,M,M,M,BR,KCMI 061520Z AUTO 17009KT 4SM BR OVC004 A2997 RMK MADISHF
CMI,2017-02-06 15:25,M,M,M,170.00,9.00,M,29.97,M,4.00,M,OVC,M,M,M,499.00,M,M,M,BR,KCMI 061525Z AUTO 17009KT 4SM BR OVC004 A2997 RMK MADISHF
CMI,2017-02-06 15:30,M,M,M,170.00,10.00,M,29.97,M,4.00,M,OVC,M,M,M,499.00,M,M,M,BR,KCMI 061530Z AUTO 17010KT 4SM BR OVC004 A2997 RMK MADISHF
CMI,2017-02-06 15:35,M,M,M,170.00,9.00,M,29.97,M,4.00,M,OVC,M,M,M,499.00,M,M,M,BR,KCMI 061535Z AUTO 17009KT 4SM BR OVC004 A2997 RMK MADISHF
CMI,2017-02-06 15:40,M,M,M,160.00,7.00,M,29.97,M,4.00,M,OVC,M,M,M,499.00,M,M,M,BR,KCMI 061540Z AUTO 16007KT 4SM BR OVC004 A2997 RMK MADISHF
CMI,2017-02-06 15:45,M,M,M,160.00,8.00,M,29.97,M,4.00,M,OVC,M,M,M,400.00,M,M,M,BR,KCMI 061545Z AUTO 16008KT 4SM BR OVC004 A2997 RMK MADISHF
CMI,2017-02-06 15:48,41.00,37.40,86.89,160.00,8.00,0.00,29.97,M,5.00,M,OVC,M,M,M,400.00,M,M,M,BR,KCMI 061548Z 16008KT 5SM BR OVC004 05/03 A2997 RMK AO2
CMI,2017-02-06 15:50,M,M,M,160.00,8.00,M,29.97,M,5.00,M,OVC,M,M,M,400.00,M,M,M,BR,KCMI 061550Z AUTO 16008KT 5SM BR OVC004 A2997 RMK MADISHF
CMI,2017-02-06 15:53,41.00,37.00,85.54,160.00,8.00,0.00,29.97,1015.50,5.00,M,OVC,M,M,M,400.00,M,M,M,BR,KCMI 061553Z 16008KT 5SM BR OVC004 05/03 A2997 RMK AO2 SLP155 T00500028
CMI,2017-02-06 15:55,M,M,M,160.00,9.00,M,29.97,M,5.00,M,OVC,M,M,M,400.00,M,M,M,BR,KCMI 061555Z AUTO 16009KT 5SM BR OVC004 A2997 RMK MADISHF
CMI,2017-02-06 16:00,M,M,M,160.00,8.00,M,29.97,M,5.00,M,OVC,M,M,M,400.00,M,M,M,BR,KCMI 061600Z AUTO 16008KT 5SM BR OVC004 A2997 RMK MADISHF
CMI,2017-02-06 16:05,M,M,M,150.00,9.00,M,29.96,M,5.00,M,OVC,M,M,M,400.00,M,M,M,HZ,KCMI 061605Z AUTO 15009KT 5SM HZ OVC004 A2996 RMK MADISHF
CMI,2017-02-06 16:10,M,M,M,150.00,9.00,M,29.96,M,5.00,M,OVC,M,M,M,499.00,M,M,M,BR,KCMI 061610Z AUTO 15009KT 5SM BR OVC004 A2996 RMK MADISHF
CMI,2017-02-06 16:12,42.10,37.90,84.93,150.00,8.00,0.00,29.96,M,5.00,M,OVC,M,M,M,500.00,M,M,M,BR,KCMI 061612Z 15008KT 5SM BR OVC005 06/03 A2996 RMK AO2 T00560033
CMI,2017-02-06 16:15,M,M,M,150.00,8.00,M,29.96,M,5.00,M,OVC,M,M,M,499.00,M,M,M,HZ,KCMI 061615Z AUTO 15008KT 5SM HZ OVC004 A2996 RMK MADISHF
CMI,2017-02-06 16:20,M,M,M,150.00,9.00,M,29.96,M,5.00,M,OVC,M,M,M,499.00,M,M,M,BR,KCMI 061620Z AUTO 15009KT 5SM BR OVC004 A2996 RMK MADISHF
CMI,2017-02-06 16:25,M,M,M,160.00,10.00,M,29.96,M,5.00,M,OVC,M,M,M,400.00,M,M,M,BR,KCMI 061625Z AUTO 16010KT 5SM BR OVC004 A2996 RMK MADISHF
CMI,2017-02-06 16:30,M,M,M,160.00,10.00,M,29.95,M,5.00,M,OVC,M,M,M,400.00,M,M,M,BR,KCMI 061630Z AUTO 16010KT 5SM BR OVC004 A2995 RMK MADISHF
CMI,2017-02-06 16:31,43.00,39.00,85.66,160.00,9.00,0.00,29.95,M,5.00,M,OVC,M,M,M,400.00,M,M,M,BR,KCMI 061631Z 16009KT 5SM BR OVC004 06/04 A2995 RMK AO2 T00610039
CMI,2017-02-06 16:35,M,M,M,160.00,10.00,M,29.95,M,5.00,M,OVC,M,M,M,400.00,M,M,M,HZ,KCMI 061635Z AUTO 16010KT 5SM HZ OVC004 A2995 RMK MADISHF
CMI,2017-02-06 16:40,M,M,M,170.00,8.00,M,29.95,M,5.00,M,OVC,M,M,M,499.00,M,M,M,BR,KCMI 061640Z AUTO 17008KT 5SM BR OVC004 A2995 RMK MADISHF
CMI,2017-02-06 16:45,M,M,M,170.00,10.00,M,29.95,M,5.00,M,OVC,M,M,M,499.00,M,M,M,BR,KCMI 061645Z AUTO 17010KT 5SM BR OVC004 A2995 RMK MADISHF
CMI,2017-02-06 16:46,45.00,39.90,82.19,170.00,9.00,0.00,29.95,M,5.00,M,OVC,M,M,M,500.00,M,M,M,HZ,KCMI 061646Z 17009KT 5SM HZ OVC005 07/04 A2995 RMK AO2 T00720044
CMI,2017-02-06 16:50,M,M,M,170.00,11.00,M,29.94,M,5.00,M,OVC,M,M,M,499.00,M,M,M,HZ,KCMI 061650Z AUTO 17011KT 5SM HZ OVC004 A2994 RMK MADISHF
CMI,2017-02-06 16:53,44.10,41.00,88.77,170.00,11.00,0.00,29.94,1014.40,4.00,M,OVC,M,M,M,500.00,M,M,M,BR,KCMI 061653Z 17011KT 4SM BR OVC005 07/05 A2994 RMK AO2 SLP144 T00670050
CMI,2017-02-06 16:55,M,M,M,170.00,10.00,M,29.94,M,4.00,M,OVC,M,M,M,499.00,M,M,M,BR,KCMI 061655Z AUTO 17010KT 4SM BR OVC004 A2994 RMK MADISHF
CMI,2017-02-06 17:00,M,M,M,170.00,8.00,M,29.93,M,4.00,M,OVC,M,M,M,400.00,M,M,M,BR,KCMI 061700Z AUTO 17008KT 4SM BR OVC004 A2993 RMK MADISHF
CMI,2017-02-06 17:05,45.00,41.00,85.77,160.00,8.00,0.00,29.93,M,4.00,M,OVC,M,M,M,400.00,M,M,M,BR,KCMI 061705Z 16008KT 4SM BR OVC004 07/05 A2993 RMK AO2 T00720050
CMI,2017-02-06 17:10,M,M,M,160.00,9.00,M,29.93,M,4.00,M,OVC,M,M,M,400.00,M,M,M,BR,KCMI 061710Z AUTO 16009KT 4SM BR OVC004 A2993 RMK MADISHF
CMI,2017-02-06 17:15,M,M,M,160.00,9.00,M,29.93,M,4.00,M,OVC,M,M,M,400.00,M,M,M,BR,KCMI 061715Z AUTO 16009KT 4SM BR OVC004 A2993 RMK MADISHF
CMI,2017-02-06 17:20,M,M,M,160.00,9.00,M,29.92,M,3.00,M,OVC,M,M,M,400.00,M,M,M,BR,KCMI 061720Z AUTO 16009KT 3SM BR OVC004 A2992 RMK MADISHF
CMI,2017-02-06 17:25,M,M,M,150.00,8.00,M,29.92,M,3.00,M,OVC,M,M,M,400.00,M,M,M,BR,KCMI 061725Z AUTO 15008KT 3SM BR OVC004 A2992 RMK MADISHF
CMI,2017-02-06 17:30,M,M,M,160.00,8.00,M,29.92,M,3.00,M,OVC,M,M,M,300.00,M,M,M,BR,KCMI 061730Z AUTO 16008KT 3SM BR OVC003 A2992 RMK MADISHF
CMI,2017-02-06 17:35,M,M,M,150.00,9.00,M,29.91,M,2.50,M,OVC,M,M,M,300.00,M,M,M,BR,KCMI 061735Z AUTO 15009KT 2 1/2SM BR OVC003 A2991 RMK MADISHF
CMI,2017-02-06 17:38,44.10,41.00,88.77,150.00,7.00,0.00,29.91,M,2.00,M,OVC,M,M,M,300.00,M,M,M,BR,KCMI 061738Z 15007KT 2SM BR OVC003 07/05 A2991 RMK AO2 T00670050
CMI,2017-02-06 17:40,M,M,M,150.00,7.00,M,29.91,M,2.00,M,OVC,M,M,M,300.00,M,M,M,BR,KCMI 061740Z AUTO 15007KT 2SM BR OVC003 A2991 RMK MADISHF
CMI,2017-02-06 17:45,M,M,M,140.00,7.00,M,29.91,M,1.25,M,OVC,M,M,M,300.00,M,M,M,-RA BR,KCMI 061745Z AUTO 14007KT 1 1/2SM -RA BR OVC003 A2991 RMK MADISHF
CMI,2017-02-06 17:50,M,M,M,150.00,7.00,M,29.91,M,1.00,M,OVC,M,M,M,300.00,M,M,M,-RA BR,KCMI 061750Z AUTO 15007KT 1SM -RA BR OVC003 A2991 RMK MADISHF
CMI,2017-02-06 17:53,43.00,41.00,92.58,160.00,7.00,0.00,29.91,1013.30,1.00,M,OVC,M,M,M,300.00,M,M,M,-RA BR,KCMI 061753Z 16007KT 1SM R32R/4500VP6000FT -RA BR OVC003 06/05 A2991 RMK AO2 RAB44 SLP133 P0000 60000 T00610050 10072 21028 58021
CMI,2017-02-06 17:55,M,M,M,160.00,8.00,M,29.90,M,1.00,M,OVC,M,M,M,300.00,M,M,M,-RA BR,KCMI 061755Z AUTO 16008KT 1SM -RA BR OVC003 A2990 RMK MADISHF
CMI,2017-02-06 18:00,M,M,M,150.00,7.00,M,29.90,M,0.75,M,OVC,M,M,M,300.00,M,M,M,-RA BR,KCMI 061800Z AUTO 15007KT 1SM -RA BR OVC003 A2990 RMK MADISHF
CMI,2017-02-06 18:04,43.00,41.00,92.58,150.00,6.00,0.00,29.90,M,0.75,M,OVC,M,M,M,200.00,M,M,M,-RA BR,KCMI 061804Z 15006KT 3/4SM R32R/3000V4000FT -RA BR OVC002 06/05 A2990 RMK AO2 TWR VIS 1 P0000 T00610050
CMI,2017-02-06 18:05,M,M,M,150.00,6.00,M,29.90,M,0.50,M,OVC,M,M,M,200.00,M,M,M,-RA FG,KCMI 061805Z AUTO 15006KT 1/2SM -RA FG OVC002 A2990 RMK MADISHF
CMI,2017-02-06 18:10,M,M,M,150.00,6.00,M,29.89,M,0.75,M,OVC,M,M,M,200.00,M,M,M,-RA BR,KCMI 061810Z AUTO 15006KT 1SM -RA BR OVC002 A2989 RMK MADISHF
CMI,2017-02-06 18:15,M,M,M,150.00,7.00,M,29.89,M,0.75,M,OVC,M,M,M,200.00,M,M,M,-RA BR,KCMI 061815Z AUTO 15007KT 1SM -RA BR OVC002 A2989 RMK MADISHF
CMI,2017-02-06 18:20,M,M,M,140.00,6.00,M,29.88,M,0.75,M,OVC,M,M,M,200.00,M,M,M,BR,KCMI 061820Z AUTO 14006KT 1SM BR OVC002 A2988 RMK MADISHF
CMI,2017-02-06 18:25,M,M,M,150.00,6.00,M,29.88,M,0.75,M,OVC,M,M,M,200.00,M,M,M,BR,KCMI 061825Z AUTO 15006KT 1SM BR OVC002 A2988 RMK MADISHF
CMI,2017-02-06 18:30,M,M,M,140.00,7.00,M,29.88,M,0.50,M,OVC,M,M,M,200.00,M,M,M,FG,KCMI 061830Z AUTO 14007KT 1/2SM FG OVC002 A2988 RMK MADISHF
CMI,2017-02-06 18:35,M,M,M,150.00,7.00,M,29.88,M,0.50,M,OVC,M,M,M,200.00,M,M,M,FG,KCMI 061835Z AUTO 15007KT 1/2SM FG OVC002 A2988 RMK MADISHF
CMI,2017-02-06 18:40,M,M,M,150.00,7.00,M,29.88,M,0.25,M,OVC,M,M,M,200.00,M,M,M,FG,KCMI 061840Z AUTO 15007KT 1/4SM FG OVC002 A2988 RMK MADISHF
CMI,2017-02-06 18:42,43.00,41.00,92.58,150.00,7.00,0.00,29.88,M,0.25,M,OVC,M,M,M,200.00,M,M,M,FG,KCMI 061842Z 15007KT 1/4SM R32R/2000V3000FT FG OVC002 06/05 A2988 RMK AO2 TWR VIS 3/4 RAE16 P0000 T00610050
CMI,2017-02-06 18:45,M,M,M,150.00,6.00,M,29.87,M,0.24,M,VV ,M,M,M,200.00,M,M,M,FG,KCMI 061845Z AUTO 15006KT 1/4SM FG VV002 A2987 RMK MADISHF
CMI,2017-02-06 18:50,M,M,M,150.00,7.00,M,29.87,M,0.24,M,VV ,M,M,M,200.00,M,M,M,FG,KCMI 061850Z AUTO 15007KT 1/4SM FG VV002 A2987 RMK MADISHF
CMI,2017-02-06 18:53,43.00,41.00,92.58,160.00,6.00,0.00,29.87,1012.00,0.25,M,VV ,M,M,M,200.00,M,M,M,FG,KCMI 061853Z 16006KT 1/4SM R32R/1400V1800FT FG VV002 06/05 A2987 RMK AO2 TWR VIS 1/4 RAE16 SLP120 P0000 T00610050
CMI,2017-02-06 18:55,M,M,M,150.00,7.00,M,29.87,M,0.24,M,VV ,M,M,M,200.00,M,M,M,FG,KCMI 061855Z AUTO 15007KT 1/4SM FG VV002 A2987 RMK MADISHF
CMI,2017-02-06 19:00,M,M,M,140.00,5.00,M,29.86,M,0.24,M,VV ,M,M,M,200.00,M,M,M,FG,KCMI 061900Z AUTO 14005KT 1/4SM FG VV002 A2986 RMK MADISHF
CMI,2017-02-06 19:05,M,M,M,140.00,5.00,M,29.86,M,0.13,M,VV ,M,M,M,200.00,M,M,M,FG,KCMI 061905Z AUTO 14005KT 1/4SM FG VV002 A2986 RMK MADISHF
CMI,2017-02-06 19:10,M,M,M,130.00,6.00,M,29.85,M,0.13,M,VV ,M,M,M,200.00,M,M,M,FG,KCMI 061910Z AUTO 13006KT 1/4SM FG VV002 A2985 RMK MADISHF
CMI,2017-02-06 19:15,M,M,M,130.00,8.00,M,29.84,M,0.13,M,VV ,M,M,M,200.00,M,M,M,FG,KCMI 061915Z AUTO 13008KT 1/4SM FG VV002 A2984 RMK MADISHF
CMI,2017-02-06 19:20,M,M,M,130.00,9.00,M,29.83,M,0.13,M,VV ,M,M,M,200.00,M,M,M,FG,KCMI 061920Z AUTO 13009KT 1/4SM FG VV002 A2983 RMK MADISHF
CMI,2017-02-06 19:25,M,M,M,140.00,10.00,M,29.83,M,0.13,M,VV ,M,M,M,200.00,M,M,M,FG,KCMI 061925Z AUTO 14010KT 1/4SM FG VV002 A2983 RMK MADISHF
CMI,2017-02-06 19:30,M,M,M,130.00,10.00,M,29.83,M,0.24,M,VV ,M,M,M,200.00,M,M,M,FG,KCMI 061930Z AUTO 13010KT 1/4SM FG VV002 A2983 RMK MADISHF
CMI,2017-02-06 19:35,M,M,M,130.00,10.00,M,29.82,M,0.24,M,VV ,M,M,M,200.00,M,M,M,FG,KCMI 061935Z AUTO 13010KT 1/4SM FG VV002 A2982 RMK MADISHF
CMI,2017-02-06 19:40,M,M,M,140.00,10.00,M,29.82,M,0.13,M,VV ,M,M,M,200.00,M,M,M,FG,KCMI 061940Z AUTO 14010KT 1/4SM FG VV002 A2982 RMK MADISHF
CMI,2017-02-06 19:45,M,M,M,140.00,10.00,M,29.82,M,0.24,M,VV ,M,M,M,200.00,M,M,M,FG,KCMI 061945Z AUTO 14010KT 1/4SM FG VV002 A2982 RMK MADISHF
CMI,2017-02-06 19:50,M,M,M,140.00,10.00,M,29.82,M,0.24,M,VV ,M,M,M,200.00,M,M,M,FG,KCMI 061950Z AUTO 14010KT 1/4SM FG VV002 A2982 RMK MADISHF
CMI,2017-02-06 19:53,44.10,42.10,92.62,140.00,10.00,0.00,29.82,1010.30,0.25,M,VV ,M,M,M,200.00,M,M,M,FG,KCMI 061953Z 14010KT 1/4SM R32R/1200V1600FT FG VV002 07/06 A2982 RMK AO2 TWR VIS 1/4 SLP103 T00670056
CMI,2017-02-06 19:55,M,M,M,140.00,11.00,M,29.82,M,0.24,M,VV ,M,M,M,200.00,M,M,M,FG,KCMI 061955Z AUTO 14011KT 1/4SM FG VV002 A2982 RMK MADISHF
CMI,2017-02-06 20:00,M,M,M,140.00,10.00,M,29.81,M,0.24,M,VV ,M,M,M,200.00,M,M,M,FG,KCMI 062000Z AUTO 14010KT 1/4SM FG VV002 A2981 RMK MADISHF
CMI,2017-02-06 20:05,M,M,M,150.00,11.00,M,29.81,M,0.24,M,VV ,M,M,M,200.00,M,M,M,FG,KCMI 062005Z AUTO 15011KT 1/4SM FG VV002 A2981 RMK MADISHF
CMI,2017-02-06 20:10,M,M,M,150.00,10.00,M,29.81,M,0.24,M,VV ,M,M,M,200.00,M,M,M,FG,KCMI 062010Z AUTO 15010KT 1/4SM FG VV002 A2981 RMK MADISHF
CMI,2017-02-06 20:15,M,M,M,150.00,10.00,M,29.81,M,0.24,M,VV ,M,M,M,200.00,M,M,M,FG,KCMI 062015Z AUTO 15010KT 1/4SM FG VV002 A2981 RMK MADISHF
CMI,2017-02-06 20:20,M,M,M,150.00,10.00,M,29.81,M,0.24,M,VV ,M,M,M,200.00,M,M,M,FG,KCMI 062020Z AUTO 15010KT 1/4SM FG VV002 A2981 RMK MADISHF
CMI,2017-02-06 20:25,M,M,M,150.00,10.00,M,29.81,M,0.24,M,VV ,M,M,M,200.00,M,M,M,FG,KCMI 062025Z AUTO 15010KT 1/4SM FG VV002 A2981 RMK MADISHF
CMI,2017-02-06 20:30,M,M,M,150.00,11.00,M,29.81,M,0.24,M,VV ,M,M,M,200.00,M,M,M,FG,KCMI 062030Z AUTO 15011KT 1/4SM FG VV002 A2981 RMK MADISHF
CMI,2017-02-06 20:35,M,M,M,160.00,11.00,M,29.81,M,0.24,M,VV ,M,M,M,200.00,M,M,M,FG,KCMI 062035Z AUTO 16011KT 1/4SM FG VV002 A2981 RMK MADISHF
CMI,2017-02-06 20:40,M,M,M,160.00,11.00,M,29.81,M,0.24,M,VV ,M,M,M,200.00,M,M,M,FG,KCMI 062040Z AUTO 16011KT 1/4SM FG VV002 A2981 RMK MADISHF
CMI,2017-02-06 20:45,M,M,M,160.00,11.00,M,29.81,M,0.24,M,VV ,M,M,M,200.00,M,M,M,FG,KCMI 062045Z AUTO 16011KT 1/4SM FG VV002 A2981 RMK MADISHF
CMI,2017-02-06 20:50,M,M,M,160.00,10.00,M,29.81,M,0.24,M,VV ,M,M,M,200.00,M,M,M,FG,KCMI 062050Z AUTO 16010KT 1/4SM FG VV002 A2981 RMK MADISHF
CMI,2017-02-06 20:53,43.00,42.10,96.60,160.00,9.00,0.00,29.81,1010.00,0.25,M,VV ,M,M,M,200.00,M,M,M,FG,KCMI 062053Z AUTO 16009KT 1/4SM R32R/2200FT FG VV002 06/06 A2981 RMK AO2 TWR VIS 1/4 SLP100 60000 T00610056 56032
CMI,2017-02-06 20:55,M,M,M,160.00,10.00,M,29.81,M,0.24,M,VV ,M,M,M,200.00,M,M,M,FG,KCMI 062055Z AUTO 16010KT 1/4SM FG VV002 A2981 RMK MADISHF
CMI,2017-02-06 21:00,M,M,M,160.00,10.00,M,29.80,M,0.24,M,VV ,M,M,M,200.00,M,M,M,FG,KCMI 062100Z AUTO 16010KT 1/4SM FG VV002 A2980 RMK MADISHF
CMI,2017-02-06 21:05,M,M,M,160.00,10.00,M,29.80,M,0.24,M,VV ,M,M,M,200.00,M,M,M,FG,KCMI 062105Z AUTO 16010KT 1/4SM FG VV002 A2980 RMK MADISHF
CMI,2017-02-06 21:10,M,M,M,160.00,10.00,M,29.80,M,0.25,M,VV ,M,M,M,200.00,M,M,M,FG,KCMI 062110Z AUTO 16010KT 1/4SM FG VV002 A2980 RMK MADISHF
CMI,2017-02-06 21:15,M,M,M,160.00,10.00,M,29.80,M,0.25,M,VV ,M,M,M,200.00,M,M,M,FG,KCMI 062115Z AUTO 16010KT 1/4SM FG VV002 A2980 RMK MADISHF
CMI,2017-02-06 21:19,44.10,43.00,95.88,160.00,10.00,0.00,29.80,M,0.25,M,VV ,M,M,M,200.00,M,M,M,FG,KCMI 062119Z 16010KT 1/4SM R32R/2200V2400FT FG VV002 07/06 A2980 RMK AO2 TWR VIS 1/4 T00670061
CMI,2017-02-06 21:20,M,M,M,160.00,10.00,M,29.80,M,0.24,M,VV ,M,M,M,200.00,M,M,M,FG,KCMI 062120Z AUTO 16010KT 1/4SM FG VV002 A2980 RMK MADISHF
CMI,2017-02-06 21:25,M,M,M,160.00,10.00,M,29.80,M,0.24,M,VV ,M,M,M,200.00,M,M,M,FG,KCMI 062125Z AUTO 16010KT 1/4SM FG VV002 A2980 RMK MADISHF
CMI,2017-02-06 21:30,44.10,43.00,95.88,160.00,9.00,0.00,29.80,M,0.25,M,VV ,M,M,M,200.00,M,M,M,FG,KCMI 062130Z 16009KT 1/4SM R32R/2000V2200FT FG VV002 07/06 A2980 RMK AO2 TWR VIS 1/4 T00670061
CMI,2017-02-06 21:35,M,M,M,150.00,9.00,M,29.79,M,0.24,M,VV ,M,M,M,200.00,M,M,M,FG,KCMI 062135Z AUTO 15009KT 1/4SM FG VV002 A2979 RMK MADISHF
CMI,2017-02-06 21:40,M,M,M,150.00,9.00,M,29.79,M,0.24,M,VV ,M,M,M,200.00,M,M,M,FG,KCMI 062140Z AUTO 15009KT 1/4SM FG VV002 A2979 RMK MADISHF
CMI,2017-02-06 21:45,M,M,M,160.00,9.00,M,29.79,M,0.24,M,VV ,M,M,M,200.00,M,M,M,FG,KCMI 062145Z AUTO 16009KT 1/4SM FG VV002 A2979 RMK MADISHF
CMI,2017-02-06 21:50,M,M,M,160.00,9.00,M,29.79,M,0.24,M,VV ,M,M,M,200.00,M,M,M,FG,KCMI 062150Z AUTO 16009KT 1/4SM FG VV002 A2979 RMK MADISHF
CMI,2017-02-06 21:53,44.10,43.00,95.88,150.00,8.00,0.00,29.79,1009.40,0.25,M,VV ,M,M,M,200.00,M,M,M,FG,KCMI 062153Z 15008KT 1/4SM R32R/1800V2000FT FG VV002 07/06 A2979 RMK AO2 TWR VIS 1/4 SLP094 T00670061
CMI,2017-02-06 21:55,M,M,M,140.00,7.00,M,29.79,M,0.24,M,VV ,M,M,M,200.00,M,M,M,FG,KCMI 062155Z AUTO 14007KT 1/4SM FG VV002 A2979 RMK MADISHF
CMI,2017-02-06 22:00,M,M,M,150.00,10.00,M,29.79,M,0.24,M,VV ,M,M,M,200.00,M,M,M,FG,KCMI 062200Z AUTO 15010KT 1/4SM FG VV002 A2979 RMK MADISHF
CMI,2017-02-06 22:05,M,M,M,150.00,9.00,M,29.79,M,0.24,M,VV ,M,M,M,200.00,M,M,M,FG,KCMI 062205Z AUTO 15009KT 1/4SM FG VV002 A2979 RMK MADISHF
CMI,2017-02-06 22:10,M,M,M,150.00,8.00,M,29.79,M,0.24,M,VV ,M,M,M,200.00,M,M,M,FG,KCMI 062210Z AUTO 15008KT 1/4SM FG VV002 A2979 RMK MADISHF
CMI,2017-02-06 22:15,M,M,M,150.00,8.00,M,29.79,M,0.24,M,VV ,M,M,M,200.00,M,M,M,FG,KCMI 062215Z AUTO 15008KT 1/4SM FG VV002 A2979 RMK MADISHF
CMI,2017-02-06 22:20,M,M,M,150.00,9.00,M,29.79,M,0.24,M,VV ,M,M,M,200.00,M,M,M,FG,KCMI 062220Z AUTO 15009KT 1/4SM FG VV002 A2979 RMK MADISHF
CMI,2017-02-06 22:25,M,M,M,150.00,10.00,M,29.79,M,0.24,M,VV ,M,M,M,200.00,M,M,M,FG,KCMI 062225Z AUTO 15010KT 1/4SM FG VV002 A2979 RMK MADISHF
CMI,2017-02-06 22:30,M,M,M,160.00,10.00,M,29.78,M,0.24,M,VV ,M,M,M,200.00,M,M,M,FG,KCMI 062230Z AUTO 16010KT 1/4SM FG VV002 A2978 RMK MADISHF
CMI,2017-02-06 22:35,M,M,M,150.00,10.00,M,29.78,M,0.24,M,VV ,M,M,M,200.00,M,M,M,FG,KCMI 062235Z AUTO 15010KT 1/4SM FG VV002 A2978 RMK MADISHF
CMI,2017-02-06 22:40,M,M,M,150.00,10.00,M,29.78,M,0.24,M,VV ,M,M,M,200.00,M,M,M,FG,KCMI 062240Z AUTO 15010KT 1/4SM FG VV002 A2978 RMK MADISHF
CMI,2017-02-06 22:45,M,M,M,150.00,10.00,M,29.78,M,0.24,M,VV ,M,M,M,200.00,M,M,M,FG,KCMI 062245Z AUTO 15010KT 1/4SM FG VV002 A2978 RMK MADISHF
CMI,2017-02-06 22:50,M,M,M,150.00,11.00,M,29.77,M,0.13,M,VV ,M,M,M,200.00,M,M,M,FG,KCMI 062250Z AUTO 15011KT 1/4SM FG VV002 A2977 RMK MADISHF
CMI,2017-02-06 22:53,44.10,43.00,95.88,150.00,11.00,0.00,29.77,1008.80,0.25,M,VV ,M,M,M,200.00,M,M,M,FG,KCMI 062253Z 15011KT M1/4SM R32R/1400FT FG VV002 07/06 A2977 RMK AO2 TWR VIS 1/4 SLP088 T00670061
CMI,2017-02-06 22:55,M,M,M,150.00,11.00,M,29.77,M,0.13,M,VV ,M,M,M,200.00,M,M,M,FG,KCMI 062255Z AUTO 15011KT 1/4SM FG VV002 A2977 RMK MADISHF
CMI,2017-02-06 23:00,M,M,M,150.00,11.00,M,29.77,M,0.13,M,VV ,M,M,M,200.00,M,M,M,FG,KCMI 062300Z AUTO 15011KT 1/4SM FG VV002 A2977 RMK MADISHF
CMI,2017-02-06 23:05,M,M,M,150.00,12.00,M,29.77,M,0.13,M,VV ,M,M,M,200.00,M,M,M,FG,KCMI 062305Z AUTO 15012KT 1/4SM FG VV002 A2977 RMK MADISHF
CMI,2017-02-06 23:10,M,M,M,150.00,10.00,M,29.77,M,0.24,M,VV ,M,M,M,200.00,M,M,M,FG,KCMI 062310Z AUTO 15010KT 1/4SM FG VV002 A2977 RMK MADISHF
CMI,2017-02-06 23:15,M,M,M,150.00,11.00,M,29.77,M,0.24,M,VV ,M,M,M,200.00,M,M,M,FG,KCMI 062315Z AUTO 15011KT 1/4SM FG VV002 A2977 RMK MADISHF
CMI,2017-02-06 23:20,M,M,M,140.00,12.00,M,29.76,M,0.24,M,VV ,M,M,M,200.00,M,M,M,FG,KCMI 062320Z AUTO 14012KT 1/4SM FG VV002 A2976 RMK MADISHF
CMI,2017-02-06 23:25,M,M,M,140.00,12.00,M,29.76,M,0.24,M,VV ,M,M,M,200.00,M,M,M,FG,KCMI 062325Z AUTO 14012KT 1/4SM FG VV002 A2976 RMK MADISHF
CMI,2017-02-06 23:30,M,M,M,150.00,10.00,M,29.77,M,0.24,M,VV ,M,M,M,200.00,M,M,M,FG,KCMI 062330Z AUTO 15010KT 1/4SM FG VV002 A2977 RMK MADISHF
CMI,2017-02-06 23:35,M,M,M,150.00,11.00,M,29.77,M,0.24,M,VV ,M,M,M,200.00,M,M,M,FG,KCMI 062335Z AUTO 15011KT 1/4SM FG VV002 A2977 RMK MADISHF
CMI,2017-02-06 23:40,M,M,M,150.00,10.00,M,29.77,M,0.25,M,VV ,M,M,M,200.00,M,M,M,FG,KCMI 062340Z AUTO 15010KT 1/4SM FG VV002 A2977 RMK MADISHF
CMI,2017-02-06 23:45,M,M,M,150.00,10.00,M,29.77,M,0.25,M,VV ,M,M,M,200.00,M,M,M,FG,KCMI 062345Z AUTO 15010KT 1/4SM FG VV002 A2977 RMK MADISHF
CMI,2017-02-06 23:50,M,M,M,150.00,10.00,M,29.76,M,0.25,M,VV ,M,M,M,200.00,M,M,M,FG,KCMI 062350Z AUTO 15010KT 1/4SM FG VV002 A2976 RMK MADISHF
CMI,2017-02-06 23:53,44.10,43.00,95.88,150.00,11.00,0.00,29.76,1008.40,0.25,M,VV ,M,M,M,200.00,M,M,M,FG,KCMI 062353Z 15011KT 1/4SM R32R/1600V1800FT FG VV002 07/06 A2976 RMK AO2 SLP084 60000 T00670061 10067 20056 56015
CMI,2017-02-06 23:55,M,M,M,150.00,11.00,M,29.76,M,0.25,M,VV ,M,M,M,200.00,M,M,M,FG,KCMI 062355Z AUTO 15011KT 1/4SM FG VV002 A2976 RMK MADISHF
CMI,2017-02-07 00:00,M,M,M,150.00,11.00,M,29.76,M,0.25,M,VV ,M,M,M,200.00,M,M,M,FG,KCMI 070000Z AUTO 15011KT 1/4SM FG VV002 A2976 RMK MADISHF
CMI,2017-02-07 00:05,M,M,M,150.00,11.00,M,29.76,M,0.25,M,VV ,M,M,M,200.00,M,M,M,FG,KCMI 070005Z AUTO 15011KT 1/4SM FG VV002 A2976 RMK MADISHF
CMI,2017-02-07 00:10,M,M,M,150.00,11.00,M,29.76,M,0.25,M,VV ,M,M,M,200.00,M,M,M,FG,KCMI 070010Z AUTO 15011KT 1/4SM FG VV002 A2976 RMK MADISHF
CMI,2017-02-07 00:15,M,M,M,150.00,12.00,M,29.76,M,0.25,M,VV ,M,M,M,200.00,M,M,M,FG,KCMI 070015Z AUTO 15012KT 1/4SM FG VV002 A2976 RMK MADISHF
CMI,2017-02-07 00:20,M,M,M,150.00,12.00,M,29.76,M,0.25,M,VV ,M,M,M,200.00,M,M,M,FG,KCMI 070020Z AUTO 15012KT 1/4SM FG VV002 A2976 RMK MADISHF
CMI,2017-02-07 00:25,M,M,M,150.00,12.00,M,29.76,M,0.25,M,VV ,M,M,M,200.00,M,M,M,FG,KCMI 070025Z AUTO 15012KT 1/4SM FG VV002 A2976 RMK MADISHF
CMI,2017-02-07 00:30,M,M,M,150.00,13.00,M,29.75,M,0.25,M,VV ,M,M,M,200.00,M,M,M,FG,KCMI 070030Z AUTO 15013KT 1/4SM FG VV002 A2975 RMK MADISHF
CMI,2017-02-07 00:35,M,M,M,160.00,12.00,M,29.76,M,0.25,M,VV ,M,M,M,200.00,M,M,M,FG,KCMI 070035Z AUTO 16012KT 1/4SM FG VV002 A2976 RMK MADISHF
CMI,2017-02-07 00:40,M,M,M,150.00,11.00,M,29.75,M,0.25,M,VV ,M,M,M,200.00,M,M,M,FG,KCMI 070040Z AUTO 15011KT 1/4SM FG VV002 A2975 RMK MADISHF
CMI,2017-02-07 00:45,M,M,M,150.00,11.00,M,29.75,M,0.25,M,VV ,M,M,M,200.00,M,M,M,FG,KCMI 070045Z AUTO 15011KT 1/4SM FG VV002 A2975 RMK MADISHF
CMI,2017-02-07 00:50,M,M,M,140.00,11.00,M,29.75,M,0.25,M,VV ,M,M,M,200.00,M,M,M,FG,KCMI 070050Z AUTO 14011KT 1/4SM FG VV002 A2975 RMK MADISHF
CMI,2017-02-07 00:53,45.00,44.10,96.63,140.00,10.00,0.00,29.74,1007.70,0.25,M,VV ,M,M,M,200.00,M,M,M,FG,KCMI 070053Z 14010KT 1/4SM R32R/1600V1800FT FG VV002 07/07 A2974 RMK AO2 SLP077 T00720067
CMI,2017-02-07 00:55,M,M,M,140.00,11.00,M,29.74,M,0.25,M,VV ,M,M,M,200.00,M,M,M,FG,KCMI 070055Z AUTO 14011KT 1/4SM FG VV002 A2974 RMK MADISHF
CMI,2017-02-07 01:00,M,M,M,140.00,11.00,M,29.74,M,0.25,M,VV ,M,M,M,200.00,M,M,M,FG,KCMI 070100Z AUTO 14011KT 1/4SM FG VV002 A2974 RMK MADISHF
CMI,2017-02-07 01:05,M,M,M,140.00,10.00,M,29.74,M,0.25,M,VV ,M,M,M,200.00,M,M,M,FG,KCMI 070105Z AUTO 14010KT 1/4SM FG VV002 A2974 RMK MADISHF
CMI,2017-02-07 01:10,M,M,M,150.00,7.00,M,29.74,M,0.25,M,VV ,M,M,M,200.00,M,M,M,FG,KCMI 070110Z AUTO 15007KT 1/4SM FG VV002 A2974 RMK MADISHF
CMI,2017-02-07 01:15,M,M,M,140.00,6.00,M,29.73,M,0.25,M,VV ,M,M,M,200.00,M,M,M,FG,KCMI 070115Z AUTO 14006KT 1/4SM FG VV002 A2973 RMK MADISHF
CMI,2017-02-07 01:20,M,M,M,130.00,8.00,M,29.73,M,0.25,M,VV ,M,M,M,200.00,M,M,M,FG,KCMI 070120Z AUTO 13008KT 1/4SM FG VV002 A2973 RMK MADISHF
CMI,2017-02-07 01:25,M,M,M,150.00,8.00,M,29.73,M,0.25,M,VV ,M,M,M,200.00,M,M,M,FG,KCMI 070125Z AUTO 15008KT 1/4SM FG VV002 A2973 RMK MADISHF
CMI,2017-02-07 01:30,M,M,M,140.00,9.00,M,29.73,M,0.25,M,VV ,M,M,M,200.00,M,M,M,FG,KCMI 070130Z AUTO 14009KT 1/4SM FG VV002 A2973 RMK MADISHF
CMI,2017-02-07 01:35,M,M,M,150.00,9.00,M,29.73,M,0.25,M,VV ,M,M,M,200.00,M,M,M,FG,KCMI 070135Z AUTO 15009KT 1/4SM FG VV002 A2973 RMK MADISHF
CMI,2017-02-07 01:40,M,M,M,160.00,9.00,M,29.73,M,0.25,M,VV ,M,M,M,200.00,M,M,M,FG,KCMI 070140Z AUTO 16009KT 1/4SM FG VV002 A2973 RMK MADISHF
CMI,2017-02-07 01:45,M,M,M,160.00,10.00,M,29.73,M,0.25,M,VV ,M,M,M,200.00,M,M,M,-RA FG,KCMI 070145Z AUTO 16010KT 1/4SM -RA FG VV002 A2973 RMK MADISHF
CMI,2017-02-07 01:50,M,M,M,160.00,11.00,M,29.72,M,0.25,M,VV ,M,M,M,200.00,M,M,M,-RA FG,KCMI 070150Z AUTO 16011KT 1/4SM -RA FG VV002 A2972 RMK MADISHF
CMI,2017-02-07 01:53,46.00,45.00,96.28,160.00,11.00,0.00,29.72,1007.00,0.25,M,VV ,M,M,M,200.00,M,M,M,FG,KCMI 070153Z 16011KT 1/4SM R32R/1800V2000FT FG VV002 08/07 A2972 RMK AO2 RAB44E53 SLP070 P0000 T00780072
CMI,2017-02-07 01:55,M,M,M,160.00,11.00,M,29.72,M,0.25,M,VV ,M,M,M,200.00,M,M,M,-RA FG,KCMI 070155Z AUTO 16011KT 1/4SM -RA FG VV002 A2972 RMK MADISHF
CMI,2017-02-07 02:00,M,M,M,160.00,11.00,M,29.72,M,0.25,M,VV ,M,M,M,200.00,M,M,M,-RA FG,KCMI 070200Z AUTO 16011KT 1/4SM -RA FG VV002 A2972 RMK MADISHF
CMI,2017-02-07 02:05,M,M,M,160.00,12.00,M,29.71,M,0.25,M,VV ,M,M,M,200.00,M,M,M,FG,KCMI 070205Z AUTO 16012KT 1/4SM FG VV002 A2971 RMK MADISHF
CMI,2017-02-07 02:10,M,M,M,160.00,10.00,M,29.71,M,0.25,M,VV ,M,M,M,200.00,M,M,M,FG,KCMI 070210Z AUTO 16010KT 1/4SM FG VV002 A2971 RMK MADISHF
CMI,2017-02-07 02:15,M,M,M,160.00,10.00,M,29.71,M,0.24,M,VV ,M,M,M,200.00,M,M,M,FG,KCMI 070215Z AUTO 16010KT 1/4SM FG VV002 A2971 RMK MADISHF
CMI,2017-02-07 02:20,M,M,M,160.00,9.00,M,29.71,M,0.24,M,VV ,M,M,M,200.00,M,M,M,FG,KCMI 070220Z AUTO 16009KT 1/4SM FG VV002 A2971 RMK MADISHF
CMI,2017-02-07 02:25,M,M,M,160.00,9.00,M,29.71,M,0.24,M,VV ,M,M,M,200.00,M,M,M,FG,KCMI 070225Z AUTO 16009KT 1/4SM FG VV002 A2971 RMK MADISHF
CMI,2017-02-07 02:30,M,M,M,160.00,10.00,M,29.70,M,0.24,M,VV ,M,M,M,200.00,M,M,M,FG,KCMI 070230Z AUTO 16010KT 1/4SM FG VV002 A2970 RMK MADISHF
CMI,2017-02-07 02:35,M,M,M,160.00,10.00,M,29.70,M,0.24,M,VV ,M,M,M,100.00,M,M,M,FG,KCMI 070235Z AUTO 16010KT 1/4SM FG VV001 A2970 RMK MADISHF
CMI,2017-02-07 02:37,46.90,46.00,96.66,160.00,10.00,0.00,29.70,M,0.25,M,VV ,M,M,M,100.00,M,M,M,FG,KCMI 070237Z 16010KT 1/4SM R32R/1400V1600FT FG VV001 08/08 A2970 RMK AO2 TWR VIS 1/4 RAB0155E05 P0000 T00830078
CMI,2017-02-07 02:40,M,M,M,160.00,10.00,M,29.70,M,0.24,M,VV ,M,M,M,100.00,M,M,M,FG,KCMI 070240Z AUTO 16010KT 1/4SM FG VV001 A2970 RMK MADISHF
CMI,2017-02-07 02:45,M,M,M,160.00,9.00,M,29.70,M,0.24,M,VV ,M,M,M,100.00,M,M,M,FG,KCMI 070245Z AUTO 16009KT 1/4SM FG VV001 A2970 RMK MADISHF
CMI,2017-02-07 02:50,M,M,M,170.00,9.00,M,29.70,M,0.24,M,VV ,M,M,M,100.00,M,M,M,FG,KCMI 070250Z AUTO 17009KT 1/4SM FG VV001 A2970 RMK MADISHF
CMI,2017-02-07 02:53,46.90,46.00,96.66,170.00,8.00,0.00,29.70,1006.10,0.25,M,VV ,M,M,M,200.00,M,M,M,FG,KCMI 070253Z 17008KT 1/4SM R32R/1600V1800FT FG VV002 08/08 A2970 RMK AO2 TWR VIS 1/4 RAB0155E05 SLP061 P0000 60000 T00830078 57021
CMI,2017-02-07 02:55,M,M,M,170.00,8.00,M,29.70,M,0.24,M,VV ,M,M,M,200.00,M,M,M,FG,KCMI 070255Z AUTO 17008KT 1/4SM FG VV002 A2970 RMK MADISHF
CMI,2017-02-07 03:00,M,M,M,170.00,9.00,M,29.70,M,0.24,M,VV ,M,M,M,200.00,M,M,M,FG,KCMI 070300Z AUTO 17009KT 1/4SM FG VV002 A2970 RMK MADISHF
CMI,2017-02-07 03:05,M,M,M,180.00,10.00,M,29.70,M,0.24,M,VV ,M,M,M,200.00,M,M,M,FG,KCMI 070305Z AUTO 18010KT 1/4SM FG VV002 A2970 RMK MADISHF
CMI,2017-02-07 03:10,M,M,M,170.00,8.00,M,29.70,M,0.24,M,VV ,M,M,M,200.00,M,M,M,FG,KCMI 070310Z AUTO 17008KT 1/4SM FG VV002 A2970 RMK MADISHF
CMI,2017-02-07 03:15,M,M,M,170.00,10.00,M,29.69,M,0.24,M,VV ,M,M,M,200.00,M,M,M,FG,KCMI 070315Z AUTO 17010KT 1/4SM FG VV002 A2969 RMK MADISHF
CMI,2017-02-07 03:20,M,M,M,170.00,10.00,M,29.69,M,0.24,M,VV ,M,M,M,200.00,M,M,M,FG,KCMI 070320Z AUTO 17010KT 1/4SM FG VV002 A2969 RMK MADISHF
CMI,2017-02-07 03:25,M,M,M,180.00,11.00,M,29.69,M,0.25,M,VV ,M,M,M,200.00,M,M,M,FG,KCMI 070325Z AUTO 18011KT 1/4SM FG VV002 A2969 RMK MADISHF
CMI,2017-02-07 03:30,M,M,M,170.00,12.00,M,29.69,M,0.25,M,VV ,M,M,M,200.00,M,M,M,FG,KCMI 070330Z AUTO 17012KT 1/4SM FG VV002 A2969 RMK MADISHF
CMI,2017-02-07 03:35,M,M,M,170.00,12.00,M,29.69,M,0.25,M,VV ,M,M,M,200.00,M,M,M,FG,KCMI 070335Z AUTO 17012KT 1/4SM FG VV002 A2969 RMK MADISHF
CMI,2017-02-07 03:40,M,M,M,170.00,12.00,M,29.68,M,0.25,M,VV ,M,M,M,200.00,M,M,M,FG,KCMI 070340Z AUTO 17012KT 1/4SM FG VV002 A2968 RMK MADISHF
CMI,2017-02-07 03:45,M,M,M,170.00,11.00,M,29.68,M,0.25,M,VV ,M,M,M,200.00,M,M,M,FG,KCMI 070345Z AUTO 17011KT 1/4SM FG VV002 A2968 RMK MADISHF
CMI,2017-02-07 03:50,M,M,M,170.00,12.00,M,29.68,M,0.25,M,VV ,M,M,M,200.00,M,M,M,FG,KCMI 070350Z AUTO 17012KT 1/4SM FG VV002 A2968 RMK MADISHF
CMI,2017-02-07 03:53,48.90,48.00,96.69,170.00,12.00,0.00,29.68,1005.20,0.25,M,VV ,M,M,M,200.00,M,M,M,FG,KCMI 070353Z 17012KT 1/4SM R32R/2000FT FG VV002 09/09 A2968 RMK AO2 SLP052 T00940089
CMI,2017-02-07 03:55,M,M,M,170.00,11.00,M,29.68,M,0.25,M,VV ,M,M,M,200.00,M,M,M,FG,KCMI 070355Z AUTO 17011KT 1/4SM FG VV002 A2968 RMK MADISHF
CMI,2017-02-07 04:00,M,M,M,170.00,12.00,M,29.67,M,0.25,M,VV ,M,M,M,200.00,M,M,M,FG,KCMI 070400Z AUTO 17012KT 1/4SM FG VV002 A2967 RMK MADISHF
CMI,2017-02-07 04:05,M,M,M,170.00,13.00,M,29.67,M,0.25,M,VV ,M,M,M,200.00,M,M,M,FG,KCMI 070405Z AUTO 17013KT 1/4SM FG VV002 A2967 RMK MADISHF
CMI,2017-02-07 04:10,M,M,M,160.00,12.00,M,29.66,M,0.25,M,VV ,M,M,M,200.00,M,M,M,FG,KCMI 070410Z AUTO 16012KT 1/4SM FG VV002 A2966 RMK MADISHF
CMI,2017-02-07 04:15,M,M,M,170.00,10.00,M,29.66,M,0.25,M,VV ,M,M,M,200.00,M,M,M,FG,KCMI 070415Z AUTO 17010KT 1/4SM FG VV002 A2966 RMK MADISHF
CMI,2017-02-07 04:20,M,M,M,170.00,10.00,M,29.66,M,0.25,M,VV ,M,M,M,200.00,M,M,M,FG,KCMI 070420Z AUTO 17010KT 1/4SM FG VV002 A2966 RMK MADISHF
CMI,2017-02-07 04:25,M,M,M,160.00,10.00,M,29.66,M,0.24,M,VV ,M,M,M,200.00,M,M,M,FG,KCMI 070425Z AUTO 16010KT 1/4SM FG VV002 A2966 RMK MADISHF
CMI,2017-02-07 04:30,M,M,M,160.00,9.00,M,29.66,M,0.24,M,VV ,M,M,M,200.00,M,M,M,FG,KCMI 070430Z AUTO 16009KT 1/4SM FG VV002 A2966 RMK MADISHF
CMI,2017-02-07 04:35,M,M,M,160.00,10.00,M,29.66,M,0.25,M,VV ,M,M,M,200.00,M,M,M,FG,KCMI 070435Z AUTO 16010KT 1/4SM FG VV002 A2966 RMK MADISHF
CMI,2017-02-07 04:40,48.00,46.90,95.95,160.00,10.00,0.00,29.66,M,0.25,M,VV ,M,M,M,200.00,M,M,M,FG,KCMI 070440Z 16010KT 1/4SM R32R/2000V2600FT FG VV002 09/08 A2966 RMK AO2 T00890083
CMI,2017-02-07 04:45,M,M,M,160.00,11.00,M,29.66,M,0.25,M,VV ,M,M,M,200.00,M,M,M,FG,KCMI 070445Z AUTO 16011KT 1/4SM FG VV002 A2966 RMK MADISHF
CMI,2017-02-07 04:50,M,M,M,160.00,10.00,M,29.65,M,0.50,M,VV ,M,M,M,200.00,M,M,M,FG,KCMI 070450Z AUTO 16010KT 1/2SM FG VV002 A2965 RMK MADISHF
CMI,2017-02-07 04:53,48.90,48.00,96.69,160.00,10.00,0.00,29.65,1004.30,0.50,M,VV ,M,M,M,200.00,M,M,M,FG,KCMI 070453Z 16010KT 1/2SM R32R/2600V3500FT FG VV002 09/09 A2965 RMK AO2 SLP043 T00940089
CMI,2017-02-07 04:55,M,M,M,160.00,10.00,M,29.65,M,0.50,M,VV ,M,M,M,200.00,M,M,M,FG,KCMI 070455Z AUTO 16010KT 1/2SM FG VV002 A2965 RMK MADISHF
CMI,2017-02-07 05:00,M,M,M,160.00,9.00,M,29.65,M,0.25,M,VV ,M,M,M,200.00,M,M,M,FG,KCMI 070500Z AUTO 16009KT 1/4SM FG VV002 A2965 RMK MADISHF
CMI,2017-02-07 05:03,48.90,48.00,96.69,160.00,10.00,0.00,29.65,M,0.25,M,VV ,M,M,M,200.00,M,M,M,FG,KCMI 070503Z AUTO 16010KT 1/4SM R32R/1800V2400FT FG VV002 09/09 A2965 RMK AO2 T00940089
CMI,2017-02-07 05:05,M,M,M,160.00,10.00,M,29.65,M,0.25,M,VV ,M,M,M,200.00,M,M,M,FG,KCMI 070505Z AUTO 16010KT 1/4SM FG VV002 A2965 RMK MADISHF
CMI,2017-02-07 05:10,M,M,M,160.00,10.00,M,29.64,M,0.25,M,VV ,M,M,M,200.00,M,M,M,FG,KCMI 070510Z AUTO 16010KT 1/4SM FG VV002 A2964 RMK MADISHF
CMI,2017-02-07 05:11,48.90,48.00,96.69,150.00,9.00,0.00,29.64,M,0.25,M,VV ,M,M,M,200.00,M,M,M,FG,KCMI 070511Z AUTO 15009KT 1/4SM R32R/1600V1800FT FG VV002 09/09 A2964 RMK AO2 T00940089
CMI,2017-02-07 05:15,M,M,M,150.00,8.00,M,29.64,M,0.25,M,VV ,M,M,M,200.00,M,M,M,FG,KCMI 070515Z AUTO 15008KT 1/4SM FG VV002 A2964 RMK MADISHF
CMI,2017-02-07 05:20,M,M,M,150.00,10.00,M,29.64,M,0.25,M,VV ,M,M,M,200.00,M,M,M,FG,KCMI 070520Z AUTO 15010KT 1/4SM FG VV002 A2964 RMK  LTG DSNT SW! MADISHF
CMI,2017-02-07 05:25,M,M,M,140.00,8.00,M,29.63,M,0.25,M,VV ,M,M,M,200.00,M,M,M,FG,KCMI 070525Z AUTO 14008KT 1/4SM FG VV002 A2963 RMK  LTG DSNT S AND SW! MADISHF
CMI,2017-02-07 05:30,M,M,M,140.00,10.00,M,29.63,M,0.25,M,VV ,M,M,M,200.00,M,M,M,-RA FG,KCMI 070530Z AUTO 14010KT 1/4SM -RA FG VV002 A2963 RMK  LTG DSNT S-NW! MADISHF
CMI,2017-02-07 05:35,M,M,M,150.00,10.00,M,29.63,M,0.25,M,VV ,M,M,M,200.00,M,M,M,-RA FG,KCMI 070535Z AUTO 15010KT 1/4SM -RA FG VV002 A2963 RMK  LTG DSNT S-NW! MADISHF
CMI,2017-02-07 05:40,M,M,M,150.00,9.00,M,29.62,M,0.25,M,VV ,M,M,M,200.00,M,M,M,FG,KCMI 070540Z AUTO 15009KT 1/4SM FG VV002 A2962 RMK  LTG DSNT S AND NW! MADISHF
CMI,2017-02-07 05:45,M,M,M,150.00,12.00,0.01,29.62,M,0.25,M,VV ,M,M,M,200.00,M,M,M,-RA FG,KCMI 070545Z AUTO 15012KT 1/4SM -RA FG VV002 A2962 RMK P0001  LTG DSNT S AND NW! MADISHF
CMI,2017-02-07 05:46,48.90,48.00,96.69,150.00,10.00,0.01,29.62,M,0.25,M,VV ,M,M,M,200.00,M,M,M,VCTS -RA FG,KCMI 070546Z AUTO 15010KT 1/4SM R32R/2000V2400FT VCTS -RA FG VV002 09/09 A2962 RMK AO2 LTG DSNT SE AND S AND NW RAB30 P0001 T00940089
CMI,2017-02-07 05:50,M,M,M,160.00,9.00,0.01,29.62,M,0.50,M,VV ,M,M,M,200.00,M,M,M,-RA FG,KCMI 070550Z AUTO 16009KT 1/2SM -RA FG VV002 A2962 RMK P0001  LTG DSNT ALQDS! MADISHF
CMI,2017-02-07 05:53,50.00,48.90,95.98,150.00,8.00,0.01,29.61,1003.00,0.75,M,VV ,M,M,M,200.00,M,M,M,VCTS -RA BR,KCMI 070553Z AUTO 15008KT 3/4SM R32R/2200VP6000FT VCTS -RA BR VV002 10/09 A2961 RMK AO2 LTG DSNT ALQDS RAB30 SLP030 P0001 60001 T01000094 10100 20067 401001044 58028
CMI,2017-02-07 05:55,M,M,M,160.00,10.00,M,29.61,M,1.25,M,OVC,M,M,M,200.00,M,M,M,-RA BR,KCMI 070555Z AUTO 16010KT 1 1/2SM -RA BR OVC002 A2961 RMK  LTG DSNT ALQDS! MADISHF
CMI,2017-02-07 06:00,50.00,48.90,95.98,160.00,11.00,0.00,29.61,M,1.50,M,OVC,M,M,M,200.00,M,M,M,VCTS BR,KCMI 070600Z AUTO 16011KT 1 1/2SM R32R/4000VP6000FT VCTS BR OVC002 10/09 A2961 RMK AO2 LTG DSNT ALQDS RAE0558 P0000 T01000094
CMI,2017-02-07 06:05,M,M,M,160.00,10.00,M,29.61,M,1.00,M,OVC,M,M,M,200.00,M,M,M,BR,KCMI 070605Z AUTO 16010KT 1SM BR OVC002 A2961 RMK  LTG DSNT ALQDS! MADISHF
CMI,2017-02-07 06:10,M,M,M,160.00,9.00,M,29.61,M,0.75,M,OVC,M,M,M,200.00,M,M,M,BR,KCMI 070610Z AUTO 16009KT 1SM BR OVC002 A2961 RMK  LTG DSNT N-SE! MADISHF
CMI,2017-02-07 06:12,50.00,48.90,95.98,160.00,8.00,0.00,29.61,M,0.75,M,OVC,M,M,M,200.00,M,M,M,VCTS BR,KCMI 070612Z AUTO 16008KT 3/4SM R32R/2800V4500FT VCTS BR OVC002 10/09 A2961 RMK AO2 LTG DSNT N-SE RAE0558 P0000 T01000094
CMI,2017-02-07 06:15,M,M,M,170.00,9.00,M,29.61,M,1.00,M,OVC,M,M,M,200.00,M,M,M,BR,KCMI 070615Z AUTO 17009KT 1SM BR OVC002 A2961 RMK  LTG DSNT N-SE! MADISHF
CMI,2017-02-07 06:16,50.00,48.90,95.98,170.00,10.00,0.00,29.61,M,1.25,M,OVC,M,M,M,200.00,M,M,M,BR,KCMI 070616Z AUTO 17010KT 1 1/4SM R32R/2800VP6000FT BR OVC002 10/09 A2961 RMK AO2 LTG DSNT N-SE RAE0558 P0000 T01000094
CMI,2017-02-07 06:20,M,M,M,170.00,12.00,M,29.60,M,2.00,M,OVC,M,M,M,200.00,M,M,M,BR,KCMI 070620Z AUTO 17012KT 2SM BR OVC002 A2960 RMK  LTG DSNT N-SE! MADISHF
CMI,2017-02-07 06:25,M,M,M,170.00,11.00,M,29.60,M,2.00,M,OVC,M,M,M,200.00,M,M,M,BR,KCMI 070625Z AUTO 17011KT 2SM BR OVC002 A2960 RMK  LTG DSNT N-SE! MADISHF
CMI,2017-02-07 06:30,M,M,M,160.00,13.00,M,29.59,M,1.00,M,OVC,M,M,M,200.00,M,M,M,BR,KCMI 070630Z AUTO 16013KT 1SM BR OVC002 A2959 RMK  LTG DSNT N-SE! MADISHF
CMI,2017-02-07 06:35,M,M,M,160.00,11.00,M,29.59,M,0.50,M,OVC,M,M,M,200.00,M,M,M,FG,KCMI 070635Z AUTO 16011KT 1/2SM FG OVC002 A2959 RMK  LTG DSNT NE AND E! MADISHF
CMI,2017-02-07 06:37,51.10,50.00,96.00,160.00,11.00,0.00,29.58,M,0.50,M,VV ,M,M,M,200.00,M,M,M,FG,KCMI 070637Z AUTO 16011KT 1/2SM R32R/3500V4500FT FG VV002 11/10 A2958 RMK AO2 LTG DSNT NE AND E RAE0558 P0000 T01060100
CMI,2017-02-07 06:40,M,M,M,160.00,11.00,M,29.58,M,0.50,M,VV ,M,M,M,200.00,M,M,M,FG,KCMI 070640Z AUTO 16011KT 1/2SM FG VV002 A2958 RMK  LTG DSNT NE AND E! MADISHF
CMI,2017-02-07 06:45,M,M,M,160.00,11.00,M,29.58,M,0.50,M,VV ,M,M,M,200.00,M,M,M,FG,KCMI 070645Z AUTO 16011KT 1/2SM FG VV002 A2958 RMK  LTG DSNT NE AND E! MADISHF
CMI,2017-02-07 06:50,M,M,M,160.00,10.00,M,29.58,M,0.25,M,VV ,M,M,M,200.00,M,M,M,FG,KCMI 070650Z AUTO 16010KT 1/4SM FG VV002 A2958 RMK  LTG DSNT NE AND E! MADISHF
CMI,2017-02-07 06:53,51.10,50.00,96.00,160.00,11.00,0.00,29.57,1001.60,0.25,M,VV ,M,M,M,200.00,M,M,M,VCTS FG,KCMI 070653Z AUTO 16011KT 1/4SM R32R/2000V3000FT VCTS FG VV002 11/10 A2957 RMK AO2 LTG DSNT SW RAE0558 SLP016 P0000 T01060100
CMI,2017-02-07 06:55,M,M,M,160.00,10.00,M,29.57,M,0.25,M,VV ,M,M,M,200.00,M,M,M,FG,KCMI 070655Z AUTO 16010KT 1/4SM FG VV002 A2957 RMK  LTG DSNT SW! MADISHF
CMI,2017-02-07 07:00,M,M,M,160.00,11.00,M,29.57,M,0.25,M,VV ,M,M,M,200.00,M,M,M,FG,KCMI 070700Z AUTO 16011KT 1/4SM FG VV002 A2957 RMK  LTG DSNT SW AND W! MADISHF
CMI,2017-02-07 07:05,M,M,M,160.00,10.00,M,29.56,M,0.25,M,VV ,M,M,M,200.00,M,M,M,FG,KCMI 070705Z AUTO 16010KT 1/4SM FG VV002 A2956 RMK  LTG DSNT SW AND W! MADISHF
CMI,2017-02-07 07:06,51.10,50.00,96.00,160.00,10.00,0.00,29.56,M,0.25,M,VV ,M,M,M,200.00,M,M,M,VCTS FG,KCMI 070706Z AUTO 16010KT 1/4SM R32R/1800V2000FT VCTS FG VV002 11/10 A2956 RMK AO2 LTG DSNT SW AND W T01060100
CMI,2017-02-07 07:10,M,M,M,170.00,11.00,M,29.56,M,0.25,M,VV ,M,M,M,200.00,M,M,M,FG,KCMI 070710Z AUTO 17011KT 1/4SM FG VV002 A2956 RMK  LTG DSNT SW AND W! MADISHF
CMI,2017-02-07 07:14,51.10,50.00,96.00,180.00,15.00,0.04,29.56,M,0.25,M,VV ,M,M,M,200.00,M,M,M,-RA FG,KCMI 070714Z AUTO 18015KT 1/4SM R32R/2000FT -RA FG VV002 11/10 A2956 RMK AO2 LTG DSNT SE AND SW RAB14 P0004 T01060100
CMI,2017-02-07 07:15,M,M,M,170.00,16.00,0.06,29.56,M,0.25,M,VV ,M,M,M,200.00,M,M,M,-RA FG,KCMI 070715Z AUTO 17016KT 1/4SM -RA FG VV002 A2956 RMK P0006  LTG DSNT SE AND SW! MADISHF
CMI,2017-02-07 07:19,53.10,51.10,92.89,170.00,12.00,0.06,29.56,M,0.50,M,VV ,M,M,M,200.00,M,M,M,-RA FG,KCMI 070719Z AUTO 17012KT 1/2SM R32R/2000V4000FT -RA FG VV002 12/11 A2956 RMK AO2 LTG DSNT SE-W RAB14 P0006 T01170106
CMI,2017-02-07 07:20,M,M,M,170.00,11.00,0.06,29.56,M,0.50,M,VV ,M,M,M,200.00,M,M,M,-RA FG,KCMI 070720Z AUTO 17011KT 1/2SM -RA FG VV002 A2956 RMK P0006  LTG DSNT SE-W! MADISHF
CMI,2017-02-07 07:25,M,M,M,180.00,9.00,0.06,29.56,M,0.75,M,VV ,M,M,M,200.00,M,M,M,-RA BR,KCMI 070725Z AUTO 18009KT 1SM -RA BR VV002 A2956 RMK P0006  LTG DSNT SE-W! MADISHF
CMI,2017-02-07 07:30,M,M,M,180.00,11.00,0.06,29.55,M,0.50,M,VV ,M,M,M,200.00,M,M,M,-RA FG,KCMI 070730Z AUTO 18011KT 1/2SM -RA FG VV002 A2955 RMK P0006  LTG DSNT SE-W! MADISHF
CMI,2017-02-07 07:35,M,M,M,180.00,13.00,0.07,29.56,M,0.75,M,VV ,M,M,M,200.00,M,M,M,-RA BR,KCMI 070735Z AUTO 18013KT 1SM -RA BR VV002 A2956 RMK P0007  LTG DSNT SE-W! MADISHF
CMI,2017-02-07 07:36,53.10,52.00,96.03,180.00,13.00,0.07,29.56,M,1.00,M,OVC,M,M,M,300.00,M,M,M,VCTS -RA BR,KCMI 070736Z AUTO 18013KT 1SM R32R/2200VP6000FT VCTS -RA BR OVC003 12/11 A2956 RMK AO2 LTG DSNT SE-W RAB14 P0007 T01170111
CMI,2017-02-07 07:40,53.10,52.00,96.03,190.00,13.00,0.07,29.56,M,1.50,M,SCT,OVC,M,M,300.00,1100.00,M,M,VCTS -RA BR,KCMI 070740Z AUTO 19013KT 1 1/2SM R32R/3000VP6000FT VCTS -RA BR SCT003 OVC011 12/11 A2956 RMK AO2 LTG DSNT ALQDS RAB14 P0007 T01170111
CMI,2017-02-07 07:44,53.10,52.00,96.03,190.00,14.00,0.09,29.56,M,1.50,M,SCT,BKN,OVC,M,300.00,1500.00,2000.00,M,-TSRA BR,KCMI 070744Z AUTO 19014KT 1 1/2SM -TSRA BR SCT003 BKN015 OVC020 12/11 A2956 RMK AO2 LTG DSNT ALQDS RAB14 TSB43 P0009 T01170111
CMI,2017-02-07 07:45,M,M,M,190.00,15.00,0.09,29.56,M,1.50,M,SCT,BKN,OVC,M,300.00,1500.00,2500.00,M,-RA BR,KCMI 070745Z AUTO 19015KT 1 1/2SM -RA BR SCT003 BKN015 OVC025 A2956 RMK P0009  LTG DSNT ALQDS! MADISHF
CMI,2017-02-07 07:50,M,M,M,190.00,13.00,0.11,29.55,M,1.75,M,SCT,BKN,OVC,M,300.00,1800.00,7000.00,M,+RA BR,KCMI 070750Z AUTO 19013KT 2SM +RA BR SCT003 BKN018 OVC070 A2955 RMK P0011  LTG DSNT W AND NW! MADISHF
CMI,2017-02-07 07:53,55.00,54.00,96.42,190.00,13.00,0.11,29.54,1000.60,2.00,M,FEW,BKN,OVC,M,400.00,2200.00,7000.00,M,TSRA BR,KCMI 070753Z AUTO 19013KT 2SM R32R/4000VP6000FT TSRA BR FEW004 BKN022 OVC070 13/12 A2954 RMK AO2 LTG DSNT ALQDS RAB14 TSB43 SLP006 P0011 T01280122
CMI,2017-02-07 07:55,M,M,M,190.00,18.00,0.01,29.54,M,2.50,M,FEW,BKN,OVC,M,400.00,2400.00,7000.00,M,-RA BR,KCMI 070755Z AUTO 19018KT 2 1/2SM -RA BR FEW004 BKN024 OVC070 A2954 RMK P0001  LTG DSNT ALQDS! MADISHF
CMI,2017-02-07 08:00,M,M,M,190.00,17.00,0.01,29.53,M,5.00,M,FEW,BKN,OVC,M,400.00,1600.00,4800.00,M,-RA BR,KCMI 070800Z AUTO 19017KT 5SM -RA BR FEW004 BKN016 OVC048 A2953 RMK P0001  LTG DSNT ALQDS! MADISHF
CMI,2017-02-07 08:02,57.00,55.90,96.10,190.00,19.00,0.01,29.53,M,6.00,M,BKN,BKN,OVC,M,900.00,2000.00,4800.00,M,-TSRA BR,KCMI 070802Z AUTO 19019KT 6SM -TSRA BR BKN009 BKN020 OVC048 14/13 A2953 RMK AO2 LTG DSNT ALQDS PRESFR P0001 T01390133
CMI,2017-02-07 08:05,M,M,M,M,M,0.01,29.53,M,7.00,M,BKN,BKN,OVC,M,900.00,1699.00,4800.00,M,-RA,KCMI 070805Z AUTO /////KT 7SM -RA BKN009 BKN016 OVC048 A2953 RMK P0001  LTG DSNT ALQDS! MADISHF
CMI,2017-02-07 08:10,M,M,M,190.00,16.00,0.01,29.53,M,7.00,M,BKN,BKN,OVC,M,900.00,1999.00,4800.00,M,M,KCMI 070810Z AUTO 19016KT 7SM BKN009 BKN019 OVC048 A2953 RMK P0001  LTG DSNT NW-E! MADISHF
CMI,2017-02-07 08:11,57.00,55.90,96.10,190.00,15.00,0.01,29.53,M,7.00,25.00,BKN,BKN,OVC,M,900.00,1800.00,4900.00,M,VCTS,KCMI 070811Z AUTO 19015G25KT 7SM VCTS BKN009 BKN018 OVC049 14/13 A2953 RMK AO2 LTG DSNT NW-E RAE07 TSE05 P0001 T01390133
CMI,2017-02-07 08:15,M,M,M,M,M,0.01,29.52,M,6.00,M,BKN,BKN,OVC,M,900.00,1699.00,3500.00,M,BR,KCMI 070815Z AUTO /////KT 6SM BR BKN009 BKN016 OVC035 A2952 RMK P0001  LTG DSNT NW-E! MADISHF
CMI,2017-02-07 08:20,M,M,M,190.00,19.00,0.01,29.52,M,5.00,M,BKN,BKN,OVC,M,900.00,2200.00,3800.00,M,-RA BR,KCMI 070820Z AUTO 19019KT 5SM -RA BR BKN009 BKN022 OVC038 A2952 RMK P0001 CIG 7V15  MADISHF
CMI,2017-02-07 08:25,M,M,M,190.00,19.00,0.01,29.51,M,5.00,M,BKN,OVC,M,M,1100.00,1400.00,M,M,-RA BR,KCMI 070825Z AUTO 19019KT 5SM -RA BR BKN011 OVC014 A2951 RMK P0001 CIG 7V12  MADISHF
CMI,2017-02-07 08:27,57.00,55.90,96.10,190.00,19.00,0.01,29.51,M,5.00,M,OVC,M,M,M,1100.00,M,M,M,-RA BR,KCMI 070827Z AUTO 19019KT 5SM -RA BR OVC011 14/13 A2951 RMK AO2 PK WND 19026/0817 LTG DSNT NW-E RAE07B19 TSE05 CIG 007V015 P0001 T01390133
CMI,2017-02-07 08:30,M,M,M,M,M,0.01,29.51,M,6.00,M,BKN,OVC,M,M,1100.00,1500.00,M,M,-RA BR,KCMI 070830Z AUTO /////KT 6SM -RA BR BKN011 OVC015 A2951 RMK P0001 CIG 7V13  MADISHF
CMI,2017-02-07 08:35,M,M,M,190.00,18.00,0.01,29.51,M,5.00,M,BKN,OVC,M,M,999.00,2200.00,M,M,BR,KCMI 070835Z AUTO 19018KT 5SM BR BKN009 OVC022 A2951 RMK P0001 CIG 7V16  MADISHF
CMI,2017-02-07 08:40,M,M,M,190.00,17.00,0.01,29.51,M,5.00,M,BKN,OVC,M,M,999.00,2200.00,M,M,BR,KCMI 070840Z AUTO 19017KT 5SM BR BKN009 OVC022 A2951 RMK P0001 CIG 7V16  MADISHF
CMI,2017-02-07 08:45,M,M,M,180.00,14.00,0.06,29.51,M,3.00,M,BKN,OVC,M,M,999.00,2200.00,M,M,-RA BR,KCMI 070845Z AUTO 18014KT 3SM -RA BR BKN009 OVC022 A2951 RMK P0006 CIG 6V16  MADISHF
CMI,2017-02-07 08:49,55.40,55.40,100.00,180.00,10.00,0.06,29.51,M,2.50,M,SCT,BKN,OVC,M,800.00,1200.00,2000.00,M,RA BR,KCMI 070849Z AUTO 18010KT 2 1/2SM R32R/5500VP6000FT RA BR SCT008 BKN012 OVC020 13/13 A2951 RMK AO2 PK WND 18027/0829 LTG DSNT NE RAE07B19 TSE05 P0006
CMI,2017-02-07 08:50,M,M,M,180.00,11.00,0.06,29.51,M,2.50,M,FEW,BKN,OVC,M,600.00,999.00,1800.00,M,-RA BR,KCMI 070850Z AUTO 18011KT 2 1/2SM -RA BR FEW006 BKN009 OVC018 A2951 RMK P0006 CIG 8V14  MADISHF
CMI,2017-02-07 08:53,55.90,55.00,96.78,180.00,14.00,0.06,29.51,999.30,2.50,M,BKN,BKN,OVC,M,800.00,1800.00,2700.00,M,-RA BR,KCMI 070853Z AUTO 18014KT 2 1/2SM R32R/5500VP6000FT -RA BR BKN008 BKN018 OVC027 13/13 A2951 RMK AO2 PK WND 18027/0829 LTG DSNT NE AND S RAE07B19 TSE05 CIG 006V014 SLP993 P0006 60017 T01330128 56036
CMI,2017-02-07 08:55,M,M,M,180.00,12.00,M,29.51,M,4.00,M,SCT,BKN,OVC,M,800.00,1200.00,2300.00,M,-RA BR,KCMI 070855Z AUTO 18012KT 4SM -RA BR SCT008 BKN012 OVC023 A2951 RMK  LTG DSNT NE AND S! MADISHF
CMI,2017-02-07 09:00,55.90,54.00,93.32,190.00,10.00,0.00,29.51,M,4.00,M,BKN,BKN,OVC,M,1000.00,1500.00,2500.00,M,BR,KCMI 070900Z AUTO 19010KT 4SM BR BKN010 BKN015 OVC025 13/12 A2951 RMK AO2 LTG DSNT NE AND S RAE0857 CIG 006V012 P0000 T01330122
CMI,2017-02-07 09:05,M,M,M,190.00,10.00,M,29.51,M,4.00,M,BKN,BKN,OVC,M,800.00,1400.00,1800.00,M,BR,KCMI 070905Z AUTO 19010KT 4SM BR BKN008 BKN014 OVC018 A2951 RMK CIG 6V10  MADISHF
CMI,2017-02-07 09:17,57.00,55.00,93.01,190.00,18.00,0.00,29.50,M,5.00,23.00,FEW,BKN,OVC,M,900.00,1400.00,1900.00,M,BR,KCMI 070917Z AUTO 19018G23KT 5SM BR FEW009 BKN014 OVC019 14/13 A2950 RMK AO2 LTG DSNT N-E RAE0857 P0000 T01390128
CMI,2017-02-07 09:20,M,M,M,190.00,17.00,M,29.50,M,6.00,M,BKN,BKN,OVC,M,1200.00,1900.00,3600.00,M,BR,KCMI 070920Z AUTO 19017KT 6SM BR BKN012 BKN019 OVC036 A2950 RMK  LTG DSNT NE! MADISHF
CMI,2017-02-07 09:25,M,M,M,190.00,16.00,M,29.50,M,6.00,M,FEW,BKN,OVC,M,900.00,1500.00,1900.00,M,BR,KCMI 070925Z AUTO 19016KT 6SM BR FEW009 BKN015 OVC019 A2950 RMK  LTG DSNT NE! MADISHF
CMI,2017-02-07 09:29,57.00,55.00,93.01,190.00,15.00,0.00,29.49,M,6.00,M,FEW,BKN,OVC,M,900.00,1500.00,1900.00,M,BR,KCMI 070929Z AUTO 19015KT 6SM BR FEW009 BKN015 OVC019 14/13 A2949 RMK AO2 RAE0857 P0000 T01390128
CMI,2017-02-07 09:30,M,M,M,190.00,16.00,M,29.49,M,6.00,M,FEW,BKN,OVC,M,900.00,1500.00,2100.00,M,BR,KCMI 070930Z AUTO 19016KT 6SM BR FEW009 BKN015 OVC021 A2949 RMK MADISHF
CMI,2017-02-07 09:40,M,M,M,190.00,15.00,M,29.49,M,6.00,M,BKN,OVC,M,M,1800.00,3800.00,M,M,BR,KCMI 070940Z AUTO 19015KT 6SM BR BKN018 OVC038 A2949 RMK MADISHF
CMI,2017-02-07 09:45,M,M,M,190.00,16.00,M,29.49,M,6.00,M,OVC,M,M,M,1800.00,M,M,M,BR,KCMI 070945Z AUTO 19016KT 6SM BR OVC018 A2949 RMK MADISHF
CMI,2017-02-07 09:50,M,M,M,180.00,14.00,M,29.48,M,6.00,M,OVC,M,M,M,1800.00,M,M,M,BR,KCMI 070950Z AUTO 18014KT 6SM BR OVC018 A2948 RMK MADISHF
CMI,2017-02-07 09:53,57.00,55.00,93.01,190.00,14.00,0.00,29.48,998.20,6.00,M,OVC,M,M,M,1900.00,M,M,M,BR,KCMI 070953Z AUTO 19014KT 6SM BR OVC019 14/13 A2948 RMK AO2 RAE0857 SLP982 P0000 T01390128
CMI,2017-02-07 09:55,M,M,M,180.00,14.00,M,29.48,M,6.00,M,OVC,M,M,M,1900.00,M,M,M,BR,KCMI 070955Z AUTO 18014KT 6SM BR OVC019 A2948 RMK MADISHF
CMI,2017-02-07 10:00,M,M,M,190.00,15.00,M,29.48,M,6.00,M,OVC,M,M,M,1900.00,M,M,M,BR,KCMI 071000Z AUTO 19015KT 6SM BR OVC019 A2948 RMK MADISHF
CMI,2017-02-07 10:05,M,M,M,180.00,13.00,M,29.47,M,6.00,M,OVC,M,M,M,1900.00,M,M,M,BR,KCMI 071005Z AUTO 18013KT 6SM BR OVC019 A2947 RMK MADISHF
CMI,2017-02-07 10:10,M,M,M,180.00,14.00,M,29.47,M,6.00,M,OVC,M,M,M,1900.00,M,M,M,BR,KCMI 071010Z AUTO 18014KT 6SM BR OVC019 A2947 RMK MADISHF
CMI,2017-02-07 10:15,M,M,M,180.00,13.00,M,29.47,M,6.00,M,BKN,M,M,M,1900.00,M,M,M,BR,KCMI 071015Z AUTO 18013KT 6SM BR BKN019 A2947 RMK MADISHF
CMI,2017-02-07 10:20,M,M,M,180.00,14.00,M,29.47,M,6.00,M,BKN,M,M,M,1900.00,M,M,M,BR,KCMI 071020Z AUTO 18014KT 6SM BR BKN019 A2947 RMK MADISHF
CMI,2017-02-07 10:25,M,M,M,180.00,14.00,M,29.47,M,6.00,M,BKN,M,M,M,1900.00,M,M,M,BR,KCMI 071025Z AUTO 18014KT 6SM BR BKN019 A2947 RMK MADISHF
CMI,2017-02-07 10:30,M,M,M,180.00,15.00,M,29.47,M,6.00,M,BKN,M,M,M,1900.00,M,M,M,BR,KCMI 071030Z AUTO 18015KT 6SM BR BKN019 A2947 RMK MADISHF
CMI,2017-02-07 10:35,M,M,M,180.00,14.00,M,29.47,M,7.00,M,BKN,M,M,M,1900.00,M,M,M,M,KCMI 071035Z AUTO 18014KT 7SM BKN019 A2947 RMK MADISHF
CMI,2017-02-07 10:40,M,M,M,180.00,15.00,M,29.47,M,7.00,M,BKN,M,M,M,1900.00,M,M,M,M,KCMI 071040Z AUTO 18015KT 7SM BKN019 A2947 RMK MADISHF
CMI,2017-02-07 10:45,M,M,M,180.00,15.00,M,29.46,M,7.00,M,BKN,M,M,M,1900.00,M,M,M,M,KCMI 071045Z AUTO 18015KT 7SM BKN019 A2946 RMK MADISHF
CMI,2017-02-07 10:50,M,M,M,180.00,14.00,M,29.47,M,8.00,M,OVC,M,M,M,1900.00,M,M,M,M,KCMI 071050Z AUTO 18014KT 8SM OVC019 A2947 RMK MADISHF
CMI,2017-02-07 10:53,57.00,54.00,89.68,180.00,15.00,0.00,29.46,997.70,8.00,M,OVC,M,M,M,1900.00,M,M,M,M,KCMI 071053Z AUTO 18015KT 8SM OVC019 14/12 A2946 RMK AO2 SLP977 T01390122
CMI,2017-02-07 10:55,M,M,M,180.00,17.00,M,29.46,M,8.00,M,OVC,M,M,M,1900.00,M,M,M,M,KCMI 071055Z AUTO 18017KT 8SM OVC019 A2946 RMK  LTG DSNT N AND W! MADISHF
CMI,2017-02-07 11:00,M,M,M,180.00,14.00,M,29.46,M,8.00,M,OVC,M,M,M,1900.00,M,M,M,M,KCMI 071100Z AUTO 18014KT 8SM OVC019 A2946 RMK  LTG DSNT SW-N! MADISHF
CMI,2017-02-07 11:05,M,M,M,180.00,14.00,M,29.45,M,8.00,M,OVC,M,M,M,1900.00,M,M,M,M,KCMI 071105Z AUTO 18014KT 8SM OVC019 A2945 RMK  LTG DSNT ALQDS! MADISHF
CMI,2017-02-07 11:10,M,M,M,180.00,16.00,M,29.45,M,8.00,M,BKN,BKN,OVC,M,1900.00,2400.00,3700.00,M,M,KCMI 071110Z AUTO 18016KT 8SM BKN019 BKN024 OVC037 A2945 RMK  LTG DSNT ALQDS! MADISHF
CMI,2017-02-07 11:15,M,M,M,180.00,16.00,M,29.46,M,8.00,M,BKN,OVC,M,M,1900.00,3700.00,M,M,M,KCMI 071115Z AUTO 18016KT 8SM BKN019 OVC037 A2946 RMK  LTG DSNT S-W! MADISHF
CMI,2017-02-07 11:20,M,M,M,180.00,14.00,M,29.46,M,8.00,M,BKN,OVC,M,M,1900.00,3700.00,M,M,M,KCMI 071120Z AUTO 18014KT 8SM BKN019 OVC037 A2946 RMK  LTG DSNT SE AND S! MADISHF
CMI,2017-02-07 11:25,M,M,M,180.00,13.00,M,29.45,M,8.00,M,BKN,OVC,M,M,2100.00,3700.00,M,M,M,KCMI 071125Z AUTO 18013KT 8SM BKN021 OVC037 A2945 RMK  LTG DSNT NE-S! MADISHF
CMI,2017-02-07 11:30,M,M,M,180.00,17.00,M,29.45,M,8.00,M,BKN,BKN,OVC,M,1900.00,2400.00,3700.00,M,M,KCMI 071130Z AUTO 18017KT 8SM BKN019 BKN024 OVC037 A2945 RMK  LTG DSNT NE-S! MADISHF
CMI,2017-02-07 11:32,57.90,55.00,90.04,180.00,16.00,0.00,29.45,M,8.00,M,BKN,OVC,M,M,1900.00,3700.00,M,M,VCTS,KCMI 071132Z AUTO 18016KT 8SM VCTS BKN019 OVC037 14/13 A2945 RMK AO2 LTG DSNT NE-S T01440128
CMI,2017-02-07 11:35,M,M,M,180.00,15.00,M,29.45,M,8.00,20.00,BKN,OVC,M,M,1900.00,3700.00,M,M,M,KCMI 071135Z AUTO 18015G20KT 8SM BKN019 OVC037 A2945 RMK  LTG DSNT ALQDS! MADISHF
CMI,2017-02-07 11:40,M,M,M,180.00,16.00,M,29.45,M,8.00,M,OVC,M,M,M,1900.00,M,M,M,M,KCMI 071140Z AUTO 18016KT 8SM OVC019 A2945 RMK  LTG DSNT ALQDS! MADISHF
CMI,2017-02-07 11:45,M,M,M,180.00,15.00,M,29.44,M,8.00,M,OVC,M,M,M,1900.00,M,M,M,M,KCMI 071145Z AUTO 18015KT 8SM OVC019 A2944 RMK  LTG DSNT ALQDS! MADISHF
CMI,2017-02-07 11:50,M,M,M,170.00,20.00,M,29.44,M,8.00,M,BKN,OVC,M,M,1900.00,2700.00,M,M,M,KCMI 071150Z AUTO 17020KT 8SM BKN019 OVC027 A2944 RMK  LTG DSNT N-SE! MADISHF
CMI,2017-02-07 11:51,57.20,53.60,87.74,180.00,21.00,0.00,29.44,M,8.00,25.00,BKN,OVC,M,M,1700.00,2700.00,M,M,M,KCMI 071151Z 18021G25KT 8SM BKN017 OVC027 14/12 A2944 RMK AO2 LTG DSNT N-SE
CMI,2017-02-07 11:53,57.90,55.00,90.04,180.00,20.00,0.00,29.44,996.90,8.00,25.00,BKN,BKN,OVC,M,1700.00,2700.00,3100.00,M,M,KCMI 071153Z 18020G25KT 8SM BKN017 BKN027 OVC031 14/13 A2944 RMK AO2 LTG DSNT N-SE SLP969 60017 70018 T01440128 10144 20100 56013
CMI,2017-02-07 11:55,M,M,M,180.00,16.00,M,29.44,M,9.00,M,BKN,BKN,OVC,M,1699.00,2700.00,3100.00,M,M,KCMI 071155Z AUTO 18016KT 9SM BKN016 BKN027 OVC031 A2944 RMK  LTG DSNT N-SE! MADISHF
CMI,2017-02-07 12:00,M,M,M,180.00,15.00,M,29.44,M,9.00,M,SCT,BKN,OVC,M,1699.00,2300.00,3100.00,M,M,KCMI 071200Z AUTO 18015KT 9SM SCT016 BKN023 OVC031 A2944 RMK  LTG DSNT N-SE! MADISHF
CMI,2017-02-07 12:05,M,M,M,190.00,14.00,M,29.44,M,8.00,M,FEW,BKN,OVC,M,1500.00,1999.00,2600.00,M,M,KCMI 071205Z AUTO 19014KT 8SM FEW015 BKN019 OVC026 A2944 RMK  LTG DSNT N-E! MADISHF
CMI,2017-02-07 12:10,M,M,M,190.00,17.00,M,29.44,M,8.00,M,FEW,BKN,OVC,M,1600.00,1999.00,2600.00,M,M,KCMI 071210Z AUTO 19017KT 8SM FEW016 BKN019 OVC026 A2944 RMK  LTG DSNT NE AND E! MADISHF
CMI,2017-02-07 12:15,M,M,M,190.00,15.00,M,29.44,M,9.00,M,BKN,BKN,OVC,M,1999.00,2600.00,3100.00,M,M,KCMI 071215Z AUTO 19015KT 9SM BKN019 BKN026 OVC031 A2944 RMK  LTG DSNT E! MADISHF
CMI,2017-02-07 12:20,M,M,M,190.00,17.00,M,29.43,M,9.00,M,BKN,BKN,OVC,M,1999.00,2900.00,3700.00,M,M,KCMI 071220Z AUTO 19017KT 9SM BKN019 BKN029 OVC037 A2943 RMK  LTG DSNT E! MADISHF
CMI,2017-02-07 12:25,M,M,M,190.00,17.00,M,29.43,M,8.00,M,BKN,BKN,OVC,M,1999.00,2800.00,3700.00,M,M,KCMI 071225Z AUTO 19017KT 8SM BKN019 BKN028 OVC037 A2943 RMK  LTG DSNT E! MADISHF
CMI,2017-02-07 12:30,M,M,M,190.00,15.00,M,29.43,M,8.00,M,SCT,BKN,OVC,M,1999.00,2800.00,3500.00,M,M,KCMI 071230Z AUTO 19015KT 8SM SCT019 BKN028 OVC035 A2943 RMK  LTG DSNT NE AND E! MADISHF
CMI,2017-02-07 12:35,M,M,M,190.00,15.00,M,29.43,M,8.00,M,FEW,BKN,OVC,M,1999.00,2800.00,3500.00,M,M,KCMI 071235Z AUTO 19015KT 8SM FEW019 BKN028 OVC035 A2943 RMK  LTG DSNT ALQDS! MADISHF
CMI,2017-02-07 12:40,M,M,M,190.00,16.00,M,29.43,M,9.00,M,FEW,BKN,BKN,M,1999.00,2700.00,3600.00,M,M,KCMI 071240Z AUTO 19016KT 9SM FEW019 BKN027 BKN036 A2943 RMK  LTG DSNT ALQDS! MADISHF
CMI,2017-02-07 12:45,M,M,M,190.00,16.00,M,29.42,M,9.00,M,FEW,BKN,OVC,M,2500.00,3100.00,7000.00,M,M,KCMI 071245Z AUTO 19016KT 9SM FEW025 BKN031 OVC070 A2942 RMK  LTG DSNT ALQDS! MADISHF
CMI,2017-02-07 12:50,M,M,M,190.00,16.00,M,29.42,M,8.00,M,FEW,BKN,OVC,M,2700.00,3500.00,7000.00,M,-RA,KCMI 071250Z AUTO 19016KT 8SM -RA FEW027 BKN035 OVC070 A2942 RMK  LTG DSNT E! MADISHF
CMI,2017-02-07 12:53,57.90,55.00,90.04,200.00,16.00,0.01,29.42,996.30,7.00,M,SCT,BKN,OVC,M,2500.00,3500.00,7000.00,M,VCTS -RA,KCMI 071253Z 20016KT 7SM VCTS -RA SCT025 BKN035 OVC070 14/13 A2942 RMK AO2 LTG DSNT E RAB47 SLP963 P0001 T01440128
CMI,2017-02-07 12:55,M,M,M,200.00,16.00,M,29.42,M,7.00,M,SCT,BKN,OVC,M,2500.00,3500.00,7000.00,M,-RA,KCMI 071255Z AUTO 20016KT 7SM -RA SCT025 BKN035 OVC070 A2942 RMK  LTG DSNT N AND E! MADISHF
CMI,2017-02-07 13:00,M,M,M,190.00,16.00,M,29.42,M,8.00,M,FEW,BKN,BKN,M,2300.00,3500.00,4400.00,M,-RA,KCMI 071300Z AUTO 19016KT 8SM -RA FEW023 BKN035 BKN044 A2942 RMK  LTG DSNT N AND E! MADISHF
CMI,2017-02-07 13:02,57.90,54.00,86.82,190.00,15.00,0.00,29.42,M,9.00,M,FEW,BKN,BKN,M,2100.00,3500.00,4400.00,M,-RA,KCMI 071302Z 19015KT 9SM -RA FEW021 BKN035 BKN044 14/12 A2942 RMK AO2 LTG DSNT N AND E P0000 T01440122
CMI,2017-02-07 13:05,M,M,M,190.00,15.00,M,29.42,M,10.00,M,FEW,BKN,BKN,M,2100.00,3500.00,5500.00,M,-RA,KCMI 071305Z AUTO 19015KT 10SM -RA FEW021 BKN035 BKN055 A2942 RMK  LTG DSNT N AND E! MADISHF
CMI,2017-02-07 13:10,M,M,M,190.00,17.00,M,29.42,M,9.00,M,FEW,BKN,BKN,M,2100.00,3500.00,7000.00,M,-RA,KCMI 071310Z AUTO 19017KT 9SM -RA FEW021 BKN035 BKN070 A2942 RMK  LTG DSNT N-E! MADISHF
CMI,2017-02-07 13:15,M,M,M,190.00,15.00,M,29.42,M,9.00,M,FEW,BKN,M,M,1999.00,3500.00,M,M,M,KCMI 071315Z AUTO 19015KT 9SM FEW019 BKN035 A2942 RMK  LTG DSNT N-E! MADISHF
CMI,2017-02-07 13:20,M,M,M,190.00,14.00,M,29.41,M,8.00,M,FEW,BKN,M,M,1999.00,3900.00,M,M,M,KCMI 071320Z AUTO 19014KT 8SM FEW019 BKN039 A2941 RMK  LTG DSNT N-SE! MADISHF
CMI,2017-02-07 13:25,M,M,M,190.00,15.00,M,29.42,M,8.00,M,BKN,M,M,M,3900.00,M,M,M,M,KCMI 071325Z AUTO 19015KT 8SM BKN039 A2942 RMK  LTG DSNT N-SE! MADISHF
CMI,2017-02-07 13:30,M,M,M,190.00,13.00,M,29.42,M,8.00,M,BKN,M,M,M,3900.00,M,M,M,M,KCMI 071330Z AUTO 19013KT 8SM BKN039 A2942 RMK  LTG DSNT N-SE! MADISHF
CMI,2017-02-07 13:35,M,M,M,180.00,13.00,M,29.42,M,7.00,M,BKN,M,M,M,3900.00,M,M,M,M,KCMI 071335Z AUTO 18013KT 7SM BKN039 A2942 RMK  LTG DSNT N AND E! MADISHF
CMI,2017-02-07 13:40,M,M,M,180.00,14.00,M,29.42,M,7.00,M,BKN,M,M,M,3900.00,M,M,M,M,KCMI 071340Z AUTO 18014KT 7SM BKN039 A2942 RMK  LTG DSNT N! MADISHF
CMI,2017-02-07 13:45,M,M,M,180.00,13.00,M,29.41,M,7.00,M,BKN,M,M,M,3900.00,M,M,M,M,KCMI 071345Z AUTO 18013KT 7SM BKN039 A2941 RMK MADISHF
CMI,2017-02-07 13:50,M,M,M,180.00,14.00,M,29.41,M,7.00,M,BKN,M,M,M,3900.00,M,M,M,M,KCMI 071350Z AUTO 18014KT 7SM BKN039 A2941 RMK MADISHF
CMI,2017-02-07 13:53,57.00,54.00,89.68,190.00,14.00,0.00,29.41,995.90,7.00,M,SCT,M,M,M,3900.00,M,M,M,M,KCMI 071353Z 19014KT 7SM SCT039 14/12 A2941 RMK AO2 RAE14 SLP959 P0000 T01390122
CMI,2017-02-07 13:55,M,M,M,190.00,13.00,M,29.41,M,7.00,M,SCT,M,M,M,3900.00,M,M,M,M,KCMI 071355Z AUTO 19013KT 7SM SCT039 A2941 RMK MADISHF
CMI,2017-02-07 14:00,M,M,M,190.00,13.00,M,29.41,M,7.00,M,FEW,M,M,M,3900.00,M,M,M,M,KCMI 071400Z AUTO 19013KT 7SM FEW039 A2941 RMK MADISHF
CMI,2017-02-07 14:05,M,M,M,180.00,14.00,M,29.41,M,7.00,M,FEW,M,M,M,3600.00,M,M,M,M,KCMI 071405Z AUTO 18014KT 7SM FEW036 A2941 RMK MADISHF
CMI,2017-02-07 14:10,M,M,M,190.00,13.00,M,29.41,M,8.00,M,FEW,FEW,M,M,3600.00,4400.00,M,M,M,KCMI 071410Z AUTO 19013KT 8SM FEW036 FEW044 A2941 RMK MADISHF
CMI,2017-02-07 14:15,M,M,M,190.00,13.00,M,29.42,M,8.00,M,SCT,M,M,M,3800.00,M,M,M,M,KCMI 071415Z AUTO 19013KT 8SM SCT038 A2942 RMK MADISHF
CMI,2017-02-07 14:20,M,M,M,190.00,13.00,M,29.42,M,8.00,M,SCT,SCT,M,M,3700.00,4400.00,M,M,M,KCMI 071420Z AUTO 19013KT 8SM SCT037 SCT044 A2942 RMK MADISHF
CMI,2017-02-07 14:25,M,M,M,190.00,13.00,M,29.42,M,8.00,M,BKN,M,M,M,3999.00,M,M,M,M,KCMI 071425Z AUTO 19013KT 8SM BKN039 A2942 RMK MADISHF
CMI,2017-02-07 14:30,M,M,M,190.00,13.00,M,29.42,M,8.00,M,BKN,BKN,M,M,3999.00,6000.00,M,M,M,KCMI 071430Z AUTO 19013KT 8SM BKN039 BKN060 A2942 RMK MADISHF
CMI,2017-02-07 14:35,M,M,M,190.00,12.00,M,29.42,M,8.00,M,SCT,BKN,BKN,M,4100.00,5500.00,7000.00,M,M,KCMI 071435Z AUTO 19012KT 8SM SCT041 BKN055 BKN070 A2942 RMK MADISHF
CMI,2017-02-07 14:40,M,M,M,190.00,13.00,M,29.42,M,8.00,M,FEW,SCT,BKN,M,3500.00,4200.00,5500.00,M,M,KCMI 071440Z AUTO 19013KT 8SM FEW035 SCT042 BKN055 A2942 RMK MADISHF
CMI,2017-02-07 14:45,M,M,M,190.00,13.00,M,29.42,M,8.00,M,SCT,BKN,BKN,M,3700.00,4500.00,5500.00,M,M,KCMI 071445Z AUTO 19013KT 8SM SCT037 BKN045 BKN055 A2942 RMK MADISHF
CMI,2017-02-07 14:50,M,M,M,190.00,13.00,M,29.42,M,8.00,M,SCT,BKN,BKN,M,3399.00,4100.00,5000.00,M,M,KCMI 071450Z AUTO 19013KT 8SM SCT033 BKN041 BKN050 A2942 RMK MADISHF
CMI,2017-02-07 14:53,57.90,54.00,86.82,190.00,15.00,0.00,29.42,996.10,9.00,M,BKN,BKN,BKN,M,3600.00,5000.00,7000.00,M,M,KCMI 071453Z 19015KT 9SM BKN036 BKN050 BKN070 14/12 A2942 RMK AO2 SLP961 60001 T01440122 55007
CMI,2017-02-07 14:55,M,M,M,190.00,15.00,M,29.42,M,9.00,M,BKN,BKN,BKN,M,3399.00,4200.00,7000.00,M,M,KCMI 071455Z AUTO 19015KT 9SM BKN033 BKN042 BKN070 A2942 RMK MADISHF
CMI,2017-02-07 15:00,M,M,M,190.00,16.00,M,29.42,M,10.00,M,BKN,BKN,BKN,M,3399.00,5500.00,7000.00,M,M,KCMI 071500Z AUTO 19016KT 10SM BKN033 BKN055 BKN070 A2942 RMK MADISHF
CMI,2017-02-07 15:05,M,M,M,190.00,16.00,M,29.42,M,10.00,M,BKN,BKN,M,M,3600.00,4200.00,M,M,M,KCMI 071505Z AUTO 19016KT 10SM BKN036 BKN042 A2942 RMK MADISHF
CMI,2017-02-07 15:10,M,M,M,200.00,16.00,M,29.42,M,10.00,M,BKN,OVC,M,M,3600.00,4400.00,M,M,M,KCMI 071510Z AUTO 20016KT 10SM BKN036 OVC044 A2942 RMK MADISHF
CMI,2017-02-07 15:15,M,M,M,200.00,16.00,M,29.42,M,10.00,M,BKN,OVC,M,M,3500.00,4300.00,M,M,M,KCMI 071515Z AUTO 20016KT 10SM BKN035 OVC043 A2942 RMK MADISHF
CMI,2017-02-07 15:20,M,M,M,200.00,15.00,M,29.42,M,10.00,M,BKN,BKN,BKN,M,3500.00,4300.00,5500.00,M,M,KCMI 071520Z AUTO 20015KT 10SM BKN035 BKN043 BKN055 A2942 RMK  LTG DSNT NE! MADISHF
CMI,2017-02-07 15:25,M,M,M,200.00,14.00,M,29.41,M,10.00,M,BKN,BKN,M,M,3700.00,5500.00,M,M,M,KCMI 071525Z AUTO 20014KT 10SM BKN037 BKN055 A2941 RMK  LTG DSNT NE! MADISHF
CMI,2017-02-07 15:30,M,M,M,200.00,16.00,M,29.41,M,10.00,M,BKN,BKN,OVC,M,3500.00,4200.00,5500.00,M,M,KCMI 071530Z AUTO 20016KT 10SM BKN035 BKN042 OVC055 A2941 RMK  LTG DSNT NE AND SE! MADISHF
CMI,2017-02-07 15:35,M,M,M,200.00,17.00,M,29.42,M,10.00,M,SCT,BKN,BKN,M,3500.00,4300.00,5500.00,M,M,KCMI 071535Z AUTO 20017KT 10SM SCT035 BKN043 BKN055 A2942 RMK  LTG DSNT NE AND SE! MADISHF
CMI,2017-02-07 15:40,M,M,M,210.00,19.00,M,29.41,M,10.00,M,SCT,BKN,M,M,3800.00,5500.00,M,M,M,KCMI 071540Z AUTO 21019KT 10SM SCT038 BKN055 A2941 RMK  LTG DSNT NE AND SE! MADISHF
CMI,2017-02-07 15:45,M,M,M,M,M,M,29.41,M,10.00,M,SCT,SCT,BKN,M,3800.00,4700.00,5500.00,M,M,KCMI 071545Z AUTO /////KT 10SM SCT038 SCT047 BKN055 A2941 RMK  LTG DSNT NE! MADISHF
CMI,2017-02-07 15:50,M,M,M,210.00,21.00,M,29.41,M,10.00,M,SCT,SCT,BKN,M,3800.00,4700.00,5500.00,M,M,KCMI 071550Z AUTO 21021KT 10SM SCT038 SCT047 BKN055 A2941 RMK MADISHF
CMI,2017-02-07 15:53,61.00,53.10,75.20,210.00,20.00,0.00,29.40,995.60,10.00,27.00,FEW,SCT,SCT,M,3800.00,4700.00,5500.00,M,M,KCMI 071553Z 21020G27KT 10SM FEW038 SCT047 SCT055 16/12 A2940 RMK AO2 PK WND 21028/1543 SLP956 T01610117
CMI,2017-02-07 15:55,M,M,M,210.00,21.00,M,29.40,M,10.00,M,FEW,FEW,SCT,M,3800.00,4700.00,5500.00,M,M,KCMI 071555Z AUTO 21021KT 10SM FEW038 FEW047 SCT055 A2940 RMK MADISHF
CMI,2017-02-07 16:00,M,M,M,210.00,21.00,M,29.41,M,10.00,M,FEW,FEW,M,M,3900.00,5500.00,M,M,M,KCMI 071600Z AUTO 21021KT 10SM FEW039 FEW055 A2941 RMK MADISHF
CMI,2017-02-07 16:05,M,M,M,210.00,20.00,M,29.41,M,10.00,M,FEW,M,M,M,3900.00,M,M,M,M,KCMI 071605Z AUTO 21020KT 10SM FEW039 A2941 RMK MADISHF
CMI,2017-02-07 16:15,M,M,M,200.00,21.00,M,29.41,M,10.00,M,FEW,M,M,M,3500.00,M,M,M,M,KCMI 071615Z AUTO 20021KT 10SM FEW035 A2941 RMK MADISHF
CMI,2017-02-07 16:20,M,M,M,200.00,21.00,M,29.41,M,10.00,M,FEW,M,M,M,3200.00,M,M,M,M,KCMI 071620Z AUTO 20021KT 10SM FEW032 A2941 RMK MADISHF
CMI,2017-02-07 16:25,M,M,M,200.00,20.00,M,29.41,M,10.00,M,SCT,SCT,M,M,3000.00,3500.00,M,M,M,KCMI 071625Z AUTO 20020KT 10SM SCT030 SCT035 A2941 RMK MADISHF
CMI,2017-02-07 16:30,M,M,M,200.00,18.00,M,29.41,M,10.00,M,SCT,BKN,M,M,3000.00,3500.00,M,M,M,KCMI 071630Z AUTO 20018KT 10SM SCT030 BKN035 A2941 RMK MADISHF
CMI,2017-02-07 16:35,M,M,M,200.00,19.00,M,29.41,M,10.00,M,BKN,BKN,M,M,3000.00,3500.00,M,M,M,KCMI 071635Z AUTO 20019KT 10SM BKN030 BKN035 A2941 RMK MADISHF
CMI,2017-02-07 16:39,61.00,54.00,77.72,200.00,20.00,0.00,29.41,M,10.00,M,BKN,BKN,M,M,2900.00,3500.00,M,M,M,KCMI 071639Z 20020KT 10SM BKN029 BKN035 16/12 A2941 RMK AO2 PK WND 20029/1602 T01610122
CMI,2017-02-07 16:40,M,M,M,M,M,M,29.41,M,10.00,M,BKN,BKN,M,M,2900.00,3500.00,M,M,M,KCMI 071640Z AUTO /////KT 10SM BKN029 BKN035 A2941 RMK MADISHF
CMI,2017-02-07 16:45,M,M,M,M,M,M,29.40,M,10.00,M,BKN,OVC,M,M,2900.00,3500.00,M,M,M,KCMI 071645Z AUTO /////KT 10SM BKN029 OVC035 A2940 RMK MADISHF
CMI,2017-02-07 16:50,M,M,M,210.00,19.00,M,29.41,M,10.00,M,BKN,OVC,M,M,2900.00,3500.00,M,M,M,KCMI 071650Z AUTO 21019KT 10SM BKN029 OVC035 A2941 RMK MADISHF
CMI,2017-02-07 16:53,61.00,53.10,75.20,210.00,23.00,0.00,29.41,995.80,10.00,29.00,BKN,OVC,M,M,2900.00,3500.00,M,M,M,KCMI 071653Z 21023G29KT 10SM BKN029 OVC035 16/12 A2941 RMK AO2 PK WND 21029/1652 SLP958 T01610117
CMI,2017-02-07 16:55,M,M,M,210.00,20.00,M,29.41,M,10.00,M,BKN,OVC,M,M,2800.00,3500.00,M,M,M,KCMI 071655Z AUTO 21020KT 10SM BKN028 OVC035 A2941 RMK MADISHF
CMI,2017-02-07 17:00,M,M,M,210.00,20.00,M,29.41,M,10.00,M,BKN,BKN,OVC,M,2800.00,3500.00,4500.00,M,M,KCMI 071700Z AUTO 21020KT 10SM BKN028 BKN035 OVC045 A2941 RMK MADISHF
CMI,2017-02-07 17:05,M,M,M,210.00,21.00,M,29.41,M,10.00,M,BKN,OVC,M,M,2600.00,4500.00,M,M,M,KCMI 071705Z AUTO 21021KT 10SM BKN026 OVC045 A2941 RMK MADISHF
CMI,2017-02-07 17:10,M,M,M,210.00,19.00,M,29.41,M,10.00,M,BKN,OVC,M,M,2600.00,4400.00,M,M,M,KCMI 071710Z AUTO 21019KT 10SM BKN026 OVC044 A2941 RMK MADISHF
CMI,2017-02-07 17:15,M,M,M,210.00,20.00,M,29.41,M,10.00,M,BKN,OVC,M,M,2600.00,4400.00,M,M,M,KCMI 071715Z AUTO 21020KT 10SM BKN026 OVC044 A2941 RMK MADISHF
CMI,2017-02-07 17:20,M,M,M,M,M,M,29.41,M,10.00,M,BKN,BKN,OVC,M,2600.00,3000.00,4400.00,M,M,KCMI 071720Z AUTO /////KT 10SM BKN026 BKN030 OVC044 A2941 RMK MADISHF
CMI,2017-02-07 17:25,M,M,M,220.00,20.00,M,29.41,M,10.00,M,BKN,OVC,M,M,2400.00,4900.00,M,M,M,KCMI 071725Z AUTO 22020KT 10SM BKN024 OVC049 A2941 RMK MADISHF
CMI,2017-02-07 17:30,M,M,M,220.00,19.00,M,29.41,M,10.00,M,BKN,OVC,M,M,2400.00,4900.00,M,M,M,KCMI 071730Z AUTO 22019KT 10SM BKN024 OVC049 A2941 RMK MADISHF
CMI,2017-02-07 17:35,M,M,M,220.00,19.00,M,29.41,M,10.00,M,BKN,BKN,OVC,M,2400.00,2900.00,4900.00,M,M,KCMI 071735Z AUTO 22019KT 10SM BKN024 BKN029 OVC049 A2941 RMK MADISHF
CMI,2017-02-07 17:40,M,M,M,M,M,M,29.42,M,10.00,M,SCT,BKN,OVC,M,1999.00,2600.00,4900.00,M,M,KCMI 071740Z AUTO /////KT 10SM SCT019 BKN026 OVC049 A2942 RMK MADISHF
CMI,2017-02-07 17:45,M,M,M,250.00,20.00,M,29.42,M,10.00,M,BKN,BKN,OVC,M,1999.00,2500.00,4900.00,M,M,KCMI 071745Z AUTO 25020KT 10SM BKN019 BKN025 OVC049 A2942 RMK MADISHF
CMI,2017-02-07 17:50,M,M,M,250.00,19.00,M,29.42,M,9.00,M,SCT,BKN,OVC,M,1999.00,2500.00,5000.00,M,M,KCMI 071750Z AUTO 25019KT 9SM SCT019 BKN025 OVC050 A2942 RMK MADISHF
CMI,2017-02-07 17:53,61.00,54.00,77.72,260.00,21.00,0.00,29.42,996.10,9.00,28.00,SCT,BKN,BKN,M,2000.00,2700.00,5000.00,M,M,KCMI 071753Z 26021G28KT 9SM SCT020 BKN027 BKN050 16/12 A2942 RMK AO2 PK WND 23032/1740 SLP961 60001 T01610122 10167 20139 53001
CMI,2017-02-07 17:55,M,M,M,260.00,21.00,M,29.42,M,9.00,M,SCT,BKN,BKN,M,2200.00,2700.00,5000.00,M,M,KCMI 071755Z AUTO 26021KT 9SM SCT022 BKN027 BKN050 A2942 RMK MADISHF
CMI,2017-02-07 18:00,M,M,M,M,M,M,29.42,M,9.00,M,FEW,BKN,OVC,M,1900.00,2900.00,5000.00,M,M,KCMI 071800Z AUTO /////KT 9SM FEW019 BKN029 OVC050 A2942 RMK MADISHF
CMI,2017-02-07 18:05,M,M,M,250.00,19.00,M,29.42,M,9.00,M,FEW,BKN,OVC,M,1900.00,3100.00,5000.00,M,M,KCMI 071805Z AUTO 25019KT 9SM FEW019 BKN031 OVC050 A2942 RMK MADISHF
CMI,2017-02-07 18:10,61.00,53.10,75.20,250.00,23.00,0.00,29.41,M,10.00,28.00,FEW,SCT,BKN,M,2500.00,3000.00,4800.00,M,M,KCMI 071810Z 25023G28KT 10SM FEW025 SCT030 BKN048 16/12 A2941 RMK AO2 PK WND 25028/1758 T01610117
CMI,2017-02-07 18:15,M,M,M,250.00,21.00,M,29.41,M,10.00,M,FEW,BKN,M,M,2700.00,4800.00,M,M,M,KCMI 071815Z AUTO 25021KT 10SM FEW027 BKN048 A2941 RMK MADISHF
CMI,2017-02-07 18:20,M,M,M,250.00,22.00,M,29.42,M,10.00,M,FEW,BKN,M,M,2700.00,4600.00,M,M,M,KCMI 071820Z AUTO 25022KT 10SM FEW027 BKN046 A2942 RMK MADISHF
CMI,2017-02-07 18:25,M,M,M,M,M,M,29.42,M,10.00,M,FEW,BKN,M,M,3800.00,4800.00,M,M,M,KCMI 071825Z AUTO /////KT 10SM FEW038 BKN048 A2942 RMK MADISHF
CMI,2017-02-07 18:30,M,M,M,M,M,M,29.42,M,10.00,M,BKN,M,M,M,4600.00,M,M,M,M,KCMI 071830Z AUTO /////KT 10SM BKN046 A2942 RMK MADISHF
CMI,2017-02-07 18:35,M,M,M,M,M,M,29.42,M,10.00,M,BKN,M,M,M,4600.00,M,M,M,M,KCMI 071835Z AUTO /////KT 10SM BKN046 A2942 RMK MADISHF
CMI,2017-02-07 18:40,M,M,M,M,M,M,29.42,M,10.00,M,OVC,M,M,M,4600.00,M,M,M,M,KCMI 071840Z AUTO /////KT 10SM OVC046 A2942 RMK MADISHF
CMI,2017-02-07 18:45,M,M,M,260.00,20.00,M,29.42,M,10.00,M,OVC,M,M,M,4600.00,M,M,M,M,KCMI 071845Z AUTO 26020KT 10SM OVC046 A2942 RMK MADISHF
CMI,2017-02-07 18:50,M,M,M,260.00,22.00,M,29.42,M,10.00,M,OVC,M,M,M,4600.00,M,M,M,M,KCMI 071850Z AUTO 26022KT 10SM OVC046 A2942 RMK MADISHF
CMI,2017-02-07 18:53,60.10,52.00,74.57,260.00,21.00,0.00,29.41,996.00,10.00,26.00,OVC,M,M,M,4600.00,M,M,M,M,KCMI 071853Z 26021G26KT 10SM OVC046 16/11 A2941 RMK AO2 PK WND 25029/1816 SLP960 T01560111
CMI,2017-02-07 18:55,M,M,M,260.00,21.00,M,29.42,M,10.00,M,OVC,M,M,M,4600.00,M,M,M,M,KCMI 071855Z AUTO 26021KT 10SM OVC046 A2942 RMK MADISHF
CMI,2017-02-07 19:00,M,M,M,260.00,24.00,M,29.42,M,10.00,M,FEW,OVC,M,M,1800.00,4600.00,M,M,M,KCMI 071900Z AUTO 26024KT 10SM FEW018 OVC046 A2942 RMK MADISHF
CMI,2017-02-07 19:05,M,M,M,M,M,M,29.42,M,10.00,M,FEW,OVC,M,M,1800.00,4600.00,M,M,M,KCMI 071905Z AUTO /////KT 10SM FEW018 OVC046 A2942 RMK MADISHF
CMI,2017-02-07 19:10,M,M,M,260.00,22.00,M,29.42,M,9.00,M,FEW,OVC,M,M,1800.00,4600.00,M,M,M,KCMI 071910Z AUTO 26022KT 9SM FEW018 OVC046 A2942 RMK MADISHF
CMI,2017-02-07 19:15,M,M,M,270.00,22.00,M,29.43,M,9.00,M,SCT,OVC,M,M,1600.00,4600.00,M,M,M,KCMI 071915Z AUTO 27022KT 9SM SCT016 OVC046 A2943 RMK MADISHF
CMI,2017-02-07 19:20,M,M,M,270.00,20.00,M,29.43,M,8.00,M,FEW,BKN,OVC,M,1300.00,1900.00,4600.00,M,M,KCMI 071920Z AUTO 27020KT 8SM FEW013 BKN019 OVC046 A2943 RMK MADISHF
CMI,2017-02-07 19:24,57.90,52.00,80.67,270.00,21.00,0.00,29.44,M,7.00,29.00,FEW,BKN,OVC,M,1300.00,1900.00,4600.00,M,M,KCMI 071924Z 27021G29KT 7SM FEW013 BKN019 OVC046 14/11 A2944 RMK AO2 PK WND 26029/1858 T01440111
CMI,2017-02-07 19:25,M,M,M,270.00,21.00,M,29.44,M,7.00,M,SCT,BKN,OVC,M,1300.00,2100.00,4600.00,M,M,KCMI 071925Z AUTO 27021KT 7SM SCT013 BKN021 OVC046 A2944 RMK MADISHF
CMI,2017-02-07 19:30,M,M,M,270.00,22.00,M,29.44,M,7.00,M,SCT,BKN,OVC,M,1500.00,2100.00,4600.00,M,M,KCMI 071930Z AUTO 27022KT 7SM SCT015 BKN021 OVC046 A2944 RMK MADISHF
CMI,2017-02-07 19:35,M,M,M,260.00,23.00,M,29.44,M,7.00,M,BKN,BKN,OVC,M,1300.00,1900.00,2700.00,M,M,KCMI 071935Z AUTO 26023KT 7SM BKN013 BKN019 OVC027 A2944 RMK MADISHF
CMI,2017-02-07 19:37,57.00,51.10,80.60,270.00,19.00,0.00,29.44,M,7.00,27.00,BKN,OVC,M,M,1300.00,1900.00,M,M,M,KCMI 071937Z 27019G27KT 7SM BKN013 OVC019 14/11 A2944 RMK AO2 PK WND 26029/1858 T01390106
CMI,2017-02-07 19:40,M,M,M,M,M,M,29.45,M,7.00,M,SCT,BKN,OVC,M,999.00,1300.00,1900.00,M,M,KCMI 071940Z AUTO /////KT 7SM SCT009 BKN013 OVC019 A2945 RMK MADISHF
CMI,2017-02-07 19:45,M,M,M,270.00,21.00,M,29.44,M,8.00,M,BKN,OVC,M,M,1300.00,1900.00,M,M,M,KCMI 071945Z AUTO 27021KT 8SM BKN013 OVC019 A2944 RMK MADISHF
CMI,2017-02-07 19:50,M,M,M,270.00,22.00,M,29.45,M,9.00,M,BKN,OVC,M,M,1300.00,1900.00,M,M,M,KCMI 071950Z AUTO 27022KT 9SM BKN013 OVC019 A2945 RMK MADISHF
CMI,2017-02-07 19:53,55.90,50.00,80.52,260.00,24.00,0.00,29.45,997.20,9.00,30.00,OVC,M,M,M,1300.00,M,M,M,M,KCMI 071953Z 26024G30KT 9SM OVC013 13/10 A2945 RMK AO2 PK WND 26031/1939 SLP972 T01330100
CMI,2017-02-07 19:55,M,M,M,M,M,M,29.45,M,9.00,M,OVC,M,M,M,1300.00,M,M,M,M,KCMI 071955Z AUTO /////KT 9SM OVC013 A2945 RMK MADISHF
CMI,2017-02-07 20:00,M,M,M,270.00,24.00,M,29.46,M,10.00,M,OVC,M,M,M,1300.00,M,M,M,M,KCMI 072000Z AUTO 27024KT 10SM OVC013 A2946 RMK MADISHF
CMI,2017-02-07 20:05,M,M,M,M,M,M,29.46,M,9.00,M,OVC,M,M,M,1300.00,M,M,M,M,KCMI 072005Z AUTO /////KT 9SM OVC013 A2946 RMK MADISHF
CMI,2017-02-07 20:10,M,M,M,260.00,22.00,M,29.46,M,9.00,M,OVC,M,M,M,1300.00,M,M,M,M,KCMI 072010Z AUTO 26022KT 9SM OVC013 A2946 RMK MADISHF
CMI,2017-02-07 20:15,M,M,M,M,M,M,29.47,M,7.00,M,SCT,OVC,M,M,800.00,1300.00,M,M,M,KCMI 072015Z AUTO /////KT 7SM SCT008 OVC013 A2947 RMK MADISHF
CMI,2017-02-07 20:18,53.10,48.90,85.59,270.00,25.00,0.00,29.47,M,7.00,32.00,BKN,OVC,M,M,800.00,1300.00,M,M,M,KCMI 072018Z 27025G32KT 7SM BKN008 OVC013 12/09 A2947 RMK AO2 PK WND 26032/2017 CIG 006V012 T01170094
CMI,2017-02-07 20:20,M,M,M,260.00,23.00,M,29.47,M,7.00,M,SCT,OVC,M,M,800.00,1300.00,M,M,M,KCMI 072020Z AUTO 26023KT 7SM SCT008 OVC013 A2947 RMK MADISHF
CMI,2017-02-07 20:25,53.10,48.90,85.59,270.00,21.00,0.00,29.47,M,8.00,32.00,SCT,BKN,OVC,M,800.00,1300.00,2000.00,M,M,KCMI 072025Z 27021G32KT 8SM SCT008 BKN013 OVC020 12/09 A2947 RMK AO2 PK WND 26032/2017 T01170094
CMI,2017-02-07 20:30,M,M,M,270.00,21.00,M,29.47,M,8.00,M,SCT,BKN,OVC,M,800.00,1300.00,1999.00,M,M,KCMI 072030Z AUTO 27021KT 8SM SCT008 BKN013 OVC019 A2947 RMK MADISHF
CMI,2017-02-07 20:35,M,M,M,270.00,19.00,M,29.48,M,8.00,M,FEW,BKN,OVC,M,800.00,1300.00,2100.00,M,M,KCMI 072035Z AUTO 27019KT 8SM FEW008 BKN013 OVC021 A2948 RMK MADISHF
CMI,2017-02-07 20:40,M,M,M,280.00,20.00,M,29.48,M,8.00,M,FEW,BKN,OVC,M,700.00,1400.00,2100.00,M,M,KCMI 072040Z AUTO 28020KT 8SM FEW007 BKN014 OVC021 A2948 RMK MADISHF
CMI,2017-02-07 20:45,M,M,M,M,M,M,29.48,M,8.00,M,BKN,OVC,M,M,1400.00,2100.00,M,M,M,KCMI 072045Z AUTO /////KT 8SM BKN014 OVC021 A2948 RMK MADISHF
CMI,2017-02-07 20:50,M,M,M,M,M,M,29.48,M,8.00,M,BKN,OVC,M,M,1400.00,2100.00,M,M,M,KCMI 072050Z AUTO /////KT 8SM BKN014 OVC021 A2948 RMK MADISHF
CMI,2017-02-07 20:53,52.00,46.00,79.92,270.00,22.00,0.00,29.48,998.40,7.00,34.00,OVC,M,M,M,1600.00,M,M,M,M,KCMI 072053Z 27022G34KT 7SM OVC016 11/08 A2948 RMK AO2 PK WND 28034/2046 SLP984 T01110078 53022
CMI,2017-02-07 20:55,M,M,M,M,M,M,29.49,M,7.00,M,BKN,OVC,M,M,1600.00,1999.00,M,M,M,KCMI 072055Z AUTO /////KT 7SM BKN016 OVC019 A2949 RMK MADISHF
CMI,2017-02-07 21:00,M,M,M,280.00,21.00,M,29.49,M,7.00,M,OVC,M,M,M,1800.00,M,M,M,M,KCMI 072100Z AUTO 28021KT 7SM OVC018 A2949 RMK MADISHF
CMI,2017-02-07 21:05,M,M,M,M,M,M,29.49,M,7.00,M,OVC,M,M,M,1800.00,M,M,M,M,KCMI 072105Z AUTO /////KT 7SM OVC018 A2949 RMK MADISHF
CMI,2017-02-07 21:10,M,M,M,M,M,M,29.50,M,6.00,M,OVC,M,M,M,1699.00,M,M,M,HZ,KCMI 072110Z AUTO /////KT 6SM HZ OVC016 A2950 RMK MADISHF
CMI,2017-02-07 21:15,M,M,M,290.00,19.00,M,29.50,M,6.00,M,OVC,M,M,M,1500.00,M,M,M,HZ,KCMI 072115Z AUTO 29019KT 6SM HZ OVC015 A2950 RMK MADISHF
CMI,2017-02-07 21:20,M,M,M,290.00,18.00,M,29.50,M,6.00,M,OVC,M,M,M,1500.00,M,M,M,HZ,KCMI 072120Z AUTO 29018KT 6SM HZ OVC015 A2950 RMK MADISHF
CMI,2017-02-07 21:25,M,M,M,280.00,15.00,M,29.51,M,5.00,M,OVC,M,M,M,1500.00,M,M,M,HZ,KCMI 072125Z AUTO 28015KT 5SM HZ OVC015 A2951 RMK MADISHF
CMI,2017-02-07 21:30,M,M,M,280.00,17.00,M,29.52,M,5.00,M,OVC,M,M,M,1500.00,M,M,M,HZ,KCMI 072130Z AUTO 28017KT 5SM HZ OVC015 A2952 RMK MADISHF
CMI,2017-02-07 21:35,M,M,M,270.00,17.00,M,29.52,M,5.00,M,BKN,OVC,M,M,1500.00,2600.00,M,M,HZ,KCMI 072135Z AUTO 27017KT 5SM HZ BKN015 OVC026 A2952 RMK MADISHF
CMI,2017-02-07 21:40,M,M,M,270.00,16.00,M,29.52,M,6.00,M,BKN,OVC,M,M,1500.00,2800.00,M,M,HZ,KCMI 072140Z AUTO 27016KT 6SM HZ BKN015 OVC028 A2952 RMK MADISHF
CMI,2017-02-07 21:45,M,M,M,270.00,17.00,M,29.53,M,6.00,M,SCT,BKN,OVC,M,1500.00,2400.00,3000.00,M,HZ,KCMI 072145Z AUTO 27017KT 6SM HZ SCT015 BKN024 OVC030 A2953 RMK MADISHF
CMI,2017-02-07 21:50,M,M,M,270.00,16.00,M,29.53,M,6.00,M,SCT,BKN,OVC,M,1500.00,2400.00,3000.00,M,HZ,KCMI 072150Z AUTO 27016KT 6SM HZ SCT015 BKN024 OVC030 A2953 RMK MADISHF
CMI,2017-02-07 21:53,52.00,46.00,79.92,270.00,18.00,0.00,29.54,1000.10,6.00,M,FEW,BKN,OVC,M,1700.00,2400.00,3000.00,M,HZ,KCMI 072153Z 27018KT 6SM HZ FEW017 BKN024 OVC030 11/08 A2954 RMK AO2 PK WND 29026/2106 SLP001 T01110078
CMI,2017-02-07 21:55,M,M,M,270.00,18.00,M,29.54,M,6.00,M,SCT,OVC,M,M,2100.00,2800.00,M,M,HZ,KCMI 072155Z AUTO 27018KT 6SM HZ SCT021 OVC028 A2954 RMK MADISHF
CMI,2017-02-07 22:00,M,M,M,260.00,17.00,M,29.54,M,6.00,M,BKN,OVC,M,M,2100.00,2800.00,M,M,HZ,KCMI 072200Z AUTO 26017KT 6SM HZ BKN021 OVC028 A2954 RMK MADISHF
CMI,2017-02-07 22:05,M,M,M,270.00,17.00,M,29.54,M,6.00,M,BKN,BKN,OVC,M,1900.00,2400.00,3000.00,M,HZ,KCMI 072205Z AUTO 27017KT 6SM HZ BKN019 BKN024 OVC030 A2954 RMK MADISHF
CMI,2017-02-07 22:10,M,M,M,270.00,16.00,M,29.54,M,6.00,M,BKN,OVC,M,M,1900.00,2400.00,M,M,HZ,KCMI 072210Z AUTO 27016KT 6SM HZ BKN019 OVC024 A2954 RMK MADISHF
CMI,2017-02-07 22:15,M,M,M,270.00,16.00,M,29.54,M,6.00,M,SCT,OVC,M,M,1900.00,2400.00,M,M,HZ,KCMI 072215Z AUTO 27016KT 6SM HZ SCT019 OVC024 A2954 RMK MADISHF
CMI,2017-02-07 22:20,M,M,M,270.00,16.00,M,29.55,M,6.00,M,SCT,OVC,M,M,1900.00,2600.00,M,M,HZ,KCMI 072220Z AUTO 27016KT 6SM HZ SCT019 OVC026 A2955 RMK MADISHF
CMI,2017-02-07 22:25,M,M,M,270.00,14.00,M,29.55,M,6.00,M,SCT,BKN,OVC,M,1900.00,2400.00,3000.00,M,HZ,KCMI 072225Z AUTO 27014KT 6SM HZ SCT019 BKN024 OVC030 A2955 RMK MADISHF
CMI,2017-02-07 22:30,M,M,M,270.00,15.00,M,29.55,M,6.00,M,FEW,BKN,OVC,M,1800.00,2600.00,3000.00,M,HZ,KCMI 072230Z AUTO 27015KT 6SM HZ FEW018 BKN026 OVC030 A2955 RMK MADISHF
CMI,2017-02-07 22:35,M,M,M,270.00,14.00,M,29.55,M,5.00,M,FEW,OVC,M,M,1900.00,3000.00,M,M,HZ,KCMI 072235Z AUTO 27014KT 5SM HZ FEW019 OVC030 A2955 RMK MADISHF
CMI,2017-02-07 22:38,51.10,45.00,79.54,260.00,16.00,0.00,29.55,M,5.00,M,FEW,OVC,M,M,2100.00,3000.00,M,M,HZ,KCMI 072238Z 26016KT 5SM HZ FEW021 OVC030 11/07 A2955 RMK AO2 PK WND 27026/2203 T01060072
CMI,2017-02-07 22:40,M,M,M,260.00,14.00,M,29.55,M,5.00,M,BKN,OVC,M,M,2600.00,3000.00,M,M,HZ,KCMI 072240Z AUTO 26014KT 5SM HZ BKN026 OVC030 A2955 RMK MADISHF
CMI,2017-02-07 22:45,M,M,M,260.00,15.00,M,29.56,M,5.00,M,SCT,OVC,M,M,2100.00,3000.00,M,M,HZ,KCMI 072245Z AUTO 26015KT 5SM HZ SCT021 OVC030 A2956 RMK MADISHF
CMI,2017-02-07 22:50,M,M,M,260.00,16.00,M,29.56,M,5.00,M,BKN,OVC,M,M,2100.00,3000.00,M,M,HZ,KCMI 072250Z AUTO 26016KT 5SM HZ BKN021 OVC030 A2956 RMK MADISHF
CMI,2017-02-07 22:53,50.00,45.00,82.86,270.00,16.00,0.00,29.56,1000.90,5.00,20.00,BKN,BKN,OVC,M,2100.00,2600.00,3000.00,M,HZ,KCMI 072253Z 27016G20KT 5SM HZ BKN021 BKN026 OVC030 10/07 A2956 RMK AO2 PK WND 27026/2203 SLP009 T01000072
CMI,2017-02-07 22:55,M,M,M,270.00,16.00,M,29.56,M,6.00,M,BKN,BKN,OVC,M,2100.00,2600.00,3000.00,M,HZ,KCMI 072255Z AUTO 27016KT 6SM HZ BKN021 BKN026 OVC030 A2956 RMK MADISHF
CMI,2017-02-07 23:00,M,M,M,270.00,17.00,M,29.57,M,6.00,M,BKN,OVC,M,M,1900.00,2600.00,M,M,HZ,KCMI 072300Z AUTO 27017KT 6SM HZ BKN019 OVC026 A2957 RMK MADISHF
CMI,2017-02-07 23:05,M,M,M,260.00,13.00,M,29.57,M,6.00,M,BKN,OVC,M,M,1699.00,2300.00,M,M,HZ,KCMI 072305Z AUTO 26013KT 6SM HZ BKN016 OVC023 A2957 RMK MADISHF
CMI,2017-02-07 23:10,M,M,M,260.00,16.00,M,29.58,M,7.00,M,SCT,OVC,M,M,1699.00,2300.00,M,M,M,KCMI 072310Z AUTO 26016KT 7SM SCT016 OVC023 A2958 RMK MADISHF
CMI,2017-02-07 23:15,M,M,M,260.00,15.00,M,29.58,M,7.00,M,BKN,OVC,M,M,1500.00,2600.00,M,M,M,KCMI 072315Z AUTO 26015KT 7SM BKN015 OVC026 A2958 RMK MADISHF
CMI,2017-02-07 23:20,M,M,M,260.00,15.00,M,29.59,M,6.00,M,BKN,OVC,M,M,1500.00,2400.00,M,M,BR,KCMI 072320Z AUTO 26015KT 6SM BR BKN015 OVC024 A2959 RMK MADISHF
CMI,2017-02-07 23:25,M,M,M,260.00,14.00,M,29.58,M,6.00,19.00,BKN,OVC,M,M,1500.00,2400.00,M,M,BR,KCMI 072325Z AUTO 26014G19KT 6SM BR BKN015 OVC024 A2958 RMK MADISHF
CMI,2017-02-07 23:30,M,M,M,260.00,19.00,M,29.59,M,6.00,M,BKN,BKN,OVC,M,1500.00,1999.00,2600.00,M,HZ,KCMI 072330Z AUTO 26019KT 6SM HZ BKN015 BKN019 OVC026 A2959 RMK MADISHF
CMI,2017-02-07 23:35,M,M,M,M,M,M,29.59,M,6.00,M,SCT,BKN,OVC,M,1500.00,1999.00,2600.00,M,HZ,KCMI 072335Z AUTO /////KT 6SM HZ SCT015 BKN019 OVC026 A2959 RMK MADISHF
CMI,2017-02-07 23:40,M,M,M,270.00,18.00,M,29.59,M,7.00,M,SCT,BKN,OVC,M,1400.00,1999.00,2600.00,M,M,KCMI 072340Z AUTO 27018KT 7SM SCT014 BKN019 OVC026 A2959 RMK MADISHF
CMI,2017-02-07 23:45,M,M,M,260.00,16.00,M,29.60,M,7.00,M,SCT,OVC,M,M,1400.00,1999.00,M,M,M,KCMI 072345Z AUTO 26016KT 7SM SCT014 OVC019 A2960 RMK MADISHF
CMI,2017-02-07 23:50,M,M,M,270.00,17.00,M,29.60,M,7.00,M,OVC,M,M,M,1800.00,M,M,M,M,KCMI 072350Z AUTO 27017KT 7SM OVC018 A2960 RMK MADISHF
CMI,2017-02-07 23:53,48.00,43.00,82.72,270.00,16.00,0.00,29.60,1002.40,7.00,M,OVC,M,M,M,1800.00,M,M,M,M,KCMI 072353Z AUTO 27016KT 7SM OVC018 09/06 A2960 RMK AO2 SLP024 T00890061 10167 20089 51039
CMI,2017-02-07 23:55,M,M,M,280.00,17.00,M,29.60,M,7.00,M,OVC,M,M,M,1800.00,M,M,M,M,KCMI 072355Z AUTO 28017KT 7SM OVC018 A2960 RMK MADISHF
CMI,2017-02-08 00:00,M,M,M,M,M,M,29.60,M,6.00,M,OVC,M,M,M,1999.00,M,M,M,HZ,KCMI 080000Z AUTO /////KT 6SM HZ OVC019 A2960 RMK MADISHF
CMI,2017-02-08 00:05,M,M,M,M,M,M,29.61,M,5.00,M,OVC,M,M,M,1999.00,M,M,M,BR,KCMI 080005Z AUTO /////KT 5SM BR OVC019 A2961 RMK MADISHF
CMI,2017-02-08 00:10,M,M,M,M,M,M,29.61,M,5.00,M,FEW,BKN,OVC,M,1500.00,1999.00,2600.00,M,BR,KCMI 080010Z AUTO /////KT 5SM BR FEW015 BKN019 OVC026 A2961 RMK MADISHF
CMI,2017-02-08 00:15,M,M,M,M,M,M,29.61,M,5.00,M,BKN,OVC,M,M,1999.00,2600.00,M,M,HZ,KCMI 080015Z AUTO /////KT 5SM HZ BKN019 OVC026 A2961 RMK MADISHF
CMI,2017-02-08 00:20,M,M,M,290.00,18.00,M,29.62,M,6.00,M,BKN,OVC,M,M,1999.00,2600.00,M,M,BR,KCMI 080020Z AUTO 29018KT 6SM BR BKN019 OVC026 A2962 RMK MADISHF
CMI,2017-02-08 00:25,M,M,M,290.00,19.00,M,29.62,M,6.00,M,FEW,OVC,M,M,1400.00,2300.00,M,M,BR,KCMI 080025Z AUTO 29019KT 6SM BR FEW014 OVC023 A2962 RMK MADISHF
CMI,2017-02-08 00:30,M,M,M,290.00,18.00,M,29.62,M,7.00,M,FEW,OVC,M,M,1400.00,2300.00,M,M,M,KCMI 080030Z AUTO 29018KT 7SM FEW014 OVC023 A2962 RMK MADISHF
CMI,2017-02-08 00:35,M,M,M,290.00,17.00,M,29.63,M,7.00,M,OVC,M,M,M,2600.00,M,M,M,M,KCMI 080035Z AUTO 29017KT 7SM OVC026 A2963 RMK MADISHF
CMI,2017-02-08 00:40,M,M,M,290.00,17.00,M,29.63,M,7.00,M,OVC,M,M,M,2400.00,M,M,M,M,KCMI 080040Z AUTO 29017KT 7SM OVC024 A2963 RMK MADISHF
CMI,2017-02-08 00:45,M,M,M,280.00,16.00,M,29.63,M,8.00,M,BKN,OVC,M,M,2200.00,2700.00,M,M,M,KCMI 080045Z AUTO 28016KT 8SM BKN022 OVC027 A2963 RMK MADISHF
CMI,2017-02-08 00:50,M,M,M,280.00,18.00,M,29.63,M,8.00,M,BKN,OVC,M,M,1999.00,2700.00,M,M,M,KCMI 080050Z AUTO 28018KT 8SM BKN019 OVC027 A2963 RMK MADISHF
CMI,2017-02-08 00:53,45.00,41.00,85.77,290.00,17.00,0.00,29.63,1003.50,9.00,M,BKN,OVC,M,M,1800.00,2500.00,M,M,M,KCMI 080053Z 29017KT 9SM BKN018 OVC025 07/05 A2963 RMK AO2 PK WND 28027/0012 SLP035 T00720050
CMI,2017-02-08 00:55,M,M,M,290.00,17.00,M,29.63,M,9.00,M,BKN,OVC,M,M,1800.00,2500.00,M,M,M,KCMI 080055Z AUTO 29017KT 9SM BKN018 OVC025 A2963 RMK MADISHF
CMI,2017-02-08 01:00,M,M,M,280.00,16.00,M,29.63,M,8.00,M,BKN,OVC,M,M,1600.00,2200.00,M,M,M,KCMI 080100Z AUTO 28016KT 8SM BKN016 OVC022 A2963 RMK MADISHF
CMI,2017-02-08 01:05,M,M,M,280.00,17.00,M,29.64,M,8.00,M,BKN,OVC,M,M,1600.00,2200.00,M,M,M,KCMI 080105Z AUTO 28017KT 8SM BKN016 OVC022 A2964 RMK MADISHF
CMI,2017-02-08 01:10,M,M,M,280.00,19.00,M,29.64,M,9.00,M,BKN,OVC,M,M,1400.00,1999.00,M,M,M,KCMI 080110Z AUTO 28019KT 9SM BKN014 OVC019 A2964 RMK MADISHF
CMI,2017-02-08 01:15,45.00,39.90,82.19,280.00,20.00,0.00,29.64,M,9.00,M,OVC,M,M,M,1400.00,M,M,M,M,KCMI 080115Z 28020KT 9SM OVC014 07/04 A2964 RMK AO2 T00720044
CMI,2017-02-08 01:20,M,M,M,280.00,19.00,M,29.64,M,8.00,M,OVC,M,M,M,1400.00,M,M,M,M,KCMI 080120Z AUTO 28019KT 8SM OVC014 A2964 RMK MADISHF
CMI,2017-02-08 01:25,M,M,M,290.00,19.00,M,29.65,M,7.00,M,OVC,M,M,M,1400.00,M,M,M,M,KCMI 080125Z AUTO 29019KT 7SM OVC014 A2965 RMK MADISHF
CMI,2017-02-08 01:30,M,M,M,290.00,18.00,M,29.65,M,7.00,M,OVC,M,M,M,1200.00,M,M,M,M,KCMI 080130Z AUTO 29018KT 7SM OVC012 A2965 RMK MADISHF
CMI,2017-02-08 01:35,M,M,M,290.00,19.00,M,29.66,M,8.00,M,OVC,M,M,M,1200.00,M,M,M,M,KCMI 080135Z AUTO 29019KT 8SM OVC012 A2966 RMK MADISHF
CMI,2017-02-08 01:40,M,M,M,290.00,17.00,M,29.66,M,8.00,M,OVC,M,M,M,1200.00,M,M,M,M,KCMI 080140Z AUTO 29017KT 8SM OVC012 A2966 RMK MADISHF
CMI,2017-02-08 01:45,M,M,M,M,M,M,29.66,M,8.00,M,OVC,M,M,M,999.00,M,M,M,M,KCMI 080145Z AUTO /////KT 8SM OVC009 A2966 RMK CIG 9V13  MADISHF
CMI,2017-02-08 01:50,M,M,M,290.00,21.00,M,29.66,M,8.00,M,OVC,M,M,M,999.00,M,M,M,M,KCMI 080150Z AUTO 29021KT 8SM OVC009 A2966 RMK MADISHF
CMI,2017-02-08 01:53,42.10,37.00,81.98,300.00,21.00,0.00,29.66,1004.60,8.00,27.00,OVC,M,M,M,1000.00,M,M,M,M,KCMI 080153Z 30021G27KT 8SM OVC010 06/03 A2966 RMK AO2 PK WND 30027/0144 SLP046 T00560028
CMI,2017-02-08 01:55,M,M,M,300.00,19.00,M,29.66,M,9.00,M,OVC,M,M,M,999.00,M,M,M,M,KCMI 080155Z AUTO 30019KT 9SM OVC009 A2966 RMK MADISHF
CMI,2017-02-08 02:00,M,M,M,M,M,M,29.66,M,8.00,M,OVC,M,M,M,1100.00,M,M,M,M,KCMI 080200Z AUTO /////KT 8SM OVC011 A2966 RMK MADISHF
CMI,2017-02-08 02:05,M,M,M,M,M,M,29.67,M,8.00,M,OVC,M,M,M,1100.00,M,M,M,M,KCMI 080205Z AUTO /////KT 8SM OVC011 A2967 RMK MADISHF
CMI,2017-02-08 02:10,M,M,M,M,M,M,29.68,M,7.00,M,OVC,M,M,M,1100.00,M,M,M,M,KCMI 080210Z AUTO /////KT 7SM OVC011 A2968 RMK MADISHF
CMI,2017-02-08 02:15,M,M,M,M,M,M,29.69,M,7.00,M,OVC,M,M,M,1100.00,M,M,M,M,KCMI 080215Z AUTO /////KT 7SM OVC011 A2969 RMK MADISHF
CMI,2017-02-08 02:20,M,M,M,290.00,22.00,M,29.69,M,8.00,M,OVC,M,M,M,1100.00,M,M,M,M,KCMI 080220Z AUTO 29022KT 8SM OVC011 A2969 RMK MADISHF
CMI,2017-02-08 02:25,M,M,M,M,M,M,29.69,M,7.00,M,OVC,M,M,M,1100.00,M,M,M,M,KCMI 080225Z AUTO /////KT 7SM OVC011 A2969 RMK MADISHF
CMI,2017-02-08 02:30,M,M,M,290.00,22.00,M,29.70,M,7.00,M,OVC,M,M,M,1100.00,M,M,M,M,KCMI 080230Z AUTO 29022KT 7SM OVC011 A2970 RMK MADISHF
CMI,2017-02-08 02:35,M,M,M,M,M,M,29.70,M,8.00,M,OVC,M,M,M,1100.00,M,M,M,M,KCMI 080235Z AUTO /////KT 8SM OVC011 A2970 RMK MADISHF
CMI,2017-02-08 02:40,M,M,M,M,M,M,29.71,M,8.00,M,OVC,M,M,M,1300.00,M,M,M,M,KCMI 080240Z AUTO /////KT 8SM OVC013 A2971 RMK MADISHF
CMI,2017-02-08 02:45,M,M,M,M,M,M,29.71,M,8.00,M,OVC,M,M,M,1300.00,M,M,M,M,KCMI 080245Z AUTO /////KT 8SM OVC013 A2971 RMK MADISHF
CMI,2017-02-08 02:50,M,M,M,290.00,20.00,M,29.71,M,8.00,M,OVC,M,M,M,1300.00,M,M,M,M,KCMI 080250Z AUTO 29020KT 8SM OVC013 A2971 RMK MADISHF
CMI,2017-02-08 02:53,37.00,33.10,85.64,290.00,23.00,0.00,29.71,1006.40,8.00,M,OVC,M,M,M,1300.00,M,M,M,M,KCMI 080253Z 29023KT 8SM OVC013 03/01 A2971 RMK AO2 PK WND 29031/0212 SLP064 T00280006 53037
CMI,2017-02-08 02:55,M,M,M,M,M,M,29.71,M,8.00,M,OVC,M,M,M,1300.00,M,M,M,M,KCMI 080255Z AUTO /////KT 8SM OVC013 A2971 RMK MADISHF
CMI,2017-02-08 03:00,M,M,M,290.00,19.00,M,29.71,M,8.00,M,OVC,M,M,M,1300.00,M,M,M,M,KCMI 080300Z AUTO 29019KT 8SM OVC013 A2971 RMK MADISHF
CMI,2017-02-08 03:05,M,M,M,M,M,M,29.71,M,8.00,M,OVC,M,M,M,1400.00,M,M,M,M,KCMI 080305Z AUTO /////KT 8SM OVC014 A2971 RMK MADISHF
CMI,2017-02-08 03:10,M,M,M,300.00,21.00,M,29.72,M,7.00,M,OVC,M,M,M,1400.00,M,M,M,M,KCMI 080310Z AUTO 30021KT 7SM OVC014 A2972 RMK MADISHF
CMI,2017-02-08 03:15,M,M,M,300.00,21.00,M,29.72,M,7.00,M,OVC,M,M,M,1400.00,M,M,M,M,KCMI 080315Z AUTO 30021KT 7SM OVC014 A2972 RMK MADISHF
CMI,2017-02-08 03:20,M,M,M,M,M,M,29.72,M,8.00,M,OVC,M,M,M,1200.00,M,M,M,M,KCMI 080320Z AUTO /////KT 8SM OVC012 A2972 RMK MADISHF
CMI,2017-02-08 03:25,M,M,M,M,M,M,29.73,M,8.00,M,OVC,M,M,M,1200.00,M,M,M,M,KCMI 080325Z AUTO /////KT 8SM OVC012 A2973 RMK MADISHF
CMI,2017-02-08 03:30,M,M,M,300.00,19.00,M,29.73,M,8.00,M,OVC,M,M,M,1200.00,M,M,M,M,KCMI 080330Z AUTO 30019KT 8SM OVC012 A2973 RMK MADISHF
CMI,2017-02-08 03:35,M,M,M,M,M,M,29.73,M,8.00,M,OVC,M,M,M,1200.00,M,M,M,M,KCMI 080335Z AUTO /////KT 8SM OVC012 A2973 RMK MADISHF
CMI,2017-02-08 03:40,M,M,M,300.00,17.00,M,29.73,M,8.00,M,OVC,M,M,M,1200.00,M,M,M,M,KCMI 080340Z AUTO 30017KT 8SM OVC012 A2973 RMK MADISHF
CMI,2017-02-08 03:45,M,M,M,300.00,18.00,M,29.73,M,8.00,M,OVC,M,M,M,1200.00,M,M,M,M,KCMI 080345Z AUTO 30018KT 8SM OVC012 A2973 RMK MADISHF
CMI,2017-02-08 03:50,M,M,M,290.00,19.00,M,29.74,M,8.00,M,OVC,M,M,M,1200.00,M,M,M,M,KCMI 080350Z AUTO 29019KT 8SM OVC012 A2974 RMK MADISHF
CMI,2017-02-08 03:53,34.00,28.90,81.37,290.00,21.00,0.00,29.74,1007.20,7.00,M,OVC,M,M,M,1200.00,M,M,M,M,KCMI 080353Z 29021KT 7SM OVC012 01/M02 A2974 RMK AO2 PK WND 30028/0333 SLP072 T00111017
CMI,2017-02-08 03:55,M,M,M,M,M,M,29.74,M,7.00,M,OVC,M,M,M,1200.00,M,M,M,M,KCMI 080355Z AUTO /////KT 7SM OVC012 A2974 RMK MADISHF
CMI,2017-02-08 04:00,M,M,M,M,M,M,29.75,M,7.00,M,OVC,M,M,M,1300.00,M,M,M,M,KCMI 080400Z AUTO /////KT 7SM OVC013 A2975 RMK MADISHF
CMI,2017-02-08 04:05,M,M,M,300.00,16.00,M,29.74,M,7.00,M,OVC,M,M,M,1300.00,M,M,M,M,KCMI 080405Z AUTO 30016KT 7SM OVC013 A2974 RMK MADISHF
CMI,2017-02-08 04:10,M,M,M,300.00,16.00,M,29.74,M,7.00,M,OVC,M,M,M,1300.00,M,M,M,M,KCMI 080410Z AUTO 30016KT 7SM OVC013 A2974 RMK MADISHF
CMI,2017-02-08 04:15,M,M,M,300.00,16.00,M,29.74,M,7.00,M,OVC,M,M,M,1200.00,M,M,M,M,KCMI 080415Z AUTO 30016KT 7SM OVC012 A2974 RMK MADISHF
CMI,2017-02-08 04:20,M,M,M,300.00,16.00,M,29.74,M,7.00,M,OVC,M,M,M,1200.00,M,M,M,M,KCMI 080420Z AUTO 30016KT 7SM OVC012 A2974 RMK MADISHF
CMI,2017-02-08 04:25,M,M,M,300.00,18.00,M,29.74,M,7.00,M,OVC,M,M,M,1200.00,M,M,M,M,KCMI 080425Z AUTO 30018KT 7SM OVC012 A2974 RMK MADISHF
CMI,2017-02-08 04:30,M,M,M,300.00,16.00,M,29.75,M,8.00,M,OVC,M,M,M,1200.00,M,M,M,M,KCMI 080430Z AUTO 30016KT 8SM OVC012 A2975 RMK MADISHF
CMI,2017-02-08 04:35,M,M,M,300.00,14.00,M,29.75,M,8.00,M,OVC,M,M,M,1300.00,M,M,M,M,KCMI 080435Z AUTO 30014KT 8SM OVC013 A2975 RMK MADISHF
CMI,2017-02-08 04:40,M,M,M,290.00,12.00,M,29.75,M,8.00,M,OVC,M,M,M,1300.00,M,M,M,M,KCMI 080440Z AUTO 29012KT 8SM OVC013 A2975 RMK MADISHF
CMI,2017-02-08 04:45,M,M,M,290.00,15.00,M,29.75,M,8.00,M,OVC,M,M,M,1300.00,M,M,M,M,KCMI 080445Z AUTO 29015KT 8SM OVC013 A2975 RMK MADISHF
CMI,2017-02-08 04:50,M,M,M,M,M,M,29.75,M,8.00,M,OVC,M,M,M,1300.00,M,M,M,M,KCMI 080450Z AUTO /////KT 8SM OVC013 A2975 RMK MADISHF
CMI,2017-02-08 04:53,33.10,28.00,81.30,290.00,17.00,0.00,29.75,1007.70,8.00,M,OVC,M,M,M,1300.00,M,M,M,M,KCMI 080453Z 29017KT 8SM OVC013 01/M02 A2975 RMK AO2 PK WND 30027/0359 SLP077 T00061022
CMI,2017-02-08 04:55,M,M,M,300.00,16.00,M,29.76,M,8.00,M,OVC,M,M,M,1300.00,M,M,M,M,KCMI 080455Z AUTO 30016KT 8SM OVC013 A2976 RMK MADISHF
CMI,2017-02-08 05:00,M,M,M,310.00,13.00,M,29.76,M,8.00,M,OVC,M,M,M,1300.00,M,M,M,M,KCMI 080500Z AUTO 31013KT 8SM OVC013 A2976 RMK MADISHF
CMI,2017-02-08 05:05,M,M,M,310.00,13.00,M,29.76,M,9.00,M,OVC,M,M,M,1300.00,M,M,M,M,KCMI 080505Z AUTO 31013KT 9SM OVC013 A2976 RMK MADISHF
CMI,2017-02-08 05:10,M,M,M,310.00,13.00,M,29.76,M,10.00,M,OVC,M,M,M,1300.00,M,M,M,M,KCMI 080510Z AUTO 31013KT 10SM OVC013 A2976 RMK MADISHF
CMI,2017-02-08 05:15,M,M,M,310.00,11.00,M,29.76,M,10.00,M,OVC,M,M,M,1300.00,M,M,M,M,KCMI 080515Z AUTO 31011KT 10SM OVC013 A2976 RMK MADISHF
CMI,2017-02-08 05:20,M,M,M,300.00,12.00,M,29.77,M,10.00,M,OVC,M,M,M,1300.00,M,M,M,M,KCMI 080520Z AUTO 30012KT 10SM OVC013 A2977 RMK MADISHF
CMI,2017-02-08 05:25,M,M,M,300.00,12.00,M,29.77,M,10.00,M,OVC,M,M,M,1300.00,M,M,M,M,KCMI 080525Z AUTO 30012KT 10SM OVC013 A2977 RMK MADISHF
CMI,2017-02-08 05:30,M,M,M,290.00,12.00,M,29.77,M,10.00,M,OVC,M,M,M,1400.00,M,M,M,M,KCMI 080530Z AUTO 29012KT 10SM OVC014 A2977 RMK MADISHF
CMI,2017-02-08 05:35,M,M,M,300.00,12.00,M,29.77,M,9.00,M,OVC,M,M,M,1400.00,M,M,M,M,KCMI 080535Z AUTO 30012KT 9SM OVC014 A2977 RMK MADISHF
CMI,2017-02-08 05:40,M,M,M,300.00,12.00,M,29.77,M,10.00,M,OVC,M,M,M,1400.00,M,M,M,M,KCMI 080540Z AUTO 30012KT 10SM OVC014 A2977 RMK MADISHF
CMI,2017-02-08 05:45,M,M,M,300.00,10.00,M,29.77,M,9.00,M,OVC,M,M,M,1400.00,M,M,M,M,KCMI 080545Z AUTO 30010KT 9SM OVC014 A2977 RMK MADISHF
CMI,2017-02-08 05:50,M,M,M,300.00,13.00,M,29.76,M,10.00,M,OVC,M,M,M,1400.00,M,M,M,M,KCMI 080550Z AUTO 30013KT 10SM OVC014 A2976 RMK MADISHF
CMI,2017-02-08 05:53,32.00,26.10,78.58,300.00,13.00,0.00,29.76,1007.90,10.00,M,OVC,M,M,M,1400.00,M,M,M,M,KCMI 080553Z AUTO 30013KT 10SM OVC014 00/M03 A2976 RMK AO2 SLP079 T00001033 10089 20000 401670000 51015
CMI,2017-02-08 05:55,M,M,M,300.00,13.00,M,29.76,M,10.00,M,OVC,M,M,M,1400.00,M,M,M,M,KCMI 080555Z AUTO 30013KT 10SM OVC014 A2976 RMK MADISHF
CMI,2017-02-08 06:00,M,M,M,300.00,11.00,M,29.76,M,10.00,M,OVC,M,M,M,1400.00,M,M,M,M,KCMI 080600Z AUTO 30011KT 10SM OVC014 A2976 RMK MADISHF
CMI,2017-02-08 06:05,M,M,M,300.00,10.00,M,29.76,M,10.00,M,OVC,M,M,M,1400.00,M,M,M,M,KCMI 080605Z AUTO 30010KT 10SM OVC014 A2976 RMK MADISHF
CMI,2017-02-08 06:10,M,M,M,300.00,10.00,M,29.76,M,10.00,M,OVC,M,M,M,1600.00,M,M,M,M,KCMI 080610Z AUTO 30010KT 10SM OVC016 A2976 RMK MADISHF
CMI,2017-02-08 06:12,32.00,25.00,75.07,300.00,11.00,0.00,29.76,M,10.00,M,OVC,M,M,M,1600.00,M,M,M,M,KCMI 080612Z AUTO 30011KT 10SM OVC016 00/M04 A2976 RMK AO2 T00001039
CMI,2017-02-08 06:15,M,M,M,300.00,11.00,M,29.76,M,10.00,M,OVC,M,M,M,1600.00,M,M,M,M,KCMI 080615Z AUTO 30011KT 10SM OVC016 A2976 RMK MADISHF
CMI,2017-02-08 06:20,M,M,M,300.00,10.00,M,29.76,M,10.00,M,OVC,M,M,M,1800.00,M,M,M,M,KCMI 080620Z AUTO 30010KT 10SM OVC018 A2976 RMK MADISHF
CMI,2017-02-08 06:25,M,M,M,300.00,10.00,M,29.77,M,10.00,M,OVC,M,M,M,1800.00,M,M,M,M,KCMI 080625Z AUTO 30010KT 10SM OVC018 A2977 RMK MADISHF
CMI,2017-02-08 06:30,M,M,M,300.00,9.00,M,29.77,M,10.00,M,OVC,M,M,M,1800.00,M,M,M,M,KCMI 080630Z AUTO 30009KT 10SM OVC018 A2977 RMK MADISHF
CMI,2017-02-08 06:35,M,M,M,310.00,10.00,M,29.77,M,10.00,M,OVC,M,M,M,1800.00,M,M,M,M,KCMI 080635Z AUTO 31010KT 10SM OVC018 A2977 RMK MADISHF
CMI,2017-02-08 06:40,M,M,M,310.00,12.00,M,29.77,M,10.00,M,OVC,M,M,M,1800.00,M,M,M,M,KCMI 080640Z AUTO 31012KT 10SM OVC018 A2977 RMK MADISHF
CMI,2017-02-08 06:45,M,M,M,320.00,10.00,M,29.76,M,10.00,M,OVC,M,M,M,1800.00,M,M,M,M,KCMI 080645Z AUTO 32010KT 10SM OVC018 A2976 RMK MADISHF
CMI,2017-02-08 06:50,M,M,M,320.00,13.00,M,29.76,M,10.00,M,OVC,M,M,M,1800.00,M,M,M,M,KCMI 080650Z AUTO 32013KT 10SM OVC018 A2976 RMK MADISHF
CMI,2017-02-08 06:53,32.00,25.00,75.07,310.00,15.00,0.00,29.77,1008.30,10.00,M,OVC,M,M,M,1800.00,M,M,M,M,KCMI 080653Z AUTO 31015KT 10SM OVC018 00/M04 A2977 RMK AO2 SLP083 T00001039
CMI,2017-02-08 06:55,M,M,M,310.00,14.00,M,29.77,M,10.00,M,OVC,M,M,M,1800.00,M,M,M,M,KCMI 080655Z AUTO 31014KT 10SM OVC018 A2977 RMK MADISHF
CMI,2017-02-08 07:00,M,M,M,320.00,13.00,M,29.78,M,10.00,M,OVC,M,M,M,1800.00,M,M,M,M,KCMI 080700Z AUTO 32013KT 10SM OVC018 A2978 RMK MADISHF
CMI,2017-02-08 07:05,M,M,M,320.00,15.00,M,29.78,M,10.00,M,OVC,M,M,M,1800.00,M,M,M,M,KCMI 080705Z AUTO 32015KT 10SM OVC018 A2978 RMK MADISHF
CMI,2017-02-08 07:10,M,M,M,310.00,14.00,M,29.79,M,10.00,M,OVC,M,M,M,1800.00,M,M,M,M,KCMI 080710Z AUTO 31014KT 10SM OVC018 A2979 RMK MADISHF
CMI,2017-02-08 07:15,M,M,M,320.00,13.00,M,29.79,M,10.00,M,OVC,M,M,M,1800.00,M,M,M,M,KCMI 080715Z AUTO 32013KT 10SM OVC018 A2979 RMK MADISHF
CMI,2017-02-08 07:20,M,M,M,320.00,13.00,M,29.79,M,10.00,M,OVC,M,M,M,1800.00,M,M,M,M,KCMI 080720Z AUTO 32013KT 10SM OVC018 A2979 RMK MADISHF
CMI,2017-02-08 07:25,M,M,M,320.00,11.00,M,29.78,M,10.00,M,OVC,M,M,M,1800.00,M,M,M,M,KCMI 080725Z AUTO 32011KT 10SM OVC018 A2978 RMK MADISHF
CMI,2017-02-08 07:30,M,M,M,320.00,11.00,M,29.78,M,10.00,M,OVC,M,M,M,1699.00,M,M,M,M,KCMI 080730Z AUTO 32011KT 10SM OVC016 A2978 RMK MADISHF
CMI,2017-02-08 07:35,M,M,M,330.00,10.00,M,29.78,M,10.00,M,OVC,M,M,M,1699.00,M,M,M,M,KCMI 080735Z AUTO 33010KT 10SM OVC016 A2978 RMK MADISHF
CMI,2017-02-08 07:40,M,M,M,320.00,13.00,M,29.78,M,10.00,M,OVC,M,M,M,1699.00,M,M,M,M,KCMI 080740Z AUTO 32013KT 10SM OVC016 A2978 RMK MADISHF
CMI,2017-02-08 07:45,M,M,M,320.00,12.00,M,29.78,M,10.00,M,OVC,M,M,M,1699.00,M,M,M,M,KCMI 080745Z AUTO 32012KT 10SM OVC016 A2978 RMK MADISHF
CMI,2017-02-08 07:50,M,M,M,330.00,13.00,M,29.78,M,10.00,M,OVC,M,M,M,1600.00,M,M,M,M,KCMI 080750Z AUTO 33013KT 10SM OVC016 A2978 RMK MADISHF
CMI,2017-02-08 07:53,32.00,25.00,75.07,330.00,13.00,0.00,29.79,1008.90,10.00,M,OVC,M,M,M,1600.00,M,M,M,M,KCMI 080753Z AUTO 33013KT 10SM OVC016 00/M04 A2979 RMK AO2 SLP089 T00001039
CMI,2017-02-08 07:55,M,M,M,330.00,15.00,M,29.79,M,10.00,M,OVC,M,M,M,1600.00,M,M,M,M,KCMI 080755Z AUTO 33015KT 10SM OVC016 A2979 RMK MADISHF
CMI,2017-02-08 08:00,M,M,M,320.00,14.00,M,29.80,M,10.00,M,OVC,M,M,M,1600.00,M,M,M,M,KCMI 080800Z AUTO 32014KT 10SM OVC016 A2980 RMK MADISHF
CMI,2017-02-08 08:05,M,M,M,320.00,13.00,M,29.80,M,10.00,M,OVC,M,M,M,1600.00,M,M,M,M,KCMI 080805Z AUTO 32013KT 10SM OVC016 A2980 RMK MADISHF
CMI,2017-02-08 08:10,M,M,M,330.00,12.00,M,29.80,M,10.00,M,OVC,M,M,M,1500.00,M,M,M,M,KCMI 080810Z AUTO 33012KT 10SM OVC015 A2980 RMK MADISHF
CMI,2017-02-08 08:15,M,M,M,330.00,12.00,M,29.80,M,10.00,M,OVC,M,M,M,1500.00,M,M,M,M,KCMI 080815Z AUTO 33012KT 10SM OVC015 A2980 RMK MADISHF
CMI,2017-02-08 08:20,M,M,M,330.00,12.00,M,29.79,M,10.00,M,OVC,M,M,M,1500.00,M,M,M,M,KCMI 080820Z AUTO 33012KT 10SM OVC015 A2979 RMK MADISHF
CMI,2017-02-08 08:25,M,M,M,330.00,12.00,M,29.81,M,10.00,M,OVC,M,M,M,1699.00,M,M,M,M,KCMI 080825Z AUTO 33012KT 10SM OVC016 A2981 RMK MADISHF
CMI,2017-02-08 08:30,M,M,M,330.00,11.00,M,29.82,M,10.00,M,OVC,M,M,M,1699.00,M,M,M,M,KCMI 080830Z AUTO 33011KT 10SM OVC016 A2982 RMK MADISHF
CMI,2017-02-08 08:35,M,M,M,330.00,13.00,M,29.82,M,10.00,M,OVC,M,M,M,1699.00,M,M,M,M,KCMI 080835Z AUTO 33013KT 10SM OVC016 A2982 RMK MADISHF
CMI,2017-02-08 08:40,M,M,M,330.00,13.00,M,29.82,M,10.00,M,OVC,M,M,M,1699.00,M,M,M,M,KCMI 080840Z AUTO 33013KT 10SM OVC016 A2982 RMK MADISHF
CMI,2017-02-08 08:45,M,M,M,320.00,11.00,M,29.83,M,10.00,M,OVC,M,M,M,1699.00,M,M,M,M,KCMI 080845Z AUTO 32011KT 10SM OVC016 A2983 RMK MADISHF
CMI,2017-02-08 08:50,M,M,M,310.00,12.00,M,29.83,M,10.00,M,OVC,M,M,M,1699.00,M,M,M,M,KCMI 080850Z AUTO 31012KT 10SM OVC016 A2983 RMK MADISHF
CMI,2017-02-08 08:53,30.90,25.00,78.48,320.00,15.00,0.00,29.84,1010.70,10.00,M,OVC,M,M,M,1500.00,M,M,M,M,KCMI 080853Z AUTO 32015KT 10SM OVC015 M01/M04 A2984 RMK AO2 SLP107 T10061039 53025
CMI,2017-02-08 08:55,M,M,M,M,M,M,29.83,M,10.00,M,OVC,M,M,M,1500.00,M,M,M,M,KCMI 080855Z AUTO /////KT 10SM OVC015 A2983 RMK MADISHF
CMI,2017-02-08 09:00,M,M,M,320.00,15.00,M,29.84,M,10.00,M,OVC,M,M,M,1500.00,M,M,M,M,KCMI 080900Z AUTO 32015KT 10SM OVC015 A2984 RMK MADISHF
CMI,2017-02-08 09:05,M,M,M,320.00,11.00,M,29.84,M,10.00,M,OVC,M,M,M,1500.00,M,M,M,M,KCMI 080905Z AUTO 32011KT 10SM OVC015 A2984 RMK MADISHF
CMI,2017-02-08 09:10,M,M,M,320.00,13.00,M,29.83,M,10.00,M,OVC,M,M,M,1500.00,M,M,M,M,KCMI 080910Z AUTO 32013KT 10SM OVC015 A2983 RMK MADISHF
CMI,2017-02-08 09:15,M,M,M,330.00,13.00,M,29.82,M,10.00,M,OVC,M,M,M,1500.00,M,M,M,M,KCMI 080915Z AUTO 33013KT 10SM OVC015 A2982 RMK MADISHF
CMI,2017-02-08 09:20,M,M,M,350.00,10.00,M,29.81,M,10.00,M,OVC,M,M,M,1400.00,M,M,M,M,KCMI 080920Z AUTO 35010KT 10SM OVC014 A2981 RMK MADISHF
CMI,2017-02-08 09:25,M,M,M,350.00,13.00,M,29.81,M,10.00,M,OVC,M,M,M,1400.00,M,M,M,M,KCMI 080925Z AUTO 35013KT 10SM OVC014 A2981 RMK MADISHF
CMI,2017-02-08 09:26,30.90,24.10,75.59,350.00,12.00,0.00,29.81,M,10.00,M,OVC,M,M,M,1400.00,M,M,M,M,KCMI 080926Z AUTO 35012KT 10SM OVC014 M01/M04 A2981 RMK AO2 T10061044
CMI,2017-02-08 09:30,M,M,M,350.00,9.00,M,29.81,M,10.00,M,OVC,M,M,M,1400.00,M,M,M,M,KCMI 080930Z AUTO 35009KT 10SM OVC014 A2981 RMK MADISHF
CMI,2017-02-08 09:35,M,M,M,340.00,11.00,M,29.82,M,10.00,M,OVC,M,M,M,1400.00,M,M,M,M,KCMI 080935Z AUTO 34011KT 10SM OVC014 A2982 RMK MADISHF
CMI,2017-02-08 09:40,M,M,M,350.00,11.00,M,29.81,M,10.00,M,OVC,M,M,M,1400.00,M,M,M,M,KCMI 080940Z AUTO 35011KT 10SM OVC014 A2981 RMK MADISHF
CMI,2017-02-08 09:45,M,M,M,350.00,11.00,M,29.81,M,10.00,M,OVC,M,M,M,1400.00,M,M,M,M,KCMI 080945Z AUTO 35011KT 10SM OVC014 A2981 RMK MADISHF
CMI,2017-02-08 09:50,M,M,M,10.00,13.00,M,29.80,M,10.00,M,OVC,M,M,M,1400.00,M,M,M,M,KCMI 080950Z AUTO 01013KT 10SM OVC014 A2980 RMK MADISHF
CMI,2017-02-08 09:53,30.90,24.10,75.59,360.00,11.00,0.00,29.80,1009.40,10.00,M,OVC,M,M,M,1500.00,M,M,M,M,KCMI 080953Z AUTO 36011KT 10SM OVC015 M01/M04 A2980 RMK AO2 SLP094 T10061044
CMI,2017-02-08 09:55,M,M,M,360.00,13.00,M,29.80,M,10.00,M,OVC,M,M,M,1500.00,M,M,M,M,KCMI 080955Z AUTO 36013KT 10SM OVC015 A2980 RMK MADISHF
CMI,2017-02-08 10:00,M,M,M,350.00,12.00,M,29.80,M,10.00,M,OVC,M,M,M,1500.00,M,M,M,M,KCMI 081000Z AUTO 35012KT 10SM OVC015 A2980 RMK MADISHF
CMI,2017-02-08 10:05,M,M,M,360.00,12.00,M,29.80,M,10.00,M,OVC,M,M,M,1500.00,M,M,M,M,KCMI 081005Z AUTO 36012KT 10SM OVC015 A2980 RMK MADISHF
CMI,2017-02-08 10:10,M,M,M,350.00,12.00,M,29.80,M,10.00,M,OVC,M,M,M,1400.00,M,M,M,M,KCMI 081010Z AUTO 35012KT 10SM OVC014 A2980 RMK MADISHF
CMI,2017-02-08 10:15,30.90,24.10,75.59,350.00,12.00,0.00,29.80,M,10.00,M,OVC,M,M,M,1400.00,M,M,M,M,KCMI 081015Z AUTO 35012KT 10SM OVC014 M01/M04 A2980 RMK AO2 T10061044
CMI,2017-02-08 10:20,M,M,M,360.00,9.00,M,29.78,M,10.00,M,OVC,M,M,M,1400.00,M,M,M,M,KCMI 081020Z AUTO 36009KT 10SM OVC014 A2978 RMK MADISHF
CMI,2017-02-08 10:25,M,M,M,20.00,10.00,M,29.78,M,10.00,M,OVC,M,M,M,1400.00,M,M,M,M,KCMI 081025Z AUTO 02010KT 10SM OVC014 A2978 RMK MADISHF
CMI,2017-02-08 10:30,M,M,M,10.00,8.00,M,29.79,M,10.00,M,OVC,M,M,M,1400.00,M,M,M,M,KCMI 081030Z AUTO 01008KT 10SM OVC014 A2979 RMK MADISHF
CMI,2017-02-08 10:35,M,M,M,350.00,8.00,M,29.81,M,10.00,M,OVC,M,M,M,1400.00,M,M,M,M,KCMI 081035Z AUTO 35008KT 10SM OVC014 A2981 RMK MADISHF
CMI,2017-02-08 10:40,M,M,M,330.00,9.00,M,29.82,M,10.00,M,OVC,M,M,M,1400.00,M,M,M,M,KCMI 081040Z AUTO 33009KT 10SM OVC014 A2982 RMK MADISHF
CMI,2017-02-08 10:45,M,M,M,320.00,9.00,M,29.83,M,10.00,M,OVC,M,M,M,1400.00,M,M,M,M,KCMI 081045Z AUTO 32009KT 10SM OVC014 A2983 RMK MADISHF
CMI,2017-02-08 10:50,M,M,M,300.00,10.00,M,29.84,M,10.00,M,OVC,M,M,M,1400.00,M,M,M,M,KCMI 081050Z AUTO 30010KT 10SM OVC014 A2984 RMK MADISHF
CMI,2017-02-08 10:53,30.90,25.00,78.48,300.00,10.00,0.00,29.85,1011.20,10.00,M,OVC,M,M,M,1400.00,M,M,M,M,KCMI 081053Z AUTO 30010KT 10SM OVC014 M01/M04 A2985 RMK AO2 PRESRR SLP112 T10061039
CMI,2017-02-08 10:55,M,M,M,300.00,10.00,M,29.85,M,10.00,M,OVC,M,M,M,1400.00,M,M,M,M,KCMI 081055Z AUTO 30010KT 10SM OVC014 A2985 RMK MADISHF
CMI,2017-02-08 11:00,M,M,M,300.00,9.00,M,29.85,M,10.00,M,OVC,M,M,M,1400.00,M,M,M,M,KCMI 081100Z AUTO 30009KT 10SM OVC014 A2985 RMK MADISHF
CMI,2017-02-08 11:05,M,M,M,310.00,9.00,M,29.84,M,10.00,M,OVC,M,M,M,1500.00,M,M,M,M,KCMI 081105Z AUTO 31009KT 10SM OVC015 A2984 RMK MADISHF
CMI,2017-02-08 11:10,M,M,M,320.00,9.00,M,29.85,M,10.00,M,OVC,M,M,M,1500.00,M,M,M,M,KCMI 081110Z AUTO 32009KT 10SM OVC015 A2985 RMK MADISHF
CMI,2017-02-08 11:11,30.90,24.10,75.59,320.00,9.00,0.00,29.85,M,10.00,M,OVC,M,M,M,1500.00,M,M,M,M,KCMI 081111Z AUTO 32009KT 10SM OVC015 M01/M04 A2985 RMK AO2 T10061044
CMI,2017-02-08 11:15,M,M,M,320.00,9.00,M,29.85,M,10.00,M,OVC,M,M,M,1500.00,M,M,M,M,KCMI 081115Z AUTO 32009KT 10SM OVC015 A2985 RMK MADISHF
CMI,2017-02-08 11:20,M,M,M,320.00,8.00,M,29.85,M,10.00,M,OVC,M,M,M,1500.00,M,M,M,M,KCMI 081120Z AUTO 32008KT 10SM OVC015 A2985 RMK MADISHF
CMI,2017-02-08 11:25,M,M,M,320.00,9.00,M,29.86,M,10.00,M,OVC,M,M,M,1500.00,M,M,M,M,KCMI 081125Z AUTO 32009KT 10SM OVC015 A2986 RMK MADISHF
CMI,2017-02-08 11:30,M,M,M,310.00,10.00,M,29.86,M,10.00,M,OVC,M,M,M,1500.00,M,M,M,M,KCMI 081130Z AUTO 31010KT 10SM OVC015 A2986 RMK MADISHF
CMI,2017-02-08 11:35,M,M,M,340.00,10.00,M,29.85,M,10.00,M,OVC,M,M,M,1600.00,M,M,M,M,KCMI 081135Z AUTO 34010KT 10SM OVC016 A2985 RMK MADISHF
CMI,2017-02-08 11:40,M,M,M,340.00,11.00,M,29.85,M,10.00,M,OVC,M,M,M,1600.00,M,M,M,M,KCMI 081140Z AUTO 34011KT 10SM OVC016 A2985 RMK MADISHF
CMI,2017-02-08 11:45,M,M,M,330.00,10.00,M,29.85,M,10.00,M,OVC,M,M,M,1500.00,M,M,M,M,KCMI 081145Z AUTO 33010KT 10SM OVC015 A2985 RMK MADISHF
CMI,2017-02-08 11:50,M,M,M,330.00,13.00,M,29.85,M,10.00,M,OVC,M,M,M,1500.00,M,M,M,M,KCMI 081150Z AUTO 33013KT 10SM OVC015 A2985 RMK MADISHF
CMI,2017-02-08 11:53,30.90,24.10,75.59,340.00,13.00,0.00,29.86,1011.50,10.00,M,OVC,M,M,M,1500.00,M,M,M,M,KCMI 081153Z 34013KT 10SM OVC015 M01/M04 A2986 RMK AO2 SLP115 70001 T10061044 10000 21006 53007
CMI,2017-02-08 11:55,M,M,M,340.00,11.00,M,29.86,M,10.00,M,OVC,M,M,M,1500.00,M,M,M,M,KCMI 081155Z AUTO 34011KT 10SM OVC015 A2986 RMK MADISHF
CMI,2017-02-08 12:00,M,M,M,330.00,10.00,M,29.86,M,10.00,M,OVC,M,M,M,1500.00,M,M,M,M,KCMI 081200Z AUTO 33010KT 10SM OVC015 A2986 RMK MADISHF
CMI,2017-02-08 12:05,M,M,M,340.00,9.00,M,29.86,M,10.00,M,OVC,M,M,M,1500.00,M,M,M,M,KCMI 081205Z AUTO 34009KT 10SM OVC015 A2986 RMK MADISHF
CMI,2017-02-08 12:10,M,M,M,340.00,11.00,M,29.86,M,10.00,M,OVC,M,M,M,1500.00,M,M,M,M,KCMI 081210Z AUTO 34011KT 10SM OVC015 A2986 RMK MADISHF
CMI,2017-02-08 12:15,M,M,M,340.00,10.00,M,29.86,M,10.00,M,OVC,M,M,M,1500.00,M,M,M,M,KCMI 081215Z AUTO 34010KT 10SM OVC015 A2986 RMK MADISHF
CMI,2017-02-08 12:20,M,M,M,350.00,9.00,M,29.85,M,10.00,M,OVC,M,M,M,1500.00,M,M,M,M,KCMI 081220Z AUTO 35009KT 10SM OVC015 A2985 RMK MADISHF
CMI,2017-02-08 12:25,M,M,M,350.00,7.00,M,29.85,M,10.00,M,OVC,M,M,M,1500.00,M,M,M,M,KCMI 081225Z AUTO 35007KT 10SM OVC015 A2985 RMK MADISHF
CMI,2017-02-08 12:30,M,M,M,350.00,6.00,M,29.86,M,10.00,M,OVC,M,M,M,1500.00,M,M,M,M,KCMI 081230Z AUTO 35006KT 10SM OVC015 A2986 RMK MADISHF
CMI,2017-02-08 12:35,M,M,M,340.00,6.00,M,29.86,M,10.00,M,OVC,M,M,M,1500.00,M,M,M,M,KCMI 081235Z AUTO 34006KT 10SM OVC015 A2986 RMK MADISHF
CMI,2017-02-08 12:40,M,M,M,350.00,8.00,M,29.87,M,10.00,M,OVC,M,M,M,1500.00,M,M,M,M,KCMI 081240Z AUTO 35008KT 10SM OVC015 A2987 RMK MADISHF
CMI,2017-02-08 12:45,M,M,M,340.00,9.00,M,29.87,M,10.00,M,OVC,M,M,M,1500.00,M,M,M,M,KCMI 081245Z AUTO 34009KT 10SM OVC015 A2987 RMK MADISHF
CMI,2017-02-08 12:50,M,M,M,350.00,9.00,M,29.86,M,10.00,M,OVC,M,M,M,1500.00,M,M,M,M,KCMI 081250Z AUTO 35009KT 10SM OVC015 A2986 RMK MADISHF
CMI,2017-02-08 12:53,30.00,24.10,78.40,350.00,10.00,0.00,29.86,1011.60,10.00,M,OVC,M,M,M,1500.00,M,M,M,M,KCMI 081253Z 35010KT 10SM OVC015 M01/M04 A2986 RMK AO2 SLP116 T10111044
CMI,2017-02-08 12:55,M,M,M,350.00,9.00,M,29.86,M,10.00,M,OVC,M,M,M,1699.00,M,M,M,M,KCMI 081255Z AUTO 35009KT 10SM OVC016 A2986 RMK MADISHF
CMI,2017-02-08 13:00,M,M,M,360.00,9.00,M,29.86,M,10.00,M,OVC,M,M,M,1699.00,M,M,M,M,KCMI 081300Z AUTO 36009KT 10SM OVC016 A2986 RMK MADISHF
CMI,2017-02-08 13:05,M,M,M,360.00,7.00,M,29.85,M,10.00,M,OVC,M,M,M,1699.00,M,M,M,M,KCMI 081305Z AUTO 36007KT 10SM OVC016 A2985 RMK MADISHF
CMI,2017-02-08 13:10,M,M,M,10.00,8.00,M,29.85,M,10.00,M,OVC,M,M,M,1699.00,M,M,M,M,KCMI 081310Z AUTO 01008KT 10SM OVC016 A2985 RMK MADISHF
CMI,2017-02-08 13:15,M,M,M,360.00,9.00,M,29.85,M,10.00,M,OVC,M,M,M,1699.00,M,M,M,M,KCMI 081315Z AUTO 36009KT 10SM OVC016 A2985 RMK MADISHF
CMI,2017-02-08 13:20,M,M,M,340.00,7.00,M,29.86,M,10.00,M,BKN,OVC,M,M,1500.00,1999.00,M,M,M,KCMI 081320Z AUTO 34007KT 10SM BKN015 OVC019 A2986 RMK MADISHF
CMI,2017-02-08 13:25,M,M,M,360.00,7.00,M,29.85,M,10.00,M,OVC,M,M,M,1500.00,M,M,M,M,KCMI 081325Z AUTO 36007KT 10SM OVC015 A2985 RMK MADISHF
CMI,2017-02-08 13:30,M,M,M,20.00,6.00,M,29.86,M,10.00,M,OVC,M,M,M,1500.00,M,M,M,M,KCMI 081330Z AUTO 02006KT 10SM OVC015 A2986 RMK MADISHF
CMI,2017-02-08 13:35,M,M,M,350.00,5.00,M,29.87,M,10.00,M,OVC,M,M,M,1500.00,M,M,M,M,KCMI 081335Z AUTO 35005KT 10SM OVC015 A2987 RMK MADISHF
CMI,2017-02-08 13:40,M,M,M,360.00,5.00,M,29.86,M,10.00,M,OVC,M,M,M,1500.00,M,M,M,M,KCMI 081340Z AUTO 36005KT 10SM OVC015 A2986 RMK MADISHF
CMI,2017-02-08 13:45,M,M,M,30.00,5.00,M,29.86,M,10.00,M,BKN,OVC,M,M,1500.00,11000.00,M,M,M,KCMI 081345Z AUTO 03005KT 10SM BKN015 OVC110 A2986 RMK MADISHF
CMI,2017-02-08 13:50,M,M,M,30.00,6.00,M,29.86,M,10.00,M,BKN,OVC,M,M,1500.00,11000.00,M,M,M,KCMI 081350Z AUTO 03006KT 10SM BKN015 OVC110 A2986 RMK MADISHF
CMI,2017-02-08 13:53,30.90,24.10,75.59,40.00,7.00,0.00,29.85,1011.40,10.00,M,BKN,OVC,M,M,1500.00,11000.00,M,M,M,KCMI 081353Z 04007KT 10SM BKN015 OVC110 M01/M04 A2985 RMK AO2 SLP114 T10061044
CMI,2017-02-08 13:55,M,M,M,30.00,8.00,M,29.85,M,10.00,M,BKN,OVC,M,M,1500.00,11000.00,M,M,M,KCMI 081355Z AUTO 03008KT 10SM BKN015 OVC110 A2985 RMK MADISHF
CMI,2017-02-08 14:00,M,M,M,30.00,10.00,M,29.84,M,10.00,M,BKN,OVC,M,M,1500.00,11000.00,M,M,M,KCMI 081400Z AUTO 03010KT 10SM BKN015 OVC110 A2984 RMK MADISHF
CMI,2017-02-08 14:05,M,M,M,60.00,8.00,M,29.84,M,10.00,M,BKN,OVC,M,M,1500.00,11000.00,M,M,M,KCMI 081405Z AUTO 06008KT 10SM BKN015 OVC110 A2984 RMK MADISHF
CMI,2017-02-08 14:10,M,M,M,30.00,13.00,M,29.83,M,10.00,M,BKN,OVC,M,M,1500.00,11000.00,M,M,M,KCMI 081410Z AUTO 03013KT 10SM BKN015 OVC110 A2983 RMK MADISHF
CMI,2017-02-08 14:15,M,M,M,30.00,9.00,M,29.83,M,10.00,M,BKN,OVC,M,M,1500.00,11000.00,M,M,M,KCMI 081415Z AUTO 03009KT 10SM BKN015 OVC110 A2983 RMK MADISHF
CMI,2017-02-08 14:20,M,M,M,40.00,11.00,M,29.82,M,10.00,M,BKN,OVC,M,M,1500.00,11000.00,M,M,M,KCMI 081420Z AUTO 04011KT 10SM BKN015 OVC110 A2982 RMK MADISHF
CMI,2017-02-08 14:25,M,M,M,40.00,12.00,M,29.82,M,10.00,M,FEW,OVC,M,M,1500.00,11000.00,M,M,M,KCMI 081425Z AUTO 04012KT 10SM FEW015 OVC110 A2982 RMK MADISHF
CMI,2017-02-08 14:28,30.90,25.00,78.48,40.00,14.00,0.00,29.81,M,10.00,M,BKN,OVC,M,M,10000.00,12000.00,M,M,M,KCMI 081428Z 04014KT 10SM BKN100 OVC120 M01/M04 A2981 RMK AO2 PRESFR T10061039
CMI,2017-02-08 14:30,M,M,M,40.00,15.00,M,29.81,M,10.00,M,OVC,M,M,M,10000.00,M,M,M,M,KCMI 081430Z AUTO 04015KT 10SM OVC100 A2981 RMK MADISHF
CMI,2017-02-08 14:35,M,M,M,30.00,14.00,M,29.81,M,10.00,M,OVC,M,M,M,11000.00,M,M,M,M,KCMI 081435Z AUTO 03014KT 10SM OVC110 A2981 RMK MADISHF
CMI,2017-02-08 14:40,M,M,M,40.00,14.00,M,29.81,M,10.00,M,OVC,M,M,M,10000.00,M,M,M,M,KCMI 081440Z AUTO 04014KT 10SM OVC100 A2981 RMK MADISHF
CMI,2017-02-08 14:45,M,M,M,30.00,13.00,M,29.83,M,10.00,M,OVC,M,M,M,10000.00,M,M,M,M,KCMI 081445Z AUTO 03013KT 10SM OVC100 A2983 RMK MADISHF
CMI,2017-02-08 14:50,M,M,M,20.00,12.00,M,29.84,M,10.00,M,OVC,M,M,M,10000.00,M,M,M,M,KCMI 081450Z AUTO 02012KT 10SM OVC100 A2984 RMK MADISHF
CMI,2017-02-08 14:53,32.00,25.00,75.07,20.00,10.00,0.00,29.85,1011.40,10.00,M,OVC,M,M,M,10000.00,M,M,M,M,KCMI 081453Z 02010KT 10SM OVC100 00/M04 A2985 RMK AO2 PRESRR SLP114 T00001039 58003
CMI,2017-02-08 14:55,M,M,M,10.00,12.00,M,29.86,M,10.00,M,OVC,M,M,M,10000.00,M,M,M,M,KCMI 081455Z AUTO 01012KT 10SM OVC100 A2986 RMK MADISHF
CMI,2017-02-08 15:00,M,M,M,10.00,9.00,M,29.87,M,10.00,M,FEW,OVC,M,M,6000.00,10000.00,M,M,M,KCMI 081500Z AUTO 01009KT 10SM FEW060 OVC100 A2987 RMK MADISHF
CMI,2017-02-08 15:05,M,M,M,360.00,9.00,M,29.88,M,10.00,M,FEW,OVC,M,M,6000.00,10000.00,M,M,M,KCMI 081505Z AUTO 36009KT 10SM FEW060 OVC100 A2988 RMK MADISHF
CMI,2017-02-08 15:10,M,M,M,10.00,8.00,M,29.87,M,10.00,M,FEW,OVC,M,M,6000.00,10000.00,M,M,M,KCMI 081510Z AUTO 01008KT 10SM FEW060 OVC100 A2987 RMK MADISHF
CMI,2017-02-08 15:15,M,M,M,20.00,10.00,M,29.87,M,10.00,M,FEW,BKN,M,M,6000.00,10000.00,M,M,M,KCMI 081515Z AUTO 02010KT 10SM FEW060 BKN100 A2987 RMK MADISHF
CMI,2017-02-08 15:20,M,M,M,10.00,9.00,M,29.87,M,10.00,M,FEW,BKN,BKN,M,6000.00,10000.00,12000.00,M,M,KCMI 081520Z AUTO 01009KT 10SM FEW060 BKN100 BKN120 A2987 RMK MADISHF
CMI,2017-02-08 15:25,M,M,M,30.00,9.00,M,29.87,M,10.00,M,FEW,SCT,BKN,M,6000.00,10000.00,12000.00,M,M,KCMI 081525Z AUTO 03009KT 10SM FEW060 SCT100 BKN120 A2987 RMK MADISHF
CMI,2017-02-08 15:30,M,M,M,350.00,8.00,M,29.89,M,10.00,M,FEW,SCT,BKN,M,6000.00,10000.00,12000.00,M,M,KCMI 081530Z AUTO 35008KT 10SM FEW060 SCT100 BKN120 A2989 RMK MADISHF
CMI,2017-02-08 15:35,M,M,M,30.00,11.00,M,29.87,M,10.00,M,FEW,BKN,BKN,M,7500.00,10000.00,12000.00,M,M,KCMI 081535Z AUTO 03011KT 10SM FEW075 BKN100 BKN120 A2987 RMK MADISHF
CMI,2017-02-08 15:40,M,M,M,40.00,10.00,M,29.86,M,10.00,M,FEW,BKN,BKN,M,6500.00,9000.00,11000.00,M,M,KCMI 081540Z AUTO 04010KT 10SM FEW065 BKN090 BKN110 A2986 RMK MADISHF
CMI,2017-02-08 15:45,M,M,M,50.00,10.00,M,29.85,M,10.00,M,FEW,BKN,BKN,M,7000.00,9500.00,12000.00,M,M,KCMI 081545Z AUTO 05010KT 10SM FEW070 BKN095 BKN120 A2985 RMK MADISHF
CMI,2017-02-08 15:50,M,M,M,20.00,4.00,M,29.90,M,10.00,M,FEW,BKN,BKN,M,6000.00,9000.00,11000.00,M,M,KCMI 081550Z AUTO 02004KT 10SM FEW060 BKN090 BKN110 A2990 RMK VRB04KT  MADISHF
CMI,2017-02-08 15:53,33.10,24.10,69.17,M,5.00,0.00,29.91,1013.60,10.00,M,FEW,SCT,BKN,M,3200.00,7500.00,9000.00,M,M,KCMI 081553Z VRB05KT 10SM FEW032 SCT075 BKN090 01/M04 A2991 RMK AO2 PRESRR SLP136 T00061044
CMI,2017-02-08 15:55,M,M,M,360.00,6.00,M,29.91,M,10.00,M,SCT,BKN,OVC,M,3200.00,9000.00,11000.00,M,M,KCMI 081555Z AUTO 36006KT 10SM SCT032 BKN090 OVC110 A2991 RMK MADISHF
CMI,2017-02-08 16:00,M,M,M,20.00,7.00,M,29.90,M,10.00,M,BKN,BKN,OVC,M,3200.00,6000.00,9000.00,M,M,KCMI 081600Z AUTO 02007KT 10SM BKN032 BKN060 OVC090 A2990 RMK MADISHF
CMI,2017-02-08 16:05,M,M,M,360.00,6.00,M,29.91,M,10.00,M,BKN,BKN,OVC,M,3200.00,9000.00,11000.00,M,M,KCMI 081605Z AUTO 36006KT 10SM BKN032 BKN090 OVC110 A2991 RMK MADISHF
CMI,2017-02-08 16:10,M,M,M,10.00,8.00,M,29.91,M,10.00,M,BKN,OVC,M,M,3200.00,9000.00,M,M,M,KCMI 081610Z AUTO 01008KT 10SM BKN032 OVC090 A2991 RMK MADISHF
CMI,2017-02-08 16:15,M,M,M,30.00,9.00,M,29.90,M,10.00,M,OVC,M,M,M,3200.00,M,M,M,M,KCMI 081615Z AUTO 03009KT 10SM OVC032 A2990 RMK MADISHF
CMI,2017-02-08 16:20,M,M,M,10.00,7.00,M,29.91,M,10.00,M,OVC,M,M,M,3100.00,M,M,M,M,KCMI 081620Z AUTO 01007KT 10SM OVC031 A2991 RMK MADISHF
CMI,2017-02-08 16:25,M,M,M,30.00,7.00,M,29.91,M,10.00,M,OVC,M,M,M,3100.00,M,M,M,M,KCMI 081625Z AUTO 03007KT 10SM OVC031 A2991 RMK MADISHF
CMI,2017-02-08 16:30,M,M,M,10.00,5.00,M,29.92,M,10.00,M,OVC,M,M,M,3100.00,M,M,M,M,KCMI 081630Z AUTO 01005KT 10SM OVC031 A2992 RMK MADISHF
CMI,2017-02-08 16:35,M,M,M,20.00,8.00,M,29.91,M,10.00,M,FEW,OVC,M,M,2200.00,3100.00,M,M,M,KCMI 081635Z AUTO 02008KT 10SM FEW022 OVC031 A2991 RMK MADISHF
CMI,2017-02-08 16:40,M,M,M,360.00,7.00,M,29.91,M,10.00,M,FEW,OVC,M,M,2200.00,3100.00,M,M,M,KCMI 081640Z AUTO 36007KT 10SM FEW022 OVC031 A2991 RMK MADISHF
CMI,2017-02-08 16:45,M,M,M,360.00,10.00,M,29.91,M,10.00,M,SCT,OVC,M,M,2200.00,3100.00,M,M,M,KCMI 081645Z AUTO 36010KT 10SM SCT022 OVC031 A2991 RMK MADISHF
CMI,2017-02-08 16:50,M,M,M,360.00,8.00,M,29.92,M,10.00,M,BKN,OVC,M,M,2200.00,3100.00,M,M,M,KCMI 081650Z AUTO 36008KT 10SM BKN022 OVC031 A2992 RMK MADISHF
CMI,2017-02-08 16:53,33.10,25.00,71.82,350.00,10.00,0.00,29.91,1013.70,9.00,M,BKN,OVC,M,M,2000.00,3100.00,M,M,-SN,KCMI 081653Z 35010KT 9SM -SN BKN020 OVC031 01/M04 A2991 RMK AO2 SNB51 SLP137 P0000 T00061039
CMI,2017-02-08 16:55,M,M,M,350.00,9.00,M,29.91,M,8.00,M,BKN,OVC,M,M,1999.00,3100.00,M,M,-SN,KCMI 081655Z AUTO 35009KT 8SM -SN BKN019 OVC031 A2991 RMK MADISHF
CMI,2017-02-08 17:00,M,M,M,350.00,11.00,M,29.92,M,5.00,M,BKN,BKN,OVC,M,1699.00,2200.00,3100.00,M,-SN,KCMI 081700Z AUTO 35011KT 5SM -SN BKN016 BKN022 OVC031 A2992 RMK MADISHF
CMI,2017-02-08 17:05,M,M,M,340.00,12.00,M,29.92,M,4.00,M,OVC,M,M,M,1900.00,M,M,M,-SN,KCMI 081705Z AUTO 34012KT 4SM -SN OVC019 A2992 RMK MADISHF
CMI,2017-02-08 17:10,M,M,M,340.00,12.00,M,29.93,M,4.00,M,FEW,OVC,M,M,1100.00,1900.00,M,M,-SN,KCMI 081710Z AUTO 34012KT 4SM -SN FEW011 OVC019 A2993 RMK MADISHF
CMI,2017-02-08 17:15,M,M,M,340.00,13.00,M,29.93,M,4.00,M,FEW,OVC,M,M,1100.00,1900.00,M,M,-SN,KCMI 081715Z AUTO 34013KT 4SM -SN FEW011 OVC019 A2993 RMK MADISHF
CMI,2017-02-08 17:20,M,M,M,350.00,12.00,M,29.92,M,3.50,M,SCT,OVC,M,M,1100.00,1699.00,M,M,-SN BR,KCMI 081720Z AUTO 35012KT 3SM -SN BR SCT011 OVC016 A2992 RMK MADISHF
CMI,2017-02-08 17:25,M,M,M,350.00,12.00,M,29.92,M,2.50,M,SCT,OVC,M,M,1100.00,1699.00,M,M,-SN BR,KCMI 081725Z AUTO 35012KT 2 1/2SM -SN BR SCT011 OVC016 A2992 RMK MADISHF
CMI,2017-02-08 17:27,30.90,27.00,85.26,350.00,11.00,0.00,29.92,M,2.00,M,SCT,OVC,M,M,900.00,1500.00,M,M,-SN BR,KCMI 081727Z 35011KT 2SM -SN BR SCT009 OVC015 M01/M03 A2992 RMK AO2 TWR VIS 2 1/2 P0000 T10061028
CMI,2017-02-08 17:30,M,M,M,350.00,9.00,M,29.92,M,1.25,M,FEW,BKN,OVC,M,900.00,1500.00,1999.00,M,-SN BR,KCMI 081730Z AUTO 35009KT 1 1/2SM -SN BR FEW009 BKN015 OVC019 A2992 RMK MADISHF
CMI,2017-02-08 17:32,30.90,27.00,85.26,350.00,10.00,0.00,29.91,M,1.00,M,BKN,OVC,M,M,900.00,1700.00,M,M,-SN BR,KCMI 081732Z 35010KT 1SM R32R/5000VP6000FT -SN BR BKN009 OVC017 M01/M03 A2991 RMK AO2 TWR VIS 1 1/4 P0000 T10061028
CMI,2017-02-08 17:35,M,M,M,350.00,11.00,M,29.91,M,0.75,M,BKN,OVC,M,M,900.00,1699.00,M,M,-SN BR,KCMI 081735Z AUTO 35011KT 1SM -SN BR BKN009 OVC016 A2991 RMK MADISHF
CMI,2017-02-08 17:39,30.90,27.00,85.26,350.00,13.00,0.00,29.91,M,0.75,M,BKN,OVC,M,M,900.00,1500.00,M,M,-SN BR,KCMI 081739Z 35013KT 3/4SM R32R/5000VP6000FT -SN BR BKN009 OVC015 M01/M03 A2991 RMK AO2 TWR VIS 1 1/4 P0000 T10061028
CMI,2017-02-08 17:40,M,M,M,360.00,12.00,M,29.91,M,0.75,M,BKN,OVC,M,M,900.00,1500.00,M,M,-SN BR,KCMI 081740Z AUTO 36012KT 1SM -SN BR BKN009 OVC015 A2991 RMK MADISHF
CMI,2017-02-08 17:45,M,M,M,360.00,10.00,M,29.91,M,1.25,M,BKN,OVC,M,M,700.00,1500.00,M,M,-SN BR,KCMI 081745Z AUTO 36010KT 1 1/2SM -SN BR BKN007 OVC015 A2991 RMK MADISHF
CMI,2017-02-08 17:48,30.20,28.40,92.92,350.00,11.00,0.00,29.91,M,1.50,M,BKN,OVC,M,M,700.00,1500.00,M,M,-SN BR,KCMI 081748Z 35011KT 1 1/2SM -SN BR BKN007 OVC015 M01/M02 A2991 RMK AO2 TWR VIS 3 P0000
CMI,2017-02-08 17:50,M,M,M,350.00,11.00,M,29.91,M,1.75,M,BKN,OVC,M,M,700.00,1500.00,M,M,-SN BR,KCMI 081750Z AUTO 35011KT 2SM -SN BR BKN007 OVC015 A2991 RMK MADISHF
CMI,2017-02-08 17:53,30.90,27.00,85.26,360.00,10.00,0.00,29.91,1013.60,2.00,M,BKN,OVC,M,M,700.00,1300.00,M,M,-SN BR,KCMI 081753Z 36010KT 2SM -SN BR BKN007 OVC013 M01/M03 A2991 RMK AO2 TWR VIS 3 SLP136 P0000 60000 T10061028 10011 21011 55001
CMI,2017-02-08 17:55,M,M,M,360.00,11.00,M,29.91,M,2.50,M,BKN,OVC,M,M,700.00,1300.00,M,M,-SN BR,KCMI 081755Z AUTO 36011KT 2 1/2SM -SN BR BKN007 OVC013 A2991 RMK MADISHF
CMI,2017-02-08 18:00,M,M,M,360.00,15.00,M,29.91,M,4.00,M,OVC,M,M,M,700.00,M,M,M,-SN BR,KCMI 081800Z AUTO 36015KT 4SM -SN BR OVC007 A2991 RMK MADISHF
CMI,2017-02-08 18:02,30.90,27.00,85.26,360.00,13.00,0.00,29.91,M,4.00,M,OVC,M,M,M,700.00,M,M,M,-SN BR,KCMI 081802Z 36013KT 4SM -SN BR OVC007 M01/M03 A2991 RMK AO2 P0000 T10061028
CMI,2017-02-08 18:05,M,M,M,360.00,12.00,M,29.91,M,5.00,M,OVC,M,M,M,700.00,M,M,M,-SN BR,KCMI 081805Z AUTO 36012KT 5SM -SN BR OVC007 A2991 RMK MADISHF
CMI,2017-02-08 18:10,M,M,M,360.00,13.00,0.00,29.90,M,5.00,M,OVC,M,M,M,800.00,M,M,M,UP BR,KCMI 081810Z AUTO 36013KT 5SM UP BR OVC008 A2990 RMK P0000 MADISHF
CMI,2017-02-08 18:15,M,M,M,10.00,14.00,0.00,29.90,M,5.00,M,OVC,M,M,M,800.00,M,M,M,UP BR,KCMI 081815Z AUTO 01014KT 5SM UP BR OVC008 A2990 RMK P0000 CIG 6V10  MADISHF
CMI,2017-02-08 18:20,M,M,M,360.00,15.00,M,29.90,M,5.00,M,OVC,M,M,M,800.00,M,M,M,-SN BR,KCMI 081820Z AUTO 36015KT 5SM -SN BR OVC008 A2990 RMK CIG 6V12  MADISHF
CMI,2017-02-08 18:25,M,M,M,360.00,13.00,M,29.90,M,5.00,M,BKN,OVC,M,M,800.00,6500.00,M,M,-SN BR,KCMI 081825Z AUTO 36013KT 5SM -SN BR BKN008 OVC065 A2990 RMK CIG 6V12  MADISHF
CMI,2017-02-08 18:30,M,M,M,360.00,12.00,0.00,29.90,M,6.00,M,BKN,OVC,M,M,800.00,6500.00,M,M,UP BR,KCMI 081830Z AUTO 36012KT 6SM UP BR BKN008 OVC065 A2990 RMK P0000 CIG 6V12  MADISHF
CMI,2017-02-08 18:35,M,M,M,360.00,16.00,M,29.91,M,7.00,M,BKN,OVC,M,M,800.00,6500.00,M,M,M,KCMI 081835Z AUTO 36016KT 7SM BKN008 OVC065 A2991 RMK CIG 6V12  MADISHF
CMI,2017-02-08 18:40,M,M,M,350.00,12.00,M,29.91,M,8.00,M,BKN,OVC,M,M,800.00,6500.00,M,M,M,KCMI 081840Z AUTO 35012KT 8SM BKN008 OVC065 A2991 RMK CIG 6V12  MADISHF
CMI,2017-02-08 18:45,M,M,M,360.00,12.00,M,29.91,M,6.00,M,BKN,OVC,M,M,800.00,6500.00,M,M,-SN BR,KCMI 081845Z AUTO 36012KT 6SM -SN BR BKN008 OVC065 A2991 RMK MADISHF
CMI,2017-02-08 18:50,M,M,M,360.00,13.00,M,29.91,M,6.00,M,BKN,OVC,M,M,800.00,6500.00,M,M,-SN,KCMI 081850Z AUTO 36013KT 6SM -SN BKN008 OVC065 A2991 RMK MADISHF
CMI,2017-02-08 18:53,30.90,26.10,82.15,360.00,14.00,0.00,29.91,1013.50,6.00,M,BKN,OVC,M,M,800.00,6500.00,M,M,-SN,KCMI 081853Z 36014KT 6SM -SN BKN008 OVC065 M01/M03 A2991 RMK AO2 UPB06E32SNE06B17E27B41 SLP135 P0000 T10061033
CMI,2017-02-08 18:55,M,M,M,360.00,14.00,M,29.91,M,6.00,M,BKN,OVC,M,M,800.00,6500.00,M,M,-SN,KCMI 081855Z AUTO 36014KT 6SM -SN BKN008 OVC065 A2991 RMK CIG 7V13  MADISHF
CMI,2017-02-08 19:00,M,M,M,360.00,15.00,M,29.91,M,4.00,M,BKN,OVC,M,M,900.00,6500.00,M,M,-SN BR,KCMI 081900Z AUTO 36015KT 4SM -SN BR BKN009 OVC065 A2991 RMK CIG 7V13  MADISHF
CMI,2017-02-08 19:05,M,M,M,360.00,14.00,M,29.91,M,3.50,M,BKN,OVC,M,M,900.00,6500.00,M,M,-SN BR,KCMI 081905Z AUTO 36014KT 3SM -SN BR BKN009 OVC065 A2991 RMK CIG 7V12  MADISHF
CMI,2017-02-08 19:10,M,M,M,360.00,13.00,M,29.91,M,4.00,M,BKN,BKN,OVC,M,900.00,1300.00,6500.00,M,-SN BR,KCMI 081910Z AUTO 36013KT 4SM -SN BR BKN009 BKN013 OVC065 A2991 RMK MADISHF
CMI,2017-02-08 19:15,M,M,M,360.00,13.00,M,29.92,M,4.00,M,BKN,BKN,OVC,M,900.00,4900.00,6500.00,M,-SN BR,KCMI 081915Z AUTO 36013KT 4SM -SN BR BKN009 BKN049 OVC065 A2992 RMK CIG 8V13  MADISHF
CMI,2017-02-08 19:20,M,M,M,360.00,13.00,M,29.91,M,4.00,M,BKN,OVC,M,M,900.00,4900.00,M,M,-SN BR,KCMI 081920Z AUTO 36013KT 4SM -SN BR BKN009 OVC049 A2991 RMK MADISHF
CMI,2017-02-08 19:25,M,M,M,350.00,12.00,0.01,29.92,M,2.50,M,BKN,BKN,OVC,M,900.00,3700.00,4900.00,M,-SN BR,KCMI 081925Z AUTO 35012KT 2 1/2SM -SN BR BKN009 BKN037 OVC049 A2992 RMK P0001 MADISHF
CMI,2017-02-08 19:30,M,M,M,360.00,12.00,0.01,29.92,M,1.50,M,BKN,OVC,M,M,900.00,2400.00,M,M,-SN BR,KCMI 081930Z AUTO 36012KT 1 1/2SM -SN BR BKN009 OVC024 A2992 RMK P0001 MADISHF
CMI,2017-02-08 19:31,30.00,26.10,85.21,360.00,12.00,0.01,29.92,M,1.25,M,BKN,OVC,M,M,900.00,2400.00,M,M,-SN BR,KCMI 081931Z 36012KT 1 1/4SM R32R/5500VP6000FT -SN BR BKN009 OVC024 M01/M03 A2992 RMK AO2 TWR VIS 1 1/2 P0001 T10111033
CMI,2017-02-08 19:35,M,M,M,350.00,12.00,0.01,29.92,M,1.00,M,BKN,OVC,M,M,900.00,2200.00,M,M,-SN BR,KCMI 081935Z AUTO 35012KT 1SM -SN BR BKN009 OVC022 A2992 RMK P0001 MADISHF
CMI,2017-02-08 19:40,M,M,M,350.00,14.00,0.01,29.92,M,0.75,M,BKN,OVC,M,M,900.00,1600.00,M,M,-SN BR,KCMI 081940Z AUTO 35014KT 1SM -SN BR BKN009 OVC016 A2992 RMK P0001 MADISHF
CMI,2017-02-08 19:42,30.00,26.10,85.21,360.00,16.00,0.01,29.92,M,0.50,19.00,BKN,OVC,M,M,900.00,1400.00,M,M,SN FZFG,KCMI 081942Z 36016G19KT 1/2SM R32R/3500VP6000FT SN FZFG BKN009 OVC014 M01/M03 A2992 RMK AO2 TWR VIS 3/4 P0001 T10111033
CMI,2017-02-08 19:45,M,M,M,350.00,13.00,0.01,29.92,M,0.50,M,BKN,OVC,M,M,700.00,1400.00,M,M,SN FZFG,KCMI 081945Z AUTO 35013KT 1/2SM SN FZFG BKN007 OVC014 A2992 RMK P0001 MADISHF
CMI,2017-02-08 19:47,30.20,26.60,86.28,350.00,15.00,0.01,29.92,M,0.25,M,SCT,OVC,M,M,700.00,1200.00,M,M,+SN FZFG,KCMI 081947Z 35015KT 1/4SM R32R/2200V4500FT +SN FZFG SCT007 OVC012 M01/M03 A2992 RMK AO2 TWR VIS 1/2 P0001
CMI,2017-02-08 19:50,M,M,M,350.00,11.00,0.02,29.92,M,0.25,M,SCT,OVC,M,M,700.00,999.00,M,M,+SN FZFG,KCMI 081950Z AUTO 35011KT 1/4SM +SN FZFG SCT007 OVC009 A2992 RMK P0002 MADISHF
CMI,2017-02-08 19:53,30.00,27.00,88.44,360.00,13.00,0.02,29.92,1014.00,0.25,M,VV ,M,M,M,800.00,M,M,M,+SN FZFG,KCMI 081953Z 36013KT 1/4SM R32R/1800V3000FT +SN FZFG VV008 M01/M03 A2992 RMK AO2 TWR VIS 1/4 SLP140 P0002 T10111028
CMI,2017-02-08 19:55,M,M,M,350.00,13.00,M,29.92,M,0.24,M,VV ,M,M,M,700.00,M,M,M,+SN FZFG,KCMI 081955Z AUTO 35013KT 1/4SM +SN FZFG VV007 A2992 RMK MADISHF
CMI,2017-02-08 20:00,M,M,M,350.00,14.00,M,29.92,M,0.24,M,VV ,M,M,M,600.00,M,M,M,+SN FZFG,KCMI 082000Z AUTO 35014KT 1/4SM +SN FZFG VV006 A2992 RMK MADISHF
CMI,2017-02-08 20:05,M,M,M,350.00,14.00,0.01,29.92,M,0.24,M,VV ,M,M,M,600.00,M,M,M,+SN FZFG,KCMI 082005Z AUTO 35014KT 1/4SM +SN FZFG VV006 A2992 RMK P0001 MADISHF
CMI,2017-02-08 20:10,M,M,M,360.00,12.00,0.01,29.92,M,0.25,M,VV ,M,M,M,600.00,M,M,M,SN FZFG,KCMI 082010Z AUTO 36012KT 1/4SM SN FZFG VV006 A2992 RMK P0001 MADISHF
CMI,2017-02-08 20:15,M,M,M,350.00,15.00,0.01,29.92,M,0.50,M,VV ,M,M,M,600.00,M,M,M,SN FZFG,KCMI 082015Z AUTO 35015KT 1/2SM SN FZFG VV006 A2992 RMK P0001 MADISHF
CMI,2017-02-08 20:20,M,M,M,350.00,16.00,0.01,29.93,M,0.50,M,VV ,M,M,M,700.00,M,M,M,SN FZFG,KCMI 082020Z AUTO 35016KT 1/2SM SN FZFG VV007 A2993 RMK P0001 MADISHF
CMI,2017-02-08 20:24,28.90,25.00,85.14,10.00,14.00,0.01,29.92,M,0.50,M,SCT,OVC,M,M,600.00,1000.00,M,M,SN FZFG,KCMI 082024Z 01014KT 1/2SM R32R/2800V4500FT SN FZFG SCT006 OVC010 M02/M04 A2992 RMK AO2 P0001 T10171039
CMI,2017-02-08 20:25,M,M,M,10.00,15.00,0.01,29.92,M,0.50,M,VV ,M,M,M,900.00,M,M,M,SN FZFG,KCMI 082025Z AUTO 01015KT 1/2SM SN FZFG VV009 A2992 RMK P0001 MADISHF
CMI,2017-02-08 20:30,M,M,M,360.00,15.00,0.01,29.92,M,0.75,M,SCT,SCT,OVC,M,600.00,999.00,1300.00,M,-SN BR,KCMI 082030Z AUTO 36015KT 1SM -SN BR SCT006 SCT009 OVC013 A2992 RMK P0001 MADISHF
CMI,2017-02-08 20:35,M,M,M,350.00,17.00,0.01,29.93,M,0.75,M,SCT,BKN,OVC,M,600.00,999.00,1500.00,M,-SN BR,KCMI 082035Z AUTO 35017KT 1SM -SN BR SCT006 BKN009 OVC015 A2993 RMK P0001 MADISHF
CMI,2017-02-08 20:40,M,M,M,360.00,15.00,0.01,29.93,M,1.00,M,SCT,OVC,M,M,800.00,1699.00,M,M,-SN BR,KCMI 082040Z AUTO 36015KT 1SM -SN BR SCT008 OVC016 A2993 RMK P0001 MADISHF
CMI,2017-02-08 20:43,28.90,25.00,85.14,360.00,15.00,0.01,29.92,M,0.50,M,SCT,OVC,M,M,800.00,1700.00,M,M,-SN BR,KCMI 082043Z 36015KT 1/2SM R32R/4500VP6000FT -SN BR SCT008 OVC017 M02/M04 A2992 RMK AO2 SFC VIS 3/4 P0001 T10171039
CMI,2017-02-08 20:45,M,M,M,360.00,15.00,0.01,29.93,M,0.75,M,SCT,OVC,M,M,800.00,1699.00,M,M,-SN BR,KCMI 082045Z AUTO 36015KT 1SM -SN BR SCT008 OVC016 A2993 RMK P0001 MADISHF
CMI,2017-02-08 20:50,M,M,M,360.00,15.00,0.01,29.92,M,0.50,M,SCT,OVC,M,M,800.00,1500.00,M,M,SN FZFG,KCMI 082050Z AUTO 36015KT 1/2SM SN FZFG SCT008 OVC015 A2992 RMK P0001 MADISHF
CMI,2017-02-08 20:53,28.90,26.10,89.12,360.00,14.00,0.01,29.92,1014.00,0.25,M,SCT,OVC,M,M,600.00,1300.00,M,M,+SN FZFG,KCMI 082053Z AUTO 36014KT 1/4SM R32R/1800V4500FT +SN FZFG SCT006 OVC013 M02/M03 A2992 RMK AO2 TWR VIS 1/2 SLP140 P0001 60003 T10171033 53003
CMI,2017-02-08 20:55,M,M,M,360.00,13.00,M,29.92,M,0.25,M,FEW,OVC,M,M,600.00,1300.00,M,M,+SN FZFG,KCMI 082055Z AUTO 36013KT 1/4SM +SN FZFG FEW006 OVC013 A2992 RMK MADISHF
CMI,2017-02-08 21:00,M,M,M,360.00,13.00,M,29.93,M,0.24,M,FEW,OVC,M,M,600.00,1100.00,M,M,+SN FZFG,KCMI 082100Z AUTO 36013KT 1/4SM +SN FZFG FEW006 OVC011 A2993 RMK MADISHF
CMI,2017-02-08 21:05,M,M,M,360.00,14.00,0.01,29.93,M,0.24,M,FEW,OVC,M,M,499.00,900.00,M,M,+SN FZFG,KCMI 082105Z AUTO 36014KT 1/4SM +SN FZFG FEW004 OVC009 A2993 RMK P0001 MADISHF
CMI,2017-02-08 21:08,28.90,26.10,89.12,360.00,14.00,0.01,29.93,M,0.25,M,VV ,M,M,M,700.00,M,M,M,+SN FZFG,KCMI 082108Z 36014KT 1/4SM R32R/2400V2800FT +SN FZFG VV007 M02/M03 A2993 RMK AO2 TWR VIS 1/2 P0001 T10171033
CMI,2017-02-08 21:10,M,M,M,350.00,12.00,0.01,29.93,M,0.25,M,VV ,M,M,M,700.00,M,M,M,+SN FZFG,KCMI 082110Z AUTO 35012KT 1/4SM +SN FZFG VV007 A2993 RMK P0001 MADISHF
CMI,2017-02-08 21:15,M,M,M,350.00,14.00,0.01,29.94,M,0.25,M,VV ,M,M,M,700.00,M,M,M,SN FZFG,KCMI 082115Z AUTO 35014KT 1/4SM SN FZFG VV007 A2994 RMK P0001 MADISHF
CMI,2017-02-08 21:20,28.90,25.00,85.14,350.00,13.00,0.01,29.94,M,0.50,M,FEW,OVC,M,M,500.00,1100.00,M,M,SN FZFG,KCMI 082120Z 35013KT 1/2SM R32R/2600V4500FT SN FZFG FEW005 OVC011 M02/M04 A2994 RMK AO2 TWR VIS 3/4 P0001 T10171039
CMI,2017-02-08 21:25,M,M,M,350.00,12.00,0.01,29.95,M,0.75,M,SCT,OVC,M,M,700.00,1300.00,M,M,-SN BR,KCMI 082125Z AUTO 35012KT 1SM -SN BR SCT007 OVC013 A2995 RMK P0001 MADISHF
CMI,2017-02-08 21:30,M,M,M,350.00,15.00,0.01,29.95,M,1.00,M,SCT,OVC,M,M,700.00,1699.00,M,M,-SN BR,KCMI 082130Z AUTO 35015KT 1SM -SN BR SCT007 OVC016 A2995 RMK P0001 MADISHF
CMI,2017-02-08 21:34,28.00,25.00,88.33,350.00,12.00,0.01,29.96,M,0.75,M,SCT,OVC,M,M,800.00,1900.00,M,M,-SN BR,KCMI 082134Z 35012KT 3/4SM R32R/P6000FT -SN BR SCT008 OVC019 M02/M04 A2996 RMK AO2 SFC VIS 1 1/4 PRESRR P0001 T10221039
CMI,2017-02-08 21:35,M,M,M,350.00,13.00,0.01,29.96,M,1.25,M,SCT,OVC,M,M,800.00,1900.00,M,M,-SN BR,KCMI 082135Z AUTO 35013KT 1 1/2SM -SN BR SCT008 OVC019 A2996 RMK P0001 MADISHF
CMI,2017-02-08 21:40,M,M,M,340.00,11.00,0.01,29.96,M,1.50,M,SCT,BKN,OVC,M,800.00,2100.00,3500.00,M,-SN BR,KCMI 082140Z AUTO 34011KT 1 1/2SM -SN BR SCT008 BKN021 OVC035 A2996 RMK P0001 MADISHF
CMI,2017-02-08 21:45,M,M,M,350.00,13.00,0.01,29.95,M,1.25,M,BKN,BKN,OVC,M,800.00,2300.00,2900.00,M,-SN BR,KCMI 082145Z AUTO 35013KT 1 1/2SM -SN BR BKN008 BKN023 OVC029 A2995 RMK P0001 MADISHF
CMI,2017-02-08 21:50,M,M,M,360.00,15.00,0.01,29.94,M,1.00,M,BKN,OVC,M,M,800.00,2300.00,M,M,-SN BR,KCMI 082150Z AUTO 36015KT 1SM -SN BR BKN008 OVC023 A2994 RMK P0001 MADISHF
CMI,2017-02-08 21:51,28.40,24.80,86.18,360.00,14.00,0.01,29.95,M,0.75,M,BKN,OVC,M,M,800.00,2300.00,M,M,-SN BR,KCMI 082151Z 36014KT 3/4SM R32R/5500VP6000FT -SN BR BKN008 OVC023 M02/M04 A2995 RMK AO2 SFC VIS 1 P0001
CMI,2017-02-08 21:53,28.00,25.00,88.33,360.00,14.00,0.01,29.95,1015.00,0.75,M,BKN,OVC,M,M,800.00,2300.00,M,M,-SN BR,KCMI 082153Z 36014KT 3/4SM R32R/5500VP6000FT -SN BR BKN008 OVC023 M02/M04 A2995 RMK AO2 SFC VIS 1 SLP150 P0001 T10221039
CMI,2017-02-08 21:55,M,M,M,350.00,13.00,M,29.95,M,1.00,M,BKN,OVC,M,M,800.00,2300.00,M,M,-SN BR,KCMI 082155Z AUTO 35013KT 1SM -SN BR BKN008 OVC023 A2995 RMK MADISHF
CMI,2017-02-08 22:00,M,M,M,350.00,14.00,M,29.95,M,1.25,M,BKN,BKN,OVC,M,800.00,2300.00,3600.00,M,-SN BR,KCMI 082200Z AUTO 35014KT 1 1/2SM -SN BR BKN008 BKN023 OVC036 A2995 RMK MADISHF
CMI,2017-02-08 22:05,M,M,M,350.00,12.00,M,29.95,M,1.25,M,BKN,OVC,M,M,800.00,2300.00,M,M,-SN BR,KCMI 082205Z AUTO 35012KT 1 1/2SM -SN BR BKN008 OVC023 A2995 RMK MADISHF
CMI,2017-02-08 22:10,M,M,M,350.00,12.00,M,29.95,M,1.50,M,BKN,OVC,M,M,800.00,2500.00,M,M,-SN BR,KCMI 082210Z AUTO 35012KT 1 1/2SM -SN BR BKN008 OVC025 A2995 RMK MADISHF
CMI,2017-02-08 22:15,M,M,M,350.00,13.00,M,29.96,M,2.00,M,SCT,OVC,M,M,800.00,2500.00,M,M,-SN BR,KCMI 082215Z AUTO 35013KT 2SM -SN BR SCT008 OVC025 A2996 RMK MADISHF
CMI,2017-02-08 22:18,28.00,24.10,85.08,340.00,12.00,0.00,29.97,M,0.75,M,SCT,OVC,M,M,800.00,2500.00,M,M,-SN BR,KCMI 082218Z 34012KT 3/4SM R32R/P6000FT -SN BR SCT008 OVC025 M02/M04 A2997 RMK AO2 SFC VIS 1 3/4 P0000 T10221044
CMI,2017-02-08 22:20,M,M,M,340.00,14.00,M,29.97,M,1.50,M,BKN,OVC,M,M,800.00,2500.00,M,M,-SN BR,KCMI 082220Z AUTO 34014KT 1 1/2SM -SN BR BKN008 OVC025 A2997 RMK MADISHF
CMI,2017-02-08 22:25,28.00,24.10,85.08,340.00,12.00,0.00,29.97,M,0.75,M,BKN,OVC,M,M,800.00,2500.00,M,M,-SN BR,KCMI 082225Z 34012KT 3/4SM R32R/5000VP6000FT -SN BR BKN008 OVC025 M02/M04 A2997 RMK AO2 SFC VIS 1 P0000 T10221044
CMI,2017-02-08 22:30,M,M,M,340.00,14.00,M,29.97,M,0.75,M,BKN,OVC,M,M,800.00,2500.00,M,M,-SN BR,KCMI 082230Z AUTO 34014KT 1SM -SN BR BKN008 OVC025 A2997 RMK MADISHF
CMI,2017-02-08 22:35,M,M,M,340.00,12.00,M,29.96,M,1.00,M,BKN,OVC,M,M,800.00,2500.00,M,M,-SN BR,KCMI 082235Z AUTO 34012KT 1SM -SN BR BKN008 OVC025 A2996 RMK MADISHF
CMI,2017-02-08 22:40,M,M,M,340.00,12.00,M,29.96,M,1.50,M,BKN,OVC,M,M,800.00,2500.00,M,M,-SN BR,KCMI 082240Z AUTO 34012KT 1 1/2SM -SN BR BKN008 OVC025 A2996 RMK MADISHF
CMI,2017-02-08 22:45,M,M,M,340.00,15.00,M,29.96,M,1.75,M,BKN,OVC,M,M,800.00,2500.00,M,M,-SN BR,KCMI 082245Z AUTO 34015KT 2SM -SN BR BKN008 OVC025 A2996 RMK MADISHF
CMI,2017-02-08 22:50,M,M,M,350.00,13.00,M,29.96,M,2.00,M,BKN,OVC,M,M,800.00,2500.00,M,M,-SN BR,KCMI 082250Z AUTO 35013KT 2SM -SN BR BKN008 OVC025 A2996 RMK MADISHF
CMI,2017-02-08 22:53,28.00,24.10,85.08,340.00,12.00,0.00,29.97,1015.50,0.75,M,BKN,OVC,M,M,800.00,2500.00,M,M,-SN BR,KCMI 082253Z 34012KT 3/4SM R32R/P6000FT -SN BR BKN008 OVC025 M02/M04 A2997 RMK AO2 SFC VIS 2 1/2 SLP155 P0000 T10221044
CMI,2017-02-08 22:55,M,M,M,340.00,13.00,M,29.97,M,2.50,M,SCT,OVC,M,M,800.00,2300.00,M,M,-SN BR,KCMI 082255Z AUTO 34013KT 2 1/2SM -SN BR SCT008 OVC023 A2997 RMK MADISHF
CMI,2017-02-08 23:00,M,M,M,330.00,15.00,M,29.98,M,3.50,M,BKN,OVC,M,M,800.00,2900.00,M,M,-SN BR,KCMI 082300Z AUTO 33015KT 3SM -SN BR BKN008 OVC029 A2998 RMK MADISHF
CMI,2017-02-08 23:05,M,M,M,330.00,15.00,M,29.98,M,4.00,M,BKN,OVC,M,M,800.00,2900.00,M,M,-SN BR,KCMI 082305Z AUTO 33015KT 4SM -SN BR BKN008 OVC029 A2998 RMK MADISHF
CMI,2017-02-08 23:10,M,M,M,330.00,15.00,M,29.99,M,2.50,M,BKN,OVC,M,M,800.00,2900.00,M,M,-SN BR,KCMI 082310Z AUTO 33015KT 2 1/2SM -SN BR BKN008 OVC029 A2999 RMK MADISHF
CMI,2017-02-08 23:15,M,M,M,340.00,14.00,M,29.99,M,1.50,M,BKN,OVC,M,M,800.00,2700.00,M,M,-SN BR,KCMI 082315Z AUTO 34014KT 1 1/2SM -SN BR BKN008 OVC027 A2999 RMK MADISHF
CMI,2017-02-08 23:20,M,M,M,340.00,14.00,M,29.99,M,1.00,M,SCT,OVC,M,M,800.00,2500.00,M,M,-SN BR,KCMI 082320Z AUTO 34014KT 1SM -SN BR SCT008 OVC025 A2999 RMK MADISHF
CMI,2017-02-08 23:25,27.00,23.00,84.66,340.00,12.00,0.00,29.99,M,0.75,M,SCT,OVC,M,M,800.00,2500.00,M,M,-SN BR,KCMI 082325Z 34012KT 3/4SM R32R/P6000FT -SN BR SCT008 OVC025 M03/M05 A2999 RMK AO2 SFC VIS 1 1/4 P0000 T10281050
CMI,2017-02-08 23:30,M,M,M,340.00,17.00,M,29.99,M,1.75,M,SCT,OVC,M,M,800.00,2300.00,M,M,-SN BR,KCMI 082330Z AUTO 34017KT 2SM -SN BR SCT008 OVC023 A2999 RMK MADISHF
CMI,2017-02-08 23:35,M,M,M,340.00,16.00,M,29.99,M,2.50,M,SCT,OVC,M,M,800.00,2300.00,M,M,-SN BR,KCMI 082335Z AUTO 34016KT 2 1/2SM -SN BR SCT008 OVC023 A2999 RMK MADISHF
CMI,2017-02-08 23:40,M,M,M,330.00,14.00,M,30.00,M,4.00,M,SCT,OVC,M,M,800.00,2600.00,M,M,-SN BR,KCMI 082340Z AUTO 33014KT 4SM -SN BR SCT008 OVC026 A3000 RMK MADISHF
CMI,2017-02-08 23:45,M,M,M,330.00,14.00,M,30.00,M,5.00,M,BKN,OVC,M,M,800.00,2800.00,M,M,-SN BR,KCMI 082345Z AUTO 33014KT 5SM -SN BR BKN008 OVC028 A3000 RMK MADISHF
CMI,2017-02-08 23:48,26.60,23.00,86.07,340.00,15.00,0.00,30.00,M,0.75,M,BKN,OVC,M,M,800.00,2600.00,M,M,-SN BR,KCMI 082348Z 34015KT 3/4SM R32R/P6000FT -SN BR BKN008 OVC026 M03/M05 A3000 RMK AO2 SFC VIS 5 P0000
CMI,2017-02-08 23:50,M,M,M,340.00,14.00,M,30.00,M,5.00,M,BKN,OVC,M,M,800.00,2800.00,M,M,-SN BR,KCMI 082350Z AUTO 34014KT 5SM -SN BR BKN008 OVC028 A3000 RMK MADISHF
CMI,2017-02-08 23:53,26.10,21.90,83.89,340.00,15.00,0.00,30.00,1016.80,0.75,M,BKN,OVC,M,M,800.00,2800.00,M,M,-SN BR,KCMI 082353Z 34015KT 3/4SM R32R/P6000FT -SN BR BKN008 OVC028 M03/M06 A3000 RMK AO2 SFC VIS 5 SLP168 P0000 60004 T10331056 11006 21033 51017
CMI,2017-02-08 23:55,M,M,M,330.00,15.00,M,30.00,M,5.00,M,BKN,OVC,M,M,900.00,2800.00,M,M,-SN BR,KCMI 082355Z AUTO 33015KT 5SM -SN BR BKN009 OVC028 A3000 RMK MADISHF
CMI,2017-02-09 00:00,26.10,21.90,83.89,340.00,14.00,0.00,30.01,M,5.00,M,BKN,OVC,M,M,900.00,3000.00,M,M,-SN BR,KCMI 090000Z 34014KT 5SM -SN BR BKN009 OVC030 M03/M06 A3001 RMK AO2 P0000 T10331056
CMI,2017-02-09 00:05,M,M,M,340.00,14.00,M,30.01,M,6.00,M,BKN,OVC,M,M,900.00,3000.00,M,M,-SN BR,KCMI 090005Z AUTO 34014KT 6SM -SN BR BKN009 OVC030 A3001 RMK MADISHF
CMI,2017-02-09 00:10,M,M,M,340.00,15.00,0.00,30.01,M,7.00,M,BKN,OVC,M,M,900.00,2500.00,M,M,UP,KCMI 090010Z AUTO 34015KT 7SM UP BKN009 OVC025 A3001 RMK P0000 MADISHF
CMI,2017-02-09 00:15,M,M,M,340.00,16.00,0.00,30.01,M,8.00,M,BKN,OVC,M,M,900.00,2500.00,M,M,UP,KCMI 090015Z AUTO 34016KT 8SM UP BKN009 OVC025 A3001 RMK P0000 MADISHF
CMI,2017-02-09 00:20,M,M,M,340.00,13.00,M,30.01,M,9.00,M,BKN,OVC,M,M,900.00,2500.00,M,M,M,KCMI 090020Z AUTO 34013KT 9SM BKN009 OVC025 A3001 RMK MADISHF
CMI,2017-02-09 00:25,M,M,M,330.00,14.00,M,30.02,M,10.00,M,BKN,OVC,M,M,900.00,2600.00,M,M,M,KCMI 090025Z AUTO 33014KT 10SM BKN009 OVC026 A3002 RMK MADISHF
CMI,2017-02-09 00:30,M,M,M,320.00,13.00,0.00,30.02,M,10.00,M,BKN,OVC,M,M,900.00,2600.00,M,M,UP,KCMI 090030Z AUTO 32013KT 10SM UP BKN009 OVC026 A3002 RMK P0000 MADISHF
CMI,2017-02-09 00:35,M,M,M,330.00,14.00,M,30.02,M,10.00,M,OVC,M,M,M,900.00,M,M,M,M,KCMI 090035Z AUTO 33014KT 10SM OVC009 A3002 RMK MADISHF
CMI,2017-02-09 00:40,M,M,M,330.00,17.00,M,30.03,M,10.00,M,OVC,M,M,M,900.00,M,M,M,M,KCMI 090040Z AUTO 33017KT 10SM OVC009 A3003 RMK MADISHF
CMI,2017-02-09 00:45,M,M,M,M,M,M,30.03,M,9.00,M,OVC,M,M,M,800.00,M,M,M,M,KCMI 090045Z AUTO /////KT 9SM OVC008 A3003 RMK MADISHF
CMI,2017-02-09 00:50,M,M,M,340.00,17.00,M,30.03,M,8.00,M,OVC,M,M,M,800.00,M,M,M,M,KCMI 090050Z AUTO 34017KT 8SM OVC008 A3003 RMK MADISHF
CMI,2017-02-09 00:53,24.10,21.00,87.76,340.00,16.00,0.00,30.03,1017.80,8.00,M,BKN,M,M,M,800.00,M,M,M,M,KCMI 090053Z 34016KT 8SM BKN008 M04/M06 A3003 RMK AO2 UPB10E32SNE10 SLP178 P0000 T10441061
CMI,2017-02-09 00:55,M,M,M,340.00,14.00,M,30.03,M,8.00,M,BKN,M,M,M,700.00,M,M,M,M,KCMI 090055Z AUTO 34014KT 8SM BKN007 A3003 RMK MADISHF
CMI,2017-02-09 01:00,M,M,M,340.00,12.00,M,30.03,M,10.00,M,BKN,M,M,M,700.00,M,M,M,M,KCMI 090100Z AUTO 34012KT 10SM BKN007 A3003 RMK MADISHF
CMI,2017-02-09 01:05,M,M,M,340.00,17.00,M,30.03,M,10.00,M,SCT,M,M,M,700.00,M,M,M,M,KCMI 090105Z AUTO 34017KT 10SM SCT007 A3003 RMK MADISHF
CMI,2017-02-09 01:09,23.00,19.00,84.39,340.00,13.00,0.00,30.03,M,10.00,M,SCT,M,M,M,700.00,M,M,M,M,KCMI 090109Z 34013KT 10SM SCT007 M05/M07 A3003 RMK AO2 T10501072
CMI,2017-02-09 01:10,M,M,M,340.00,14.00,M,30.03,M,10.00,M,FEW,M,M,M,700.00,M,M,M,M,KCMI 090110Z AUTO 34014KT 10SM FEW007 A3003 RMK MADISHF
CMI,2017-02-09 01:15,M,M,M,330.00,12.00,M,30.03,M,10.00,M,FEW,M,M,M,700.00,M,M,M,M,KCMI 090115Z AUTO 33012KT 10SM FEW007 A3003 RMK MADISHF
CMI,2017-02-09 01:20,M,M,M,320.00,11.00,M,30.04,M,10.00,M,CLR,M,M,M,M,M,M,M,M,KCMI 090120Z AUTO 32011KT 10SM CLR A3004 RMK MADISHF
CMI,2017-02-09 01:25,M,M,M,320.00,11.00,M,30.04,M,10.00,M,CLR,M,M,M,M,M,M,M,M,KCMI 090125Z AUTO 32011KT 10SM CLR A3004 RMK MADISHF
CMI,2017-02-09 01:30,M,M,M,320.00,11.00,M,30.05,M,10.00,M,CLR,M,M,M,M,M,M,M,M,KCMI 090130Z AUTO 32011KT 10SM CLR A3005 RMK MADISHF
CMI,2017-02-09 01:35,M,M,M,320.00,11.00,M,30.05,M,10.00,M,CLR,M,M,M,M,M,M,M,M,KCMI 090135Z AUTO 32011KT 10SM CLR A3005 RMK MADISHF
CMI,2017-02-09 01:40,M,M,M,320.00,12.00,M,30.05,M,10.00,M,FEW,M,M,M,2800.00,M,M,M,M,KCMI 090140Z AUTO 32012KT 10SM FEW028 A3005 RMK MADISHF
CMI,2017-02-09 01:45,M,M,M,320.00,12.00,M,30.06,M,10.00,M,SCT,M,M,M,2800.00,M,M,M,M,KCMI 090145Z AUTO 32012KT 10SM SCT028 A3006 RMK MADISHF
CMI,2017-02-09 01:50,M,M,M,320.00,13.00,M,30.06,M,10.00,M,BKN,M,M,M,2800.00,M,M,M,M,KCMI 090150Z AUTO 32013KT 10SM BKN028 A3006 RMK MADISHF
CMI,2017-02-09 01:53,21.00,18.00,87.97,320.00,14.00,0.00,30.06,1019.00,10.00,M,BKN,M,M,M,2800.00,M,M,M,M,KCMI 090153Z 32014KT 10SM BKN028 M06/M08 A3006 RMK AO2 SLP190 T10611078
CMI,2017-02-09 01:55,M,M,M,320.00,14.00,M,30.06,M,10.00,M,BKN,M,M,M,2800.00,M,M,M,M,KCMI 090155Z AUTO 32014KT 10SM BKN028 A3006 RMK MADISHF
CMI,2017-02-09 02:00,M,M,M,320.00,11.00,M,30.07,M,10.00,M,BKN,M,M,M,3000.00,M,M,M,M,KCMI 090200Z AUTO 32011KT 10SM BKN030 A3007 RMK MADISHF
CMI,2017-02-09 02:04,19.90,17.10,88.68,320.00,11.00,0.00,30.07,M,10.00,M,BKN,M,M,M,3000.00,M,M,M,M,KCMI 090204Z 32011KT 10SM BKN030 M07/M08 A3007 RMK AO2 T10671083
CMI,2017-02-09 02:05,M,M,M,320.00,11.00,M,30.07,M,10.00,M,BKN,M,M,M,3000.00,M,M,M,M,KCMI 090205Z AUTO 32011KT 10SM BKN030 A3007 RMK MADISHF
CMI,2017-02-09 02:10,M,M,M,320.00,10.00,M,30.07,M,10.00,M,BKN,M,M,M,3000.00,M,M,M,M,KCMI 090210Z AUTO 32010KT 10SM BKN030 A3007 RMK MADISHF
CMI,2017-02-09 02:15,M,M,M,320.00,10.00,M,30.07,M,10.00,M,SCT,M,M,M,3000.00,M,M,M,M,KCMI 090215Z AUTO 32010KT 10SM SCT030 A3007 RMK MADISHF
CMI,2017-02-09 02:20,M,M,M,330.00,10.00,M,30.07,M,10.00,M,FEW,M,M,M,3000.00,M,M,M,M,KCMI 090220Z AUTO 33010KT 10SM FEW030 A3007 RMK MADISHF
CMI,2017-02-09 02:25,M,M,M,320.00,11.00,M,30.07,M,10.00,M,FEW,M,M,M,3000.00,M,M,M,M,KCMI 090225Z AUTO 32011KT 10SM FEW030 A3007 RMK MADISHF
CMI,2017-02-09 02:30,M,M,M,320.00,11.00,M,30.07,M,10.00,M,CLR,M,M,M,M,M,M,M,M,KCMI 090230Z AUTO 32011KT 10SM CLR A3007 RMK MADISHF
CMI,2017-02-09 02:35,M,M,M,320.00,11.00,M,30.07,M,10.00,M,CLR,M,M,M,M,M,M,M,M,KCMI 090235Z AUTO 32011KT 10SM CLR A3007 RMK MADISHF
CMI,2017-02-09 02:40,M,M,M,320.00,11.00,M,30.08,M,10.00,M,CLR,M,M,M,M,M,M,M,M,KCMI 090240Z AUTO 32011KT 10SM CLR A3008 RMK MADISHF
CMI,2017-02-09 02:45,M,M,M,320.00,10.00,M,30.08,M,10.00,M,CLR,M,M,M,M,M,M,M,M,KCMI 090245Z AUTO 32010KT 10SM CLR A3008 RMK MADISHF
CMI,2017-02-09 02:50,M,M,M,320.00,9.00,M,30.07,M,10.00,M,CLR,M,M,M,M,M,M,M,M,KCMI 090250Z AUTO 32009KT 10SM CLR A3007 RMK MADISHF
CMI,2017-02-09 02:53,19.00,14.00,80.52,320.00,9.00,0.00,30.07,1019.40,10.00,M,CLR,M,M,M,M,M,M,M,M,KCMI 090253Z 32009KT 10SM CLR M07/M10 A3007 RMK AO2 SLP194 60000 T10721100 51024
CMI,2017-02-09 02:55,M,M,M,310.00,9.00,M,30.08,M,10.00,M,CLR,M,M,M,M,M,M,M,M,KCMI 090255Z AUTO 31009KT 10SM CLR A3008 RMK MADISHF
CMI,2017-02-09 03:00,M,M,M,300.00,7.00,M,30.08,M,10.00,M,CLR,M,M,M,M,M,M,M,M,KCMI 090300Z AUTO 30007KT 10SM CLR A3008 RMK MADISHF
CMI,2017-02-09 03:05,M,M,M,300.00,7.00,M,30.08,M,10.00,M,CLR,M,M,M,M,M,M,M,M,KCMI 090305Z AUTO 30007KT 10SM CLR A3008 RMK MADISHF
CMI,2017-02-09 03:10,M,M,M,300.00,8.00,M,30.08,M,10.00,M,CLR,M,M,M,M,M,M,M,M,KCMI 090310Z AUTO 30008KT 10SM CLR A3008 RMK MADISHF
CMI,2017-02-09 03:15,M,M,M,290.00,8.00,M,30.09,M,10.00,M,CLR,M,M,M,M,M,M,M,M,KCMI 090315Z AUTO 29008KT 10SM CLR A3009 RMK MADISHF
CMI,2017-02-09 03:20,M,M,M,290.00,9.00,M,30.09,M,10.00,M,CLR,M,M,M,M,M,M,M,M,KCMI 090320Z AUTO 29009KT 10SM CLR A3009 RMK MADISHF
CMI,2017-02-09 03:25,M,M,M,300.00,9.00,M,30.09,M,10.00,M,CLR,M,M,M,M,M,M,M,M,KCMI 090325Z AUTO 30009KT 10SM CLR A3009 RMK MADISHF
CMI,2017-02-09 03:30,M,M,M,300.00,9.00,M,30.10,M,10.00,M,CLR,M,M,M,M,M,M,M,M,KCMI 090330Z AUTO 30009KT 10SM CLR A3010 RMK MADISHF
CMI,2017-02-09 03:35,M,M,M,300.00,9.00,M,30.10,M,10.00,M,CLR,M,M,M,M,M,M,M,M,KCMI 090335Z AUTO 30009KT 10SM CLR A3010 RMK MADISHF
CMI,2017-02-09 03:40,M,M,M,310.00,10.00,M,30.10,M,10.00,M,FEW,M,M,M,2600.00,M,M,M,M,KCMI 090340Z AUTO 31010KT 10SM FEW026 A3010 RMK MADISHF
CMI,2017-02-09 03:45,M,M,M,310.00,9.00,M,30.09,M,10.00,M,SCT,M,M,M,2600.00,M,M,M,M,KCMI 090345Z AUTO 31009KT 10SM SCT026 A3009 RMK MADISHF
CMI,2017-02-09 03:50,M,M,M,300.00,9.00,M,30.09,M,10.00,M,SCT,M,M,M,2600.00,M,M,M,M,KCMI 090350Z AUTO 30009KT 10SM SCT026 A3009 RMK MADISHF
CMI,2017-02-09 03:53,17.10,12.00,80.01,300.00,10.00,0.00,30.10,1020.20,10.00,M,FEW,M,M,M,2600.00,M,M,M,M,KCMI 090353Z 30010KT 10SM FEW026 M08/M11 A3010 RMK AO2 SLP202 T10831111
CMI,2017-02-09 03:55,M,M,M,300.00,10.00,M,30.10,M,10.00,M,FEW,M,M,M,2600.00,M,M,M,M,KCMI 090355Z AUTO 30010KT 10SM FEW026 A3010 RMK MADISHF
CMI,2017-02-09 04:00,M,M,M,310.00,10.00,M,30.10,M,10.00,M,FEW,M,M,M,2600.00,M,M,M,M,KCMI 090400Z AUTO 31010KT 10SM FEW026 A3010 RMK MADISHF
CMI,2017-02-09 04:05,M,M,M,310.00,9.00,M,30.09,M,10.00,M,FEW,M,M,M,2600.00,M,M,M,M,KCMI 090405Z AUTO 31009KT 10SM FEW026 A3009 RMK MADISHF
CMI,2017-02-09 04:10,M,M,M,300.00,9.00,M,30.10,M,10.00,M,FEW,M,M,M,2600.00,M,M,M,M,KCMI 090410Z AUTO 30009KT 10SM FEW026 A3010 RMK MADISHF
CMI,2017-02-09 04:15,M,M,M,300.00,10.00,M,30.10,M,10.00,M,CLR,M,M,M,M,M,M,M,M,KCMI 090415Z AUTO 30010KT 10SM CLR A3010 RMK MADISHF
CMI,2017-02-09 04:20,M,M,M,300.00,9.00,M,30.11,M,10.00,M,CLR,M,M,M,M,M,M,M,M,KCMI 090420Z AUTO 30009KT 10SM CLR A3011 RMK MADISHF
CMI,2017-02-09 04:25,M,M,M,300.00,9.00,M,30.11,M,10.00,M,CLR,M,M,M,M,M,M,M,M,KCMI 090425Z AUTO 30009KT 10SM CLR A3011 RMK MADISHF
CMI,2017-02-09 04:30,M,M,M,300.00,9.00,M,30.11,M,10.00,M,FEW,M,M,M,2400.00,M,M,M,M,KCMI 090430Z AUTO 30009KT 10SM FEW024 A3011 RMK MADISHF
CMI,2017-02-09 04:35,M,M,M,300.00,10.00,M,30.11,M,10.00,M,FEW,M,M,M,2400.00,M,M,M,M,KCMI 090435Z AUTO 30010KT 10SM FEW024 A3011 RMK MADISHF
CMI,2017-02-09 04:40,M,M,M,300.00,12.00,M,30.12,M,10.00,M,CLR,M,M,M,M,M,M,M,M,KCMI 090440Z AUTO 30012KT 10SM CLR A3012 RMK MADISHF
CMI,2017-02-09 04:45,M,M,M,300.00,12.00,M,30.12,M,10.00,M,CLR,M,M,M,M,M,M,M,M,KCMI 090445Z AUTO 30012KT 10SM CLR A3012 RMK MADISHF
CMI,2017-02-09 04:50,M,M,M,300.00,12.00,M,30.12,M,10.00,M,CLR,M,M,M,M,M,M,M,M,KCMI 090450Z AUTO 30012KT 10SM CLR A3012 RMK MADISHF
CMI,2017-02-09 04:53,18.00,12.00,76.97,300.00,11.00,0.00,30.13,1021.20,10.00,M,CLR,M,M,M,M,M,M,M,M,KCMI 090453Z 30011KT 10SM CLR M08/M11 A3013 RMK AO2 SLP212 T10781111
CMI,2017-02-09 04:55,M,M,M,290.00,10.00,M,30.13,M,10.00,M,CLR,M,M,M,M,M,M,M,M,KCMI 090455Z AUTO 29010KT 10SM CLR A3013 RMK MADISHF
CMI,2017-02-09 05:00,M,M,M,290.00,12.00,M,30.13,M,10.00,M,CLR,M,M,M,M,M,M,M,M,KCMI 090500Z AUTO 29012KT 10SM CLR A3013 RMK MADISHF
CMI,2017-02-09 05:05,M,M,M,290.00,11.00,M,30.13,M,10.00,M,CLR,M,M,M,M,M,M,M,M,KCMI 090505Z AUTO 29011KT 10SM CLR A3013 RMK MADISHF
CMI,2017-02-09 05:10,M,M,M,290.00,11.00,M,30.13,M,10.00,M,CLR,M,M,M,M,M,M,M,M,KCMI 090510Z AUTO 29011KT 10SM CLR A3013 RMK MADISHF
CMI,2017-02-09 05:15,M,M,M,290.00,10.00,M,30.13,M,10.00,M,CLR,M,M,M,M,M,M,M,M,KCMI 090515Z AUTO 29010KT 10SM CLR A3013 RMK MADISHF
CMI,2017-02-09 05:20,M,M,M,290.00,10.00,M,30.13,M,10.00,M,CLR,M,M,M,M,M,M,M,M,KCMI 090520Z AUTO 29010KT 10SM CLR A3013 RMK MADISHF
CMI,2017-02-09 05:25,M,M,M,280.00,9.00,M,30.13,M,10.00,M,CLR,M,M,M,M,M,M,M,M,KCMI 090525Z AUTO 28009KT 10SM CLR A3013 RMK MADISHF
CMI,2017-02-09 05:30,M,M,M,290.00,9.00,M,30.13,M,10.00,M,CLR,M,M,M,M,M,M,M,M,KCMI 090530Z AUTO 29009KT 10SM CLR A3013 RMK MADISHF
CMI,2017-02-09 05:35,M,M,M,290.00,9.00,M,30.14,M,10.00,M,CLR,M,M,M,M,M,M,M,M,KCMI 090535Z AUTO 29009KT 10SM CLR A3014 RMK MADISHF
CMI,2017-02-09 05:40,M,M,M,290.00,10.00,M,30.14,M,10.00,M,CLR,M,M,M,M,M,M,M,M,KCMI 090540Z AUTO 29010KT 10SM CLR A3014 RMK MADISHF
CMI,2017-02-09 05:45,M,M,M,290.00,10.00,M,30.14,M,10.00,M,CLR,M,M,M,M,M,M,M,M,KCMI 090545Z AUTO 29010KT 10SM CLR A3014 RMK MADISHF
CMI,2017-02-09 05:50,M,M,M,290.00,11.00,M,30.14,M,10.00,M,CLR,M,M,M,M,M,M,M,M,KCMI 090550Z AUTO 29011KT 10SM CLR A3014 RMK MADISHF
CMI,2017-02-09 05:53,16.00,6.10,64.39,290.00,11.00,0.00,30.13,1021.50,10.00,M,CLR,M,M,M,M,M,M,M,M,KCMI 090553Z AUTO 29011KT 10SM CLR M09/M14 A3013 RMK AO2 SLP215 60000 T10891144 11033 21094 400111094 51020
CMI,2017-02-09 05:55,M,M,M,290.00,11.00,M,30.13,M,10.00,M,CLR,M,M,M,M,M,M,M,M,KCMI 090555Z AUTO 29011KT 10SM CLR A3013 RMK MADISHF
CMI,2017-02-09 06:00,M,M,M,290.00,13.00,M,30.14,M,10.00,M,CLR,M,M,M,M,M,M,M,M,KCMI 090600Z AUTO 29013KT 10SM CLR A3014 RMK MADISHF
CMI,2017-02-09 06:05,M,M,M,290.00,13.00,M,30.14,M,10.00,M,FEW,M,M,M,10000.00,M,M,M,M,KCMI 090605Z AUTO 29013KT 10SM FEW100 A3014 RMK MADISHF
CMI,2017-02-09 06:10,M,M,M,290.00,13.00,M,30.14,M,10.00,M,SCT,M,M,M,10000.00,M,M,M,M,KCMI 090610Z AUTO 29013KT 10SM SCT100 A3014 RMK MADISHF
CMI,2017-02-09 06:15,M,M,M,290.00,13.00,M,30.14,M,10.00,M,BKN,M,M,M,9500.00,M,M,M,M,KCMI 090615Z AUTO 29013KT 10SM BKN095 A3014 RMK MADISHF
CMI,2017-02-09 06:20,M,M,M,290.00,11.00,M,30.15,M,10.00,M,BKN,M,M,M,9500.00,M,M,M,M,KCMI 090620Z AUTO 29011KT 10SM BKN095 A3015 RMK MADISHF
CMI,2017-02-09 06:25,M,M,M,290.00,12.00,M,30.15,M,10.00,M,BKN,M,M,M,9500.00,M,M,M,M,KCMI 090625Z AUTO 29012KT 10SM BKN095 A3015 RMK MADISHF
CMI,2017-02-09 06:30,M,M,M,290.00,13.00,M,30.15,M,10.00,M,OVC,M,M,M,9500.00,M,M,M,M,KCMI 090630Z AUTO 29013KT 10SM OVC095 A3015 RMK MADISHF
CMI,2017-02-09 06:35,M,M,M,290.00,12.00,M,30.15,M,10.00,M,OVC,M,M,M,9500.00,M,M,M,M,KCMI 090635Z AUTO 29012KT 10SM OVC095 A3015 RMK MADISHF
CMI,2017-02-09 06:40,M,M,M,290.00,15.00,M,30.15,M,10.00,M,OVC,M,M,M,9500.00,M,M,M,M,KCMI 090640Z AUTO 29015KT 10SM OVC095 A3015 RMK MADISHF
CMI,2017-02-09 06:45,M,M,M,M,M,M,30.15,M,10.00,M,OVC,M,M,M,9500.00,M,M,M,M,KCMI 090645Z AUTO /////KT 10SM OVC095 A3015 RMK MADISHF
CMI,2017-02-09 06:50,M,M,M,290.00,14.00,M,30.16,M,10.00,M,OVC,M,M,M,9500.00,M,M,M,M,KCMI 090650Z AUTO 29014KT 10SM OVC095 A3016 RMK MADISHF
CMI,2017-02-09 06:53,16.00,9.00,73.41,290.00,14.00,0.00,30.16,1022.20,10.00,M,OVC,M,M,M,10000.00,M,M,M,M,KCMI 090653Z AUTO 29014KT 10SM OVC100 M09/M13 A3016 RMK AO2 SLP222 T10891128
CMI,2017-02-09 06:55,M,M,M,290.00,14.00,M,30.16,M,10.00,M,OVC,M,M,M,10000.00,M,M,M,M,KCMI 090655Z AUTO 29014KT 10SM OVC100 A3016 RMK MADISHF
CMI,2017-02-09 07:00,M,M,M,290.00,14.00,M,30.16,M,10.00,M,OVC,M,M,M,10000.00,M,M,M,M,KCMI 090700Z AUTO 29014KT 10SM OVC100 A3016 RMK MADISHF
CMI,2017-02-09 07:05,M,M,M,300.00,15.00,M,30.17,M,10.00,M,OVC,M,M,M,10000.00,M,M,M,M,KCMI 090705Z AUTO 30015KT 10SM OVC100 A3017 RMK MADISHF
CMI,2017-02-09 07:10,M,M,M,300.00,13.00,M,30.16,M,10.00,M,OVC,M,M,M,10000.00,M,M,M,M,KCMI 090710Z AUTO 30013KT 10SM OVC100 A3016 RMK MADISHF
CMI,2017-02-09 07:20,M,M,M,300.00,16.00,M,30.17,M,10.00,M,OVC,M,M,M,10000.00,M,M,M,M,KCMI 090720Z AUTO 30016KT 10SM OVC100 A3017 RMK MADISHF
CMI,2017-02-09 07:25,M,M,M,300.00,14.00,M,30.17,M,10.00,M,OVC,M,M,M,10000.00,M,M,M,M,KCMI 090725Z AUTO 30014KT 10SM OVC100 A3017 RMK MADISHF
CMI,2017-02-09 07:30,M,M,M,300.00,15.00,M,30.17,M,10.00,M,OVC,M,M,M,10000.00,M,M,M,M,KCMI 090730Z AUTO 30015KT 10SM OVC100 A3017 RMK MADISHF
CMI,2017-02-09 07:35,M,M,M,290.00,14.00,M,30.18,M,10.00,M,OVC,M,M,M,10000.00,M,M,M,M,KCMI 090735Z AUTO 29014KT 10SM OVC100 A3018 RMK MADISHF
CMI,2017-02-09 07:40,M,M,M,300.00,14.00,M,30.18,M,10.00,M,OVC,M,M,M,10000.00,M,M,M,M,KCMI 090740Z AUTO 30014KT 10SM OVC100 A3018 RMK MADISHF
CMI,2017-02-09 07:45,M,M,M,300.00,14.00,M,30.18,M,10.00,M,OVC,M,M,M,10000.00,M,M,M,M,KCMI 090745Z AUTO 30014KT 10SM OVC100 A3018 RMK MADISHF
CMI,2017-02-09 07:50,M,M,M,300.00,13.00,M,30.18,M,10.00,M,OVC,M,M,M,10000.00,M,M,M,M,KCMI 090750Z AUTO 30013KT 10SM OVC100 A3018 RMK MADISHF
CMI,2017-02-09 07:53,16.00,9.00,73.41,300.00,13.00,0.00,30.18,1023.20,10.00,M,OVC,M,M,M,10000.00,M,M,M,M,KCMI 090753Z AUTO 30013KT 10SM OVC100 M09/M13 A3018 RMK AO2 SLP232 T10891128
CMI,2017-02-09 07:55,M,M,M,300.00,13.00,M,30.18,M,10.00,M,OVC,M,M,M,10000.00,M,M,M,M,KCMI 090755Z AUTO 30013KT 10SM OVC100 A3018 RMK MADISHF
CMI,2017-02-09 08:00,M,M,M,300.00,13.00,M,30.19,M,10.00,M,OVC,M,M,M,10000.00,M,M,M,M,KCMI 090800Z AUTO 30013KT 10SM OVC100 A3019 RMK MADISHF
CMI,2017-02-09 08:05,M,M,M,300.00,11.00,M,30.19,M,10.00,M,OVC,M,M,M,10000.00,M,M,M,M,KCMI 090805Z AUTO 30011KT 10SM OVC100 A3019 RMK MADISHF
CMI,2017-02-09 08:10,M,M,M,300.00,13.00,M,30.19,M,10.00,M,OVC,M,M,M,9500.00,M,M,M,M,KCMI 090810Z AUTO 30013KT 10SM OVC095 A3019 RMK MADISHF
CMI,2017-02-09 08:15,M,M,M,300.00,13.00,M,30.19,M,10.00,M,OVC,M,M,M,9500.00,M,M,M,M,KCMI 090815Z AUTO 30013KT 10SM OVC095 A3019 RMK MADISHF
CMI,2017-02-09 08:20,M,M,M,310.00,15.00,M,30.19,M,10.00,M,OVC,M,M,M,9500.00,M,M,M,M,KCMI 090820Z AUTO 31015KT 10SM OVC095 A3019 RMK MADISHF
CMI,2017-02-09 08:25,M,M,M,310.00,15.00,M,30.20,M,10.00,M,OVC,M,M,M,9500.00,M,M,M,M,KCMI 090825Z AUTO 31015KT 10SM OVC095 A3020 RMK MADISHF
CMI,2017-02-09 08:30,M,M,M,310.00,17.00,M,30.20,M,10.00,M,OVC,M,M,M,9500.00,M,M,M,M,KCMI 090830Z AUTO 31017KT 10SM OVC095 A3020 RMK MADISHF
CMI,2017-02-09 08:35,M,M,M,310.00,17.00,M,30.20,M,10.00,M,OVC,M,M,M,9500.00,M,M,M,M,KCMI 090835Z AUTO 31017KT 10SM OVC095 A3020 RMK MADISHF
CMI,2017-02-09 08:40,M,M,M,310.00,16.00,M,30.20,M,10.00,M,OVC,M,M,M,9000.00,M,M,M,M,KCMI 090840Z AUTO 31016KT 10SM OVC090 A3020 RMK MADISHF
CMI,2017-02-09 08:45,M,M,M,310.00,17.00,M,30.20,M,10.00,M,OVC,M,M,M,9000.00,M,M,M,M,KCMI 090845Z AUTO 31017KT 10SM OVC090 A3020 RMK MADISHF
CMI,2017-02-09 08:50,M,M,M,310.00,19.00,M,30.21,M,10.00,M,OVC,M,M,M,9000.00,M,M,M,M,KCMI 090850Z AUTO 31019KT 10SM OVC090 A3021 RMK MADISHF
CMI,2017-02-09 08:53,16.00,7.00,67.07,300.00,16.00,0.00,30.21,1024.00,10.00,M,OVC,M,M,M,9000.00,M,M,M,M,KCMI 090853Z AUTO 30016KT 10SM OVC090 M09/M14 A3021 RMK AO2 SLP240 T10891139 53024
CMI,2017-02-09 08:55,M,M,M,310.00,16.00,M,30.21,M,10.00,M,OVC,M,M,M,9000.00,M,M,M,M,KCMI 090855Z AUTO 31016KT 10SM OVC090 A3021 RMK MADISHF
CMI,2017-02-09 09:00,M,M,M,310.00,17.00,M,30.20,M,10.00,M,OVC,M,M,M,9000.00,M,M,M,M,KCMI 090900Z AUTO 31017KT 10SM OVC090 A3020 RMK MADISHF
CMI,2017-02-09 09:05,M,M,M,300.00,16.00,M,30.21,M,10.00,M,OVC,M,M,M,9000.00,M,M,M,M,KCMI 090905Z AUTO 30016KT 10SM OVC090 A3021 RMK MADISHF
CMI,2017-02-09 09:10,M,M,M,300.00,16.00,M,30.21,M,10.00,M,OVC,M,M,M,9000.00,M,M,M,M,KCMI 090910Z AUTO 30016KT 10SM OVC090 A3021 RMK MADISHF
CMI,2017-02-09 09:15,M,M,M,300.00,16.00,M,30.21,M,10.00,M,OVC,M,M,M,9000.00,M,M,M,M,KCMI 090915Z AUTO 30016KT 10SM OVC090 A3021 RMK MADISHF
CMI,2017-02-09 09:20,M,M,M,300.00,16.00,M,30.21,M,10.00,M,OVC,M,M,M,9000.00,M,M,M,M,KCMI 090920Z AUTO 30016KT 10SM OVC090 A3021 RMK MADISHF
CMI,2017-02-09 09:25,M,M,M,300.00,15.00,M,30.22,M,10.00,M,OVC,M,M,M,8500.00,M,M,M,M,KCMI 090925Z AUTO 30015KT 10SM OVC085 A3022 RMK MADISHF
CMI,2017-02-09 09:30,M,M,M,300.00,16.00,M,30.22,M,10.00,M,OVC,M,M,M,8500.00,M,M,M,M,KCMI 090930Z AUTO 30016KT 10SM OVC085 A3022 RMK MADISHF
CMI,2017-02-09 09:35,M,M,M,300.00,16.00,M,30.22,M,10.00,M,OVC,M,M,M,8500.00,M,M,M,M,KCMI 090935Z AUTO 30016KT 10SM OVC085 A3022 RMK MADISHF
CMI,2017-02-09 09:40,M,M,M,300.00,17.00,M,30.22,M,10.00,M,OVC,M,M,M,8500.00,M,M,M,M,KCMI 090940Z AUTO 30017KT 10SM OVC085 A3022 RMK MADISHF
CMI,2017-02-09 09:45,M,M,M,300.00,15.00,M,30.23,M,10.00,M,OVC,M,M,M,8500.00,M,M,M,M,KCMI 090945Z AUTO 30015KT 10SM OVC085 A3023 RMK MADISHF
CMI,2017-02-09 09:50,M,M,M,300.00,18.00,M,30.23,M,10.00,M,OVC,M,M,M,8500.00,M,M,M,M,KCMI 090950Z AUTO 30018KT 10SM OVC085 A3023 RMK MADISHF
CMI,2017-02-09 09:53,16.00,6.10,64.39,300.00,16.00,0.00,30.23,1024.80,10.00,M,OVC,M,M,M,9000.00,M,M,M,M,KCMI 090953Z AUTO 30016KT 10SM OVC090 M09/M14 A3023 RMK AO2 SLP248 T10891144
CMI,2017-02-09 09:55,M,M,M,M,M,M,30.23,M,10.00,M,OVC,M,M,M,9000.00,M,M,M,M,KCMI 090955Z AUTO /////KT 10SM OVC090 A3023 RMK MADISHF
CMI,2017-02-09 10:00,M,M,M,300.00,16.00,M,30.23,M,10.00,M,OVC,M,M,M,9000.00,M,M,M,M,KCMI 091000Z AUTO 30016KT 10SM OVC090 A3023 RMK MADISHF
CMI,2017-02-09 10:05,M,M,M,300.00,16.00,M,30.23,M,10.00,M,OVC,M,M,M,9000.00,M,M,M,M,KCMI 091005Z AUTO 30016KT 10SM OVC090 A3023 RMK MADISHF
CMI,2017-02-09 10:10,M,M,M,300.00,15.00,M,30.22,M,10.00,M,OVC,M,M,M,9000.00,M,M,M,M,KCMI 091010Z AUTO 30015KT 10SM OVC090 A3022 RMK MADISHF
CMI,2017-02-09 10:15,M,M,M,310.00,15.00,M,30.23,M,10.00,M,OVC,M,M,M,8500.00,M,M,M,M,KCMI 091015Z AUTO 31015KT 10SM OVC085 A3023 RMK MADISHF
CMI,2017-02-09 10:20,M,M,M,M,M,M,30.23,M,10.00,M,OVC,M,M,M,8500.00,M,M,M,M,KCMI 091020Z AUTO /////KT 10SM OVC085 A3023 RMK MADISHF
CMI,2017-02-09 10:25,M,M,M,300.00,16.00,M,30.24,M,10.00,M,OVC,M,M,M,8500.00,M,M,M,M,KCMI 091025Z AUTO 30016KT 10SM OVC085 A3024 RMK MADISHF
CMI,2017-02-09 10:30,M,M,M,300.00,14.00,M,30.24,M,10.00,M,OVC,M,M,M,8500.00,M,M,M,M,KCMI 091030Z AUTO 30014KT 10SM OVC085 A3024 RMK MADISHF
CMI,2017-02-09 10:35,M,M,M,300.00,15.00,M,30.24,M,10.00,M,OVC,M,M,M,7999.00,M,M,M,M,KCMI 091035Z AUTO 30015KT 10SM OVC079 A3024 RMK MADISHF
CMI,2017-02-09 10:40,M,M,M,300.00,16.00,M,30.24,M,10.00,M,OVC,M,M,M,7999.00,M,M,M,M,KCMI 091040Z AUTO 30016KT 10SM OVC079 A3024 RMK MADISHF
CMI,2017-02-09 10:45,M,M,M,M,M,M,30.24,M,10.00,M,BKN,M,M,M,7999.00,M,M,M,M,KCMI 091045Z AUTO /////KT 10SM BKN079 A3024 RMK MADISHF
CMI,2017-02-09 10:50,M,M,M,300.00,14.00,M,30.24,M,10.00,M,SCT,M,M,M,7999.00,M,M,M,M,KCMI 091050Z AUTO 30014KT 10SM SCT079 A3024 RMK MADISHF
CMI,2017-02-09 10:53,14.00,3.90,63.53,300.00,13.00,0.00,30.24,1025.30,10.00,M,SCT,M,M,M,7500.00,M,M,M,M,KCMI 091053Z AUTO 30013KT 10SM SCT075 M10/M16 A3024 RMK AO2 SLP253 T11001156
CMI,2017-02-09 10:55,M,M,M,300.00,14.00,M,30.24,M,10.00,M,SCT,M,M,M,7500.00,M,M,M,M,KCMI 091055Z AUTO 30014KT 10SM SCT075 A3024 RMK MADISHF
CMI,2017-02-09 11:00,M,M,M,300.00,11.00,M,30.25,M,10.00,M,FEW,M,M,M,7500.00,M,M,M,M,KCMI 091100Z AUTO 30011KT 10SM FEW075 A3025 RMK MADISHF
CMI,2017-02-09 11:05,M,M,M,290.00,9.00,M,30.25,M,10.00,M,FEW,M,M,M,7500.00,M,M,M,M,KCMI 091105Z AUTO 29009KT 10SM FEW075 A3025 RMK MADISHF
CMI,2017-02-09 11:10,M,M,M,300.00,10.00,M,30.25,M,10.00,M,CLR,M,M,M,M,M,M,M,M,KCMI 091110Z AUTO 30010KT 10SM CLR A3025 RMK MADISHF
CMI,2017-02-09 11:15,M,M,M,300.00,11.00,M,30.25,M,10.00,M,CLR,M,M,M,M,M,M,M,M,KCMI 091115Z AUTO 30011KT 10SM CLR A3025 RMK MADISHF
CMI,2017-02-09 11:20,M,M,M,300.00,10.00,M,30.25,M,10.00,M,CLR,M,M,M,M,M,M,M,M,KCMI 091120Z AUTO 30010KT 10SM CLR A3025 RMK MADISHF
CMI,2017-02-09 11:25,M,M,M,290.00,10.00,M,30.25,M,10.00,M,CLR,M,M,M,M,M,M,M,M,KCMI 091125Z AUTO 29010KT 10SM CLR A3025 RMK MADISHF
CMI,2017-02-09 11:30,M,M,M,290.00,9.00,M,30.26,M,10.00,M,CLR,M,M,M,M,M,M,M,M,KCMI 091130Z AUTO 29009KT 10SM CLR A3026 RMK MADISHF
CMI,2017-02-09 11:35,M,M,M,290.00,9.00,M,30.26,M,10.00,M,CLR,M,M,M,M,M,M,M,M,KCMI 091135Z AUTO 29009KT 10SM CLR A3026 RMK MADISHF
CMI,2017-02-09 11:40,M,M,M,300.00,9.00,M,30.26,M,10.00,M,CLR,M,M,M,M,M,M,M,M,KCMI 091140Z AUTO 30009KT 10SM CLR A3026 RMK MADISHF
CMI,2017-02-09 11:45,M,M,M,300.00,9.00,M,30.26,M,10.00,M,CLR,M,M,M,M,M,M,M,M,KCMI 091145Z AUTO 30009KT 10SM CLR A3026 RMK MADISHF
CMI,2017-02-09 11:50,M,M,M,300.00,9.00,M,30.26,M,10.00,M,CLR,M,M,M,M,M,M,M,M,KCMI 091150Z AUTO 30009KT 10SM CLR A3026 RMK MADISHF
CMI,2017-02-09 11:53,10.90,3.90,72.85,290.00,9.00,0.00,30.26,1025.90,10.00,M,CLR,M,M,M,M,M,M,M,M,KCMI 091153Z 29009KT 10SM CLR M12/M16 A3026 RMK AO2 SLP259 70004 T11171156 11083 21117 51017
CMI,2017-02-09 11:55,M,M,M,290.00,9.00,M,30.26,M,10.00,M,CLR,M,M,M,M,M,M,M,M,KCMI 091155Z AUTO 29009KT 10SM CLR A3026 RMK MADISHF
CMI,2017-02-09 12:00,M,M,M,290.00,9.00,M,30.26,M,10.00,M,CLR,M,M,M,M,M,M,M,M,KCMI 091200Z AUTO 29009KT 10SM CLR A3026 RMK MADISHF
CMI,2017-02-09 12:05,M,M,M,300.00,8.00,M,30.26,M,10.00,M,CLR,M,M,M,M,M,M,M,M,KCMI 091205Z AUTO 30008KT 10SM CLR A3026 RMK MADISHF
CMI,2017-02-09 12:10,M,M,M,300.00,8.00,M,30.27,M,10.00,M,CLR,M,M,M,M,M,M,M,M,KCMI 091210Z AUTO 30008KT 10SM CLR A3027 RMK MADISHF
CMI,2017-02-09 12:15,M,M,M,290.00,7.00,M,30.27,M,10.00,M,CLR,M,M,M,M,M,M,M,M,KCMI 091215Z AUTO 29007KT 10SM CLR A3027 RMK MADISHF
CMI,2017-02-09 12:20,M,M,M,290.00,7.00,M,30.27,M,10.00,M,CLR,M,M,M,M,M,M,M,M,KCMI 091220Z AUTO 29007KT 10SM CLR A3027 RMK MADISHF
CMI,2017-02-09 12:25,M,M,M,290.00,6.00,M,30.27,M,10.00,M,CLR,M,M,M,M,M,M,M,M,KCMI 091225Z AUTO 29006KT 10SM CLR A3027 RMK MADISHF
CMI,2017-02-09 12:30,M,M,M,290.00,7.00,M,30.28,M,10.00,M,CLR,M,M,M,M,M,M,M,M,KCMI 091230Z AUTO 29007KT 10SM CLR A3028 RMK MADISHF
CMI,2017-02-09 12:35,M,M,M,290.00,7.00,M,30.28,M,10.00,M,CLR,M,M,M,M,M,M,M,M,KCMI 091235Z AUTO 29007KT 10SM CLR A3028 RMK MADISHF
CMI,2017-02-09 12:40,M,M,M,290.00,6.00,M,30.27,M,10.00,M,CLR,M,M,M,M,M,M,M,M,KCMI 091240Z AUTO 29006KT 10SM CLR A3027 RMK MADISHF
CMI,2017-02-09 12:45,M,M,M,290.00,7.00,M,30.28,M,10.00,M,CLR,M,M,M,M,M,M,M,M,KCMI 091245Z AUTO 29007KT 10SM CLR A3028 RMK MADISHF
CMI,2017-02-09 12:50,M,M,M,290.00,7.00,M,30.28,M,10.00,M,CLR,M,M,M,M,M,M,M,M,KCMI 091250Z AUTO 29007KT 10SM CLR A3028 RMK MADISHF
CMI,2017-02-09 12:53,6.10,0.00,75.43,280.00,7.00,0.00,30.28,1026.90,10.00,M,CLR,M,M,M,M,M,M,M,M,KCMI 091253Z 28007KT 10SM CLR M14/M18 A3028 RMK AO2 SLP269 T11441178
CMI,2017-02-09 12:55,M,M,M,280.00,6.00,M,30.29,M,10.00,M,CLR,M,M,M,M,M,M,M,M,KCMI 091255Z AUTO 28006KT 10SM CLR A3029 RMK MADISHF
CMI,2017-02-09 13:00,M,M,M,280.00,6.00,M,30.29,M,10.00,M,CLR,M,M,M,M,M,M,M,M,KCMI 091300Z AUTO 28006KT 10SM CLR A3029 RMK MADISHF
CMI,2017-02-09 13:05,M,M,M,280.00,7.00,M,30.29,M,10.00,M,CLR,M,M,M,M,M,M,M,M,KCMI 091305Z AUTO 28007KT 10SM CLR A3029 RMK MADISHF
CMI,2017-02-09 13:10,M,M,M,280.00,8.00,M,30.29,M,10.00,M,CLR,M,M,M,M,M,M,M,M,KCMI 091310Z AUTO 28008KT 10SM CLR A3029 RMK MADISHF
CMI,2017-02-09 13:15,M,M,M,280.00,7.00,M,30.29,M,10.00,M,CLR,M,M,M,M,M,M,M,M,KCMI 091315Z AUTO 28007KT 10SM CLR A3029 RMK MADISHF
CMI,2017-02-09 13:20,M,M,M,280.00,8.00,M,30.30,M,10.00,M,CLR,M,M,M,M,M,M,M,M,KCMI 091320Z AUTO 28008KT 10SM CLR A3030 RMK MADISHF
CMI,2017-02-09 13:25,M,M,M,280.00,8.00,M,30.30,M,10.00,M,CLR,M,M,M,M,M,M,M,M,KCMI 091325Z AUTO 28008KT 10SM CLR A3030 RMK MADISHF
CMI,2017-02-09 13:30,M,M,M,280.00,8.00,M,30.30,M,10.00,M,CLR,M,M,M,M,M,M,M,M,KCMI 091330Z AUTO 28008KT 10SM CLR A3030 RMK MADISHF
CMI,2017-02-09 13:35,M,M,M,280.00,8.00,M,30.31,M,10.00,M,CLR,M,M,M,M,M,M,M,M,KCMI 091335Z AUTO 28008KT 10SM CLR A3031 RMK MADISHF
CMI,2017-02-09 13:40,M,M,M,280.00,6.00,M,30.31,M,10.00,M,CLR,M,M,M,M,M,M,M,M,KCMI 091340Z AUTO 28006KT 10SM CLR A3031 RMK MADISHF
CMI,2017-02-09 13:45,M,M,M,280.00,6.00,M,30.31,M,10.00,M,CLR,M,M,M,M,M,M,M,M,KCMI 091345Z AUTO 28006KT 10SM CLR A3031 RMK MADISHF
CMI,2017-02-09 13:50,M,M,M,280.00,6.00,M,30.31,M,10.00,M,CLR,M,M,M,M,M,M,M,M,KCMI 091350Z AUTO 28006KT 10SM CLR A3031 RMK MADISHF
CMI,2017-02-09 13:53,7.00,1.00,75.88,280.00,6.00,0.00,30.31,1027.80,10.00,M,CLR,M,M,M,M,M,M,M,M,KCMI 091353Z 28006KT 10SM CLR M14/M17 A3031 RMK AO2 SLP278 T11391172
CMI,2017-02-09 13:55,M,M,M,280.00,7.00,M,30.31,M,10.00,M,CLR,M,M,M,M,M,M,M,M,KCMI 091355Z AUTO 28007KT 10SM CLR A3031 RMK MADISHF
CMI,2017-02-09 14:00,M,M,M,280.00,7.00,M,30.31,M,10.00,M,CLR,M,M,M,M,M,M,M,M,KCMI 091400Z AUTO 28007KT 10SM CLR A3031 RMK MADISHF
CMI,2017-02-09 14:05,M,M,M,290.00,7.00,M,30.32,M,10.00,M,CLR,M,M,M,M,M,M,M,M,KCMI 091405Z AUTO 29007KT 10SM CLR A3032 RMK MADISHF
CMI,2017-02-09 14:10,M,M,M,290.00,7.00,M,30.32,M,10.00,M,CLR,M,M,M,M,M,M,M,M,KCMI 091410Z AUTO 29007KT 10SM CLR A3032 RMK MADISHF
CMI,2017-02-09 14:15,M,M,M,280.00,7.00,M,30.32,M,10.00,M,CLR,M,M,M,M,M,M,M,M,KCMI 091415Z AUTO 28007KT 10SM CLR A3032 RMK MADISHF
CMI,2017-02-09 14:20,M,M,M,280.00,7.00,M,30.32,M,10.00,M,CLR,M,M,M,M,M,M,M,M,KCMI 091420Z AUTO 28007KT 10SM CLR A3032 RMK MADISHF
CMI,2017-02-09 14:25,M,M,M,280.00,8.00,M,30.33,M,10.00,M,CLR,M,M,M,M,M,M,M,M,KCMI 091425Z AUTO 28008KT 10SM CLR A3033 RMK MADISHF
CMI,2017-02-09 14:30,M,M,M,290.00,10.00,M,30.33,M,10.00,M,CLR,M,M,M,M,M,M,M,M,KCMI 091430Z AUTO 29010KT 10SM CLR A3033 RMK MADISHF
CMI,2017-02-09 14:35,M,M,M,290.00,13.00,M,30.33,M,10.00,M,CLR,M,M,M,M,M,M,M,M,KCMI 091435Z AUTO 29013KT 10SM CLR A3033 RMK MADISHF
CMI,2017-02-09 14:40,M,M,M,290.00,12.00,M,30.34,M,10.00,M,CLR,M,M,M,M,M,M,M,M,KCMI 091440Z AUTO 29012KT 10SM CLR A3034 RMK MADISHF
CMI,2017-02-09 14:45,M,M,M,290.00,12.00,M,30.35,M,10.00,M,CLR,M,M,M,M,M,M,M,M,KCMI 091445Z AUTO 29012KT 10SM CLR A3035 RMK MADISHF
CMI,2017-02-09 14:50,M,M,M,290.00,12.00,M,30.35,M,10.00,M,CLR,M,M,M,M,M,M,M,M,KCMI 091450Z AUTO 29012KT 10SM CLR A3035 RMK MADISHF
CMI,2017-02-09 14:53,14.00,6.10,70.26,290.00,11.00,0.00,30.35,1029.00,10.00,M,CLR,M,M,M,M,M,M,M,M,KCMI 091453Z 29011KT 10SM CLR M10/M14 A3035 RMK AO2 SLP290 T11001144 53029
CMI,2017-02-09 14:55,M,M,M,300.00,13.00,M,30.35,M,10.00,M,CLR,M,M,M,M,M,M,M,M,KCMI 091455Z AUTO 30013KT 10SM CLR A3035 RMK MADISHF
CMI,2017-02-09 15:00,M,M,M,300.00,15.00,M,30.35,M,10.00,M,CLR,M,M,M,M,M,M,M,M,KCMI 091500Z AUTO 30015KT 10SM CLR A3035 RMK MADISHF
CMI,2017-02-09 15:05,M,M,M,290.00,14.00,M,30.35,M,10.00,M,CLR,M,M,M,M,M,M,M,M,KCMI 091505Z AUTO 29014KT 10SM CLR A3035 RMK MADISHF
CMI,2017-02-09 15:10,M,M,M,290.00,14.00,M,30.35,M,10.00,M,CLR,M,M,M,M,M,M,M,M,KCMI 091510Z AUTO 29014KT 10SM CLR A3035 RMK MADISHF
CMI,2017-02-09 15:15,M,M,M,290.00,14.00,M,30.35,M,10.00,M,CLR,M,M,M,M,M,M,M,M,KCMI 091515Z AUTO 29014KT 10SM CLR A3035 RMK MADISHF
CMI,2017-02-09 15:20,M,M,M,300.00,14.00,M,30.36,M,10.00,M,CLR,M,M,M,M,M,M,M,M,KCMI 091520Z AUTO 30014KT 10SM CLR A3036 RMK MADISHF
CMI,2017-02-09 15:25,M,M,M,300.00,14.00,M,30.36,M,10.00,M,CLR,M,M,M,M,M,M,M,M,KCMI 091525Z AUTO 30014KT 10SM CLR A3036 RMK MADISHF
CMI,2017-02-09 15:30,M,M,M,300.00,12.00,M,30.36,M,10.00,M,CLR,M,M,M,M,M,M,M,M,KCMI 091530Z AUTO 30012KT 10SM CLR A3036 RMK MADISHF
CMI,2017-02-09 15:35,M,M,M,300.00,15.00,M,30.36,M,10.00,M,CLR,M,M,M,M,M,M,M,M,KCMI 091535Z AUTO 30015KT 10SM CLR A3036 RMK MADISHF
CMI,2017-02-09 15:40,M,M,M,M,M,M,30.37,M,10.00,M,CLR,M,M,M,M,M,M,M,M,KCMI 091540Z AUTO /////KT 10SM CLR A3037 RMK MADISHF
CMI,2017-02-09 15:45,M,M,M,300.00,14.00,M,30.37,M,10.00,M,CLR,M,M,M,M,M,M,M,M,KCMI 091545Z AUTO 30014KT 10SM CLR A3037 RMK MADISHF
CMI,2017-02-09 15:50,M,M,M,310.00,12.00,M,30.37,M,10.00,M,CLR,M,M,M,M,M,M,M,M,KCMI 091550Z AUTO 31012KT 10SM CLR A3037 RMK MADISHF
CMI,2017-02-09 15:53,15.10,6.10,66.96,310.00,13.00,0.00,30.37,1029.90,10.00,M,CLR,M,M,M,M,M,M,M,M,KCMI 091553Z 31013KT 10SM CLR M09/M14 A3037 RMK AO2 SLP299 T10941144
CMI,2017-02-09 15:55,M,M,M,310.00,14.00,M,30.37,M,10.00,M,CLR,M,M,M,M,M,M,M,M,KCMI 091555Z AUTO 31014KT 10SM CLR A3037 RMK MADISHF
CMI,2017-02-09 16:00,M,M,M,300.00,12.00,M,30.38,M,10.00,M,CLR,M,M,M,M,M,M,M,M,KCMI 091600Z AUTO 30012KT 10SM CLR A3038 RMK MADISHF
CMI,2017-02-09 16:05,M,M,M,300.00,13.00,M,30.38,M,10.00,M,CLR,M,M,M,M,M,M,M,M,KCMI 091605Z AUTO 30013KT 10SM CLR A3038 RMK MADISHF
CMI,2017-02-09 16:10,M,M,M,300.00,13.00,M,30.38,M,10.00,M,CLR,M,M,M,M,M,M,M,M,KCMI 091610Z AUTO 30013KT 10SM CLR A3038 RMK MADISHF
CMI,2017-02-09 16:15,M,M,M,300.00,12.00,M,30.38,M,10.00,M,CLR,M,M,M,M,M,M,M,M,KCMI 091615Z AUTO 30012KT 10SM CLR A3038 RMK MADISHF
CMI,2017-02-09 16:20,M,M,M,310.00,13.00,M,30.38,M,10.00,M,CLR,M,M,M,M,M,M,M,M,KCMI 091620Z AUTO 31013KT 10SM CLR A3038 RMK MADISHF
CMI,2017-02-09 16:25,M,M,M,310.00,12.00,M,30.39,M,10.00,M,CLR,M,M,M,M,M,M,M,M,KCMI 091625Z AUTO 31012KT 10SM CLR A3039 RMK MADISHF
CMI,2017-02-09 16:30,M,M,M,310.00,13.00,M,30.39,M,10.00,M,CLR,M,M,M,M,M,M,M,M,KCMI 091630Z AUTO 31013KT 10SM CLR A3039 RMK MADISHF
CMI,2017-02-09 16:35,M,M,M,300.00,13.00,M,30.39,M,10.00,M,CLR,M,M,M,M,M,M,M,M,KCMI 091635Z AUTO 30013KT 10SM CLR A3039 RMK MADISHF
CMI,2017-02-09 16:40,M,M,M,300.00,13.00,M,30.39,M,10.00,M,CLR,M,M,M,M,M,M,M,M,KCMI 091640Z AUTO 30013KT 10SM CLR A3039 RMK MADISHF
CMI,2017-02-09 16:45,M,M,M,310.00,12.00,M,30.39,M,10.00,M,CLR,M,M,M,M,M,M,M,M,KCMI 091645Z AUTO 31012KT 10SM CLR A3039 RMK MADISHF
CMI,2017-02-09 16:50,M,M,M,300.00,12.00,M,30.39,M,10.00,M,CLR,M,M,M,M,M,M,M,M,KCMI 091650Z AUTO 30012KT 10SM CLR A3039 RMK MADISHF
CMI,2017-02-09 16:53,17.10,7.00,63.95,310.00,12.00,0.00,30.39,1030.50,10.00,M,CLR,M,M,M,M,M,M,M,M,KCMI 091653Z 31012KT 10SM CLR M08/M14 A3039 RMK AO2 SLP305 T10831139
CMI,2017-02-09 16:55,M,M,M,300.00,13.00,M,30.39,M,10.00,M,CLR,M,M,M,M,M,M,M,M,KCMI 091655Z AUTO 30013KT 10SM CLR A3039 RMK MADISHF
CMI,2017-02-09 17:00,M,M,M,310.00,12.00,M,30.39,M,10.00,M,CLR,M,M,M,M,M,M,M,M,KCMI 091700Z AUTO 31012KT 10SM CLR A3039 RMK MADISHF
CMI,2017-02-09 17:05,M,M,M,300.00,12.00,M,30.38,M,10.00,M,CLR,M,M,M,M,M,M,M,M,KCMI 091705Z AUTO 30012KT 10SM CLR A3038 RMK MADISHF
CMI,2017-02-09 17:10,M,M,M,300.00,13.00,M,30.39,M,10.00,M,CLR,M,M,M,M,M,M,M,M,KCMI 091710Z AUTO 30013KT 10SM CLR A3039 RMK MADISHF
CMI,2017-02-09 17:15,M,M,M,M,M,M,30.39,M,10.00,M,CLR,M,M,M,M,M,M,M,M,KCMI 091715Z AUTO /////KT 10SM CLR A3039 RMK MADISHF
CMI,2017-02-09 17:20,M,M,M,300.00,14.00,M,30.39,M,10.00,M,CLR,M,M,M,M,M,M,M,M,KCMI 091720Z AUTO 30014KT 10SM CLR A3039 RMK MADISHF
CMI,2017-02-09 17:25,M,M,M,290.00,13.00,M,30.40,M,10.00,M,CLR,M,M,M,M,M,M,M,M,KCMI 091725Z AUTO 29013KT 10SM CLR A3040 RMK MADISHF
CMI,2017-02-09 17:30,M,M,M,290.00,15.00,M,30.40,M,10.00,M,CLR,M,M,M,M,M,M,M,M,KCMI 091730Z AUTO 29015KT 10SM CLR A3040 RMK MADISHF
CMI,2017-02-09 17:35,M,M,M,M,M,M,30.40,M,10.00,M,CLR,M,M,M,M,M,M,M,M,KCMI 091735Z AUTO /////KT 10SM CLR A3040 RMK MADISHF
CMI,2017-02-09 17:40,M,M,M,300.00,13.00,M,30.39,M,10.00,M,CLR,M,M,M,M,M,M,M,M,KCMI 091740Z AUTO 30013KT 10SM CLR A3039 RMK MADISHF
CMI,2017-02-09 17:45,M,M,M,300.00,12.00,M,30.39,M,10.00,M,CLR,M,M,M,M,M,M,M,M,KCMI 091745Z AUTO 30012KT 10SM CLR A3039 RMK MADISHF
CMI,2017-02-09 17:50,M,M,M,300.00,12.00,M,30.39,M,10.00,M,CLR,M,M,M,M,M,M,M,M,KCMI 091750Z AUTO 30012KT 10SM CLR A3039 RMK MADISHF
CMI,2017-02-09 17:53,17.10,6.10,61.39,300.00,12.00,0.00,30.39,1030.60,10.00,M,CLR,M,M,M,M,M,M,M,M,KCMI 091753Z 30012KT 10SM CLR M08/M14 A3039 RMK AO2 SLP306 T10831144 11078 21144 51016
CMI,2017-02-09 17:55,M,M,M,300.00,13.00,M,30.39,M,10.00,M,CLR,M,M,M,M,M,M,M,M,KCMI 091755Z AUTO 30013KT 10SM CLR A3039 RMK MADISHF
CMI,2017-02-09 18:00,M,M,M,300.00,12.00,M,30.39,M,10.00,M,CLR,M,M,M,M,M,M,M,M,KCMI 091800Z AUTO 30012KT 10SM CLR A3039 RMK MADISHF
CMI,2017-02-09 18:05,M,M,M,290.00,12.00,M,30.40,M,10.00,M,CLR,M,M,M,M,M,M,M,M,KCMI 091805Z AUTO 29012KT 10SM CLR A3040 RMK MADISHF
CMI,2017-02-09 18:10,M,M,M,300.00,13.00,M,30.39,M,10.00,M,CLR,M,M,M,M,M,M,M,M,KCMI 091810Z AUTO 30013KT 10SM CLR A3039 RMK MADISHF
CMI,2017-02-09 18:15,M,M,M,290.00,14.00,M,30.40,M,10.00,M,CLR,M,M,M,M,M,M,M,M,KCMI 091815Z AUTO 29014KT 10SM CLR A3040 RMK MADISHF
CMI,2017-02-09 18:20,M,M,M,290.00,13.00,M,30.39,M,10.00,M,CLR,M,M,M,M,M,M,M,M,KCMI 091820Z AUTO 29013KT 10SM CLR A3039 RMK MADISHF
CMI,2017-02-09 18:25,M,M,M,290.00,11.00,M,30.39,M,10.00,M,CLR,M,M,M,M,M,M,M,M,KCMI 091825Z AUTO 29011KT 10SM CLR A3039 RMK MADISHF
CMI,2017-02-09 18:30,M,M,M,290.00,14.00,M,30.39,M,10.00,M,CLR,M,M,M,M,M,M,M,M,KCMI 091830Z AUTO 29014KT 10SM CLR A3039 RMK MADISHF
CMI,2017-02-09 18:35,M,M,M,290.00,13.00,M,30.39,M,10.00,M,CLR,M,M,M,M,M,M,M,M,KCMI 091835Z AUTO 29013KT 10SM CLR A3039 RMK MADISHF
CMI,2017-02-09 18:40,M,M,M,300.00,11.00,M,30.39,M,10.00,M,CLR,M,M,M,M,M,M,M,M,KCMI 091840Z AUTO 30011KT 10SM CLR A3039 RMK MADISHF
CMI,2017-02-09 18:45,M,M,M,290.00,11.00,M,30.39,M,10.00,M,CLR,M,M,M,M,M,M,M,M,KCMI 091845Z AUTO 29011KT 10SM CLR A3039 RMK MADISHF
CMI,2017-02-09 18:50,M,M,M,290.00,12.00,M,30.39,M,10.00,M,CLR,M,M,M,M,M,M,M,M,KCMI 091850Z AUTO 29012KT 10SM CLR A3039 RMK MADISHF
CMI,2017-02-09 18:53,18.00,7.00,61.52,290.00,11.00,0.00,30.39,1030.50,10.00,M,CLR,M,M,M,M,M,M,M,M,KCMI 091853Z 29011KT 10SM CLR M08/M14 A3039 RMK AO2 SLP305 T10781139
CMI,2017-02-09 18:55,M,M,M,290.00,13.00,M,30.39,M,10.00,M,CLR,M,M,M,M,M,M,M,M,KCMI 091855Z AUTO 29013KT 10SM CLR A3039 RMK MADISHF
CMI,2017-02-09 19:00,M,M,M,290.00,13.00,M,30.39,M,10.00,M,CLR,M,M,M,M,M,M,M,M,KCMI 091900Z AUTO 29013KT 10SM CLR A3039 RMK MADISHF
CMI,2017-02-09 19:05,M,M,M,290.00,12.00,M,30.39,M,10.00,M,CLR,M,M,M,M,M,M,M,M,KCMI 091905Z AUTO 29012KT 10SM CLR A3039 RMK MADISHF
CMI,2017-02-09 19:10,M,M,M,290.00,12.00,M,30.39,M,10.00,M,CLR,M,M,M,M,M,M,M,M,KCMI 091910Z AUTO 29012KT 10SM CLR A3039 RMK MADISHF
CMI,2017-02-09 19:15,M,M,M,290.00,12.00,M,30.39,M,10.00,M,CLR,M,M,M,M,M,M,M,M,KCMI 091915Z AUTO 29012KT 10SM CLR A3039 RMK MADISHF
CMI,2017-02-09 19:20,M,M,M,290.00,10.00,M,30.39,M,10.00,M,CLR,M,M,M,M,M,M,M,M,KCMI 091920Z AUTO 29010KT 10SM CLR A3039 RMK MADISHF
CMI,2017-02-09 19:25,M,M,M,290.00,13.00,M,30.39,M,10.00,M,CLR,M,M,M,M,M,M,M,M,KCMI 091925Z AUTO 29013KT 10SM CLR A3039 RMK MADISHF
CMI,2017-02-09 19:30,M,M,M,290.00,12.00,M,30.39,M,10.00,M,CLR,M,M,M,M,M,M,M,M,KCMI 091930Z AUTO 29012KT 10SM CLR A3039 RMK MADISHF
CMI,2017-02-09 19:35,M,M,M,280.00,11.00,M,30.39,M,10.00,M,CLR,M,M,M,M,M,M,M,M,KCMI 091935Z AUTO 28011KT 10SM CLR A3039 RMK MADISHF
CMI,2017-02-09 19:40,M,M,M,280.00,11.00,M,30.39,M,10.00,M,CLR,M,M,M,M,M,M,M,M,KCMI 091940Z AUTO 28011KT 10SM CLR A3039 RMK MADISHF
CMI,2017-02-09 19:45,M,M,M,280.00,13.00,M,30.39,M,10.00,M,CLR,M,M,M,M,M,M,M,M,KCMI 091945Z AUTO 28013KT 10SM CLR A3039 RMK MADISHF
CMI,2017-02-09 19:50,M,M,M,280.00,13.00,M,30.39,M,10.00,M,CLR,M,M,M,M,M,M,M,M,KCMI 091950Z AUTO 28013KT 10SM CLR A3039 RMK MADISHF
CMI,2017-02-09 19:53,19.00,7.00,58.94,290.00,13.00,0.00,30.39,1030.50,10.00,M,CLR,M,M,M,M,M,M,M,M,KCMI 091953Z 29013KT 10SM CLR M07/M14 A3039 RMK AO2 SLP305 T10721139
CMI,2017-02-09 19:55,M,M,M,280.00,13.00,M,30.39,M,10.00,M,CLR,M,M,M,M,M,M,M,M,KCMI 091955Z AUTO 28013KT 10SM CLR A3039 RMK MADISHF
CMI,2017-02-09 20:00,M,M,M,290.00,12.00,M,30.39,M,10.00,M,CLR,M,M,M,M,M,M,M,M,KCMI 092000Z AUTO 29012KT 10SM CLR A3039 RMK MADISHF
CMI,2017-02-09 20:05,M,M,M,280.00,12.00,M,30.39,M,10.00,M,CLR,M,M,M,M,M,M,M,M,KCMI 092005Z AUTO 28012KT 10SM CLR A3039 RMK MADISHF
CMI,2017-02-09 20:10,M,M,M,280.00,10.00,M,30.38,M,10.00,M,CLR,M,M,M,M,M,M,M,M,KCMI 092010Z AUTO 28010KT 10SM CLR A3038 RMK MADISHF
CMI,2017-02-09 20:15,M,M,M,290.00,8.00,M,30.38,M,10.00,M,CLR,M,M,M,M,M,M,M,M,KCMI 092015Z AUTO 29008KT 10SM CLR A3038 RMK MADISHF
CMI,2017-02-09 20:20,M,M,M,280.00,10.00,M,30.38,M,10.00,M,CLR,M,M,M,M,M,M,M,M,KCMI 092020Z AUTO 28010KT 10SM CLR A3038 RMK MADISHF
CMI,2017-02-09 20:25,M,M,M,300.00,10.00,M,30.38,M,10.00,M,CLR,M,M,M,M,M,M,M,M,KCMI 092025Z AUTO 30010KT 10SM CLR A3038 RMK MADISHF
CMI,2017-02-09 20:30,M,M,M,290.00,9.00,M,30.38,M,10.00,M,CLR,M,M,M,M,M,M,M,M,KCMI 092030Z AUTO 29009KT 10SM CLR A3038 RMK MADISHF
CMI,2017-02-09 20:35,M,M,M,270.00,10.00,M,30.38,M,10.00,M,CLR,M,M,M,M,M,M,M,M,KCMI 092035Z AUTO 27010KT 10SM CLR A3038 RMK MADISHF
CMI,2017-02-09 20:40,M,M,M,290.00,10.00,M,30.38,M,10.00,M,CLR,M,M,M,M,M,M,M,M,KCMI 092040Z AUTO 29010KT 10SM CLR A3038 RMK MADISHF
CMI,2017-02-09 20:45,M,M,M,290.00,10.00,M,30.38,M,10.00,M,CLR,M,M,M,M,M,M,M,M,KCMI 092045Z AUTO 29010KT 10SM CLR A3038 RMK MADISHF
CMI,2017-02-09 20:50,M,M,M,290.00,10.00,M,30.38,M,10.00,M,CLR,M,M,M,M,M,M,M,M,KCMI 092050Z AUTO 29010KT 10SM CLR A3038 RMK MADISHF
CMI,2017-02-09 20:53,19.00,3.90,51.15,290.00,9.00,0.00,30.38,1030.10,10.00,M,CLR,M,M,M,M,M,M,M,M,KCMI 092053Z 29009KT 10SM CLR M07/M16 A3038 RMK AO2 SLP301 T10721156 58005
CMI,2017-02-09 20:55,M,M,M,290.00,10.00,M,30.38,M,10.00,M,CLR,M,M,M,M,M,M,M,M,KCMI 092055Z AUTO 29010KT 10SM CLR A3038 RMK MADISHF
CMI,2017-02-09 21:00,M,M,M,290.00,8.00,M,30.38,M,10.00,M,CLR,M,M,M,M,M,M,M,M,KCMI 092100Z AUTO 29008KT 10SM CLR A3038 RMK MADISHF
CMI,2017-02-09 21:05,M,M,M,290.00,8.00,M,30.38,M,10.00,M,CLR,M,M,M,M,M,M,M,M,KCMI 092105Z AUTO 29008KT 10SM CLR A3038 RMK MADISHF
CMI,2017-02-09 21:10,M,M,M,300.00,7.00,M,30.38,M,10.00,M,CLR,M,M,M,M,M,M,M,M,KCMI 092110Z AUTO 30007KT 10SM CLR A3038 RMK MADISHF
CMI,2017-02-09 21:15,M,M,M,300.00,7.00,M,30.38,M,10.00,M,CLR,M,M,M,M,M,M,M,M,KCMI 092115Z AUTO 30007KT 10SM CLR A3038 RMK MADISHF
CMI,2017-02-09 21:20,M,M,M,280.00,7.00,M,30.37,M,10.00,M,CLR,M,M,M,M,M,M,M,M,KCMI 092120Z AUTO 28007KT 10SM CLR A3037 RMK MADISHF
CMI,2017-02-09 21:25,M,M,M,270.00,8.00,M,30.37,M,10.00,M,CLR,M,M,M,M,M,M,M,M,KCMI 092125Z AUTO 27008KT 10SM CLR A3037 RMK MADISHF
CMI,2017-02-09 21:30,M,M,M,280.00,7.00,M,30.37,M,10.00,M,CLR,M,M,M,M,M,M,M,M,KCMI 092130Z AUTO 28007KT 10SM CLR A3037 RMK MADISHF
CMI,2017-02-09 21:35,M,M,M,270.00,6.00,M,30.37,M,10.00,M,CLR,M,M,M,M,M,M,M,M,KCMI 092135Z AUTO 27006KT 10SM CLR A3037 RMK MADISHF
CMI,2017-02-09 21:40,M,M,M,270.00,6.00,M,30.37,M,10.00,M,CLR,M,M,M,M,M,M,M,M,KCMI 092140Z AUTO 27006KT 10SM CLR A3037 RMK MADISHF
CMI,2017-02-09 21:45,M,M,M,280.00,6.00,M,30.37,M,10.00,M,CLR,M,M,M,M,M,M,M,M,KCMI 092145Z AUTO 28006KT 10SM CLR A3037 RMK MADISHF
CMI,2017-02-09 21:50,M,M,M,280.00,6.00,M,30.37,M,10.00,M,CLR,M,M,M,M,M,M,M,M,KCMI 092150Z AUTO 28006KT 10SM CLR A3037 RMK MADISHF
CMI,2017-02-09 21:53,19.00,6.10,56.57,280.00,6.00,0.00,30.37,1029.80,10.00,M,CLR,M,M,M,M,M,M,M,M,KCMI 092153Z 28006KT 10SM CLR M07/M14 A3037 RMK AO2 SLP298 T10721144
CMI,2017-02-09 21:55,M,M,M,280.00,5.00,M,30.37,M,10.00,M,CLR,M,M,M,M,M,M,M,M,KCMI 092155Z AUTO 28005KT 10SM CLR A3037 RMK MADISHF
CMI,2017-02-09 22:00,M,M,M,250.00,5.00,M,30.37,M,10.00,M,CLR,M,M,M,M,M,M,M,M,KCMI 092200Z AUTO 25005KT 10SM CLR A3037 RMK MADISHF
CMI,2017-02-09 22:05,M,M,M,260.00,5.00,M,30.37,M,10.00,M,CLR,M,M,M,M,M,M,M,M,KCMI 092205Z AUTO 26005KT 10SM CLR A3037 RMK MADISHF
CMI,2017-02-09 22:10,M,M,M,260.00,6.00,M,30.37,M,10.00,M,CLR,M,M,M,M,M,M,M,M,KCMI 092210Z AUTO 26006KT 10SM CLR A3037 RMK MADISHF
CMI,2017-02-09 22:15,M,M,M,270.00,6.00,M,30.37,M,10.00,M,CLR,M,M,M,M,M,M,M,M,KCMI 092215Z AUTO 27006KT 10SM CLR A3037 RMK MADISHF
CMI,2017-02-09 22:20,M,M,M,280.00,5.00,M,30.36,M,10.00,M,CLR,M,M,M,M,M,M,M,M,KCMI 092220Z AUTO 28005KT 10SM CLR A3036 RMK MADISHF
CMI,2017-02-09 22:25,M,M,M,260.00,5.00,M,30.36,M,10.00,M,CLR,M,M,M,M,M,M,M,M,KCMI 092225Z AUTO 26005KT 10SM CLR A3036 RMK MADISHF
CMI,2017-02-09 22:30,M,M,M,260.00,4.00,M,30.36,M,10.00,M,CLR,M,M,M,M,M,M,M,M,KCMI 092230Z AUTO 26004KT 10SM CLR A3036 RMK MADISHF
CMI,2017-02-09 22:35,M,M,M,260.00,4.00,M,30.36,M,10.00,M,CLR,M,M,M,M,M,M,M,M,KCMI 092235Z AUTO 26004KT 10SM CLR A3036 RMK MADISHF
CMI,2017-02-09 22:40,M,M,M,250.00,3.00,M,30.36,M,10.00,M,CLR,M,M,M,M,M,M,M,M,KCMI 092240Z AUTO 25003KT 10SM CLR A3036 RMK MADISHF
CMI,2017-02-09 22:45,M,M,M,240.00,4.00,M,30.36,M,10.00,M,CLR,M,M,M,M,M,M,M,M,KCMI 092245Z AUTO 24004KT 10SM CLR A3036 RMK MADISHF
CMI,2017-02-09 22:50,M,M,M,250.00,4.00,M,30.36,M,10.00,M,CLR,M,M,M,M,M,M,M,M,KCMI 092250Z AUTO 25004KT 10SM CLR A3036 RMK MADISHF
CMI,2017-02-09 22:53,17.10,6.10,61.39,230.00,4.00,0.00,30.36,1029.30,10.00,M,CLR,M,M,M,M,M,M,M,M,KCMI 092253Z 23004KT 10SM CLR M08/M14 A3036 RMK AO2 SLP293 T10831144
CMI,2017-02-09 22:55,M,M,M,220.00,5.00,M,30.36,M,10.00,M,CLR,M,M,M,M,M,M,M,M,KCMI 092255Z AUTO 22005KT 10SM CLR A3036 RMK MADISHF
CMI,2017-02-09 23:00,M,M,M,230.00,6.00,M,30.36,M,10.00,M,CLR,M,M,M,M,M,M,M,M,KCMI 092300Z AUTO 23006KT 10SM CLR A3036 RMK MADISHF
CMI,2017-02-09 23:05,M,M,M,220.00,6.00,M,30.36,M,10.00,M,CLR,M,M,M,M,M,M,M,M,KCMI 092305Z AUTO 22006KT 10SM CLR A3036 RMK MADISHF
CMI,2017-02-09 23:10,M,M,M,220.00,7.00,M,30.36,M,10.00,M,CLR,M,M,M,M,M,M,M,M,KCMI 092310Z AUTO 22007KT 10SM CLR A3036 RMK MADISHF
CMI,2017-02-09 23:15,M,M,M,220.00,7.00,M,30.36,M,10.00,M,CLR,M,M,M,M,M,M,M,M,KCMI 092315Z AUTO 22007KT 10SM CLR A3036 RMK MADISHF
CMI,2017-02-09 23:20,M,M,M,230.00,8.00,M,30.36,M,10.00,M,CLR,M,M,M,M,M,M,M,M,KCMI 092320Z AUTO 23008KT 10SM CLR A3036 RMK MADISHF
CMI,2017-02-09 23:25,M,M,M,230.00,8.00,M,30.37,M,10.00,M,CLR,M,M,M,M,M,M,M,M,KCMI 092325Z AUTO 23008KT 10SM CLR A3037 RMK MADISHF
CMI,2017-02-09 23:30,M,M,M,230.00,7.00,M,30.37,M,10.00,M,CLR,M,M,M,M,M,M,M,M,KCMI 092330Z AUTO 23007KT 10SM CLR A3037 RMK MADISHF
CMI,2017-02-09 23:35,M,M,M,230.00,7.00,M,30.37,M,10.00,M,CLR,M,M,M,M,M,M,M,M,KCMI 092335Z AUTO 23007KT 10SM CLR A3037 RMK MADISHF
CMI,2017-02-09 23:40,M,M,M,230.00,7.00,M,30.37,M,10.00,M,CLR,M,M,M,M,M,M,M,M,KCMI 092340Z AUTO 23007KT 10SM CLR A3037 RMK MADISHF
CMI,2017-02-09 23:45,M,M,M,220.00,6.00,M,30.37,M,10.00,M,CLR,M,M,M,M,M,M,M,M,KCMI 092345Z AUTO 22006KT 10SM CLR A3037 RMK MADISHF
CMI,2017-02-09 23:50,M,M,M,220.00,6.00,M,30.37,M,10.00,M,CLR,M,M,M,M,M,M,M,M,KCMI 092350Z AUTO 22006KT 10SM CLR A3037 RMK MADISHF
CMI,2017-02-09 23:53,10.90,3.90,72.85,220.00,6.00,0.00,30.37,1030.00,10.00,M,CLR,M,M,M,M,M,M,M,M,KCMI 092353Z 22006KT 10SM CLR M12/M16 A3037 RMK AO2 SLP300 T11171156 11067 21117 55003
CMI,2017-02-09 23:55,M,M,M,220.00,6.00,M,30.37,M,10.00,M,CLR,M,M,M,M,M,M,M,M,KCMI 092355Z AUTO 22006KT 10SM CLR A3037 RMK MADISHF
CMI,2017-02-10 00:00,M,M,M,230.00,6.00,M,30.37,M,10.00,M,CLR,M,M,M,M,M,M,M,M,KCMI 100000Z AUTO 23006KT 10SM CLR A3037 RMK MADISHF
CMI,2017-02-10 00:05,M,M,M,230.00,6.00,M,30.37,M,10.00,M,CLR,M,M,M,M,M,M,M,M,KCMI 100005Z AUTO 23006KT 10SM CLR A3037 RMK MADISHF
CMI,2017-02-10 00:10,M,M,M,220.00,5.00,M,30.37,M,10.00,M,CLR,M,M,M,M,M,M,M,M,KCMI 100010Z AUTO 22005KT 10SM CLR A3037 RMK MADISHF
CMI,2017-02-10 00:15,M,M,M,210.00,4.00,M,30.37,M,10.00,M,CLR,M,M,M,M,M,M,M,M,KCMI 100015Z AUTO 21004KT 10SM CLR A3037 RMK MADISHF
CMI,2017-02-10 00:20,M,M,M,210.00,5.00,M,30.37,M,10.00,M,CLR,M,M,M,M,M,M,M,M,KCMI 100020Z AUTO 21005KT 10SM CLR A3037 RMK MADISHF
CMI,2017-02-10 00:25,M,M,M,210.00,5.00,M,30.37,M,10.00,M,CLR,M,M,M,M,M,M,M,M,KCMI 100025Z AUTO 21005KT 10SM CLR A3037 RMK MADISHF
CMI,2017-02-10 00:30,M,M,M,220.00,3.00,M,30.37,M,10.00,M,CLR,M,M,M,M,M,M,M,M,KCMI 100030Z AUTO 22003KT 10SM CLR A3037 RMK MADISHF
CMI,2017-02-10 00:35,M,M,M,0.00,0.00,M,30.37,M,10.00,M,CLR,M,M,M,M,M,M,M,M,KCMI 100035Z AUTO 00000KT 10SM CLR A3037 RMK MADISHF
CMI,2017-02-10 00:40,M,M,M,220.00,3.00,M,30.37,M,10.00,M,CLR,M,M,M,M,M,M,M,M,KCMI 100040Z AUTO 22003KT 10SM CLR A3037 RMK MADISHF
CMI,2017-02-10 00:45,M,M,M,230.00,4.00,M,30.37,M,10.00,M,CLR,M,M,M,M,M,M,M,M,KCMI 100045Z AUTO 23004KT 10SM CLR A3037 RMK MADISHF
CMI,2017-02-10 00:50,M,M,M,230.00,4.00,M,30.37,M,10.00,M,CLR,M,M,M,M,M,M,M,M,KCMI 100050Z AUTO 23004KT 10SM CLR A3037 RMK MADISHF
CMI,2017-02-10 00:53,10.00,1.90,69.13,230.00,4.00,0.00,30.37,1030.20,10.00,M,CLR,M,M,M,M,M,M,M,M,KCMI 100053Z 23004KT 10SM CLR M12/M17 A3037 RMK AO2 SLP302 T11221167
CMI,2017-02-10 00:55,M,M,M,230.00,4.00,M,30.37,M,10.00,M,CLR,M,M,M,M,M,M,M,M,KCMI 100055Z AUTO 23004KT 10SM CLR A3037 RMK MADISHF
CMI,2017-02-10 01:00,M,M,M,220.00,4.00,M,30.37,M,10.00,M,CLR,M,M,M,M,M,M,M,M,KCMI 100100Z AUTO 22004KT 10SM CLR A3037 RMK MADISHF
CMI,2017-02-10 01:05,M,M,M,230.00,3.00,M,30.37,M,10.00,M,CLR,M,M,M,M,M,M,M,M,KCMI 100105Z AUTO 23003KT 10SM CLR A3037 RMK MADISHF
CMI,2017-02-10 01:10,M,M,M,250.00,3.00,M,30.37,M,10.00,M,CLR,M,M,M,M,M,M,M,M,KCMI 100110Z AUTO 25003KT 10SM CLR A3037 RMK MADISHF
CMI,2017-02-10 01:15,M,M,M,0.00,0.00,M,30.37,M,10.00,M,CLR,M,M,M,M,M,M,M,M,KCMI 100115Z AUTO 00000KT 10SM CLR A3037 RMK MADISHF
CMI,2017-02-10 01:20,M,M,M,0.00,0.00,M,30.37,M,10.00,M,CLR,M,M,M,M,M,M,M,M,KCMI 100120Z AUTO 00000KT 10SM CLR A3037 RMK MADISHF
CMI,2017-02-10 01:25,M,M,M,240.00,3.00,M,30.37,M,10.00,M,CLR,M,M,M,M,M,M,M,M,KCMI 100125Z AUTO 24003KT 10SM CLR A3037 RMK MADISHF
CMI,2017-02-10 01:30,M,M,M,240.00,3.00,M,30.37,M,10.00,M,CLR,M,M,M,M,M,M,M,M,KCMI 100130Z AUTO 24003KT 10SM CLR A3037 RMK MADISHF
CMI,2017-02-10 01:35,M,M,M,230.00,3.00,M,30.37,M,10.00,M,CLR,M,M,M,M,M,M,M,M,KCMI 100135Z AUTO 23003KT 10SM CLR A3037 RMK MADISHF
CMI,2017-02-10 01:40,M,M,M,220.00,3.00,M,30.37,M,10.00,M,CLR,M,M,M,M,M,M,M,M,KCMI 100140Z AUTO 22003KT 10SM CLR A3037 RMK MADISHF
CMI,2017-02-10 01:45,M,M,M,170.00,3.00,M,30.36,M,10.00,M,CLR,M,M,M,M,M,M,M,M,KCMI 100145Z AUTO 17003KT 10SM CLR A3036 RMK MADISHF
CMI,2017-02-10 01:50,M,M,M,170.00,4.00,M,30.36,M,10.00,M,CLR,M,M,M,M,M,M,M,M,KCMI 100150Z AUTO 17004KT 10SM CLR A3036 RMK MADISHF
CMI,2017-02-10 01:53,8.10,1.00,72.20,170.00,4.00,0.00,30.37,1030.10,10.00,M,CLR,M,M,M,M,M,M,M,M,KCMI 100153Z 17004KT 10SM CLR M13/M17 A3037 RMK AO2 SLP301 T11331172
CMI,2017-02-10 01:55,M,M,M,170.00,4.00,M,30.36,M,10.00,M,CLR,M,M,M,M,M,M,M,M,KCMI 100155Z AUTO 17004KT 10SM CLR A3036 RMK MADISHF
CMI,2017-02-10 02:00,M,M,M,150.00,3.00,M,30.36,M,10.00,M,CLR,M,M,M,M,M,M,M,M,KCMI 100200Z AUTO 15003KT 10SM CLR A3036 RMK MADISHF
CMI,2017-02-10 02:05,M,M,M,140.00,4.00,M,30.36,M,10.00,M,CLR,M,M,M,M,M,M,M,M,KCMI 100205Z AUTO 14004KT 10SM CLR A3036 RMK MADISHF
CMI,2017-02-10 02:10,M,M,M,150.00,4.00,M,30.36,M,10.00,M,CLR,M,M,M,M,M,M,M,M,KCMI 100210Z AUTO 15004KT 10SM CLR A3036 RMK MADISHF
CMI,2017-02-10 02:15,M,M,M,150.00,3.00,M,30.36,M,10.00,M,CLR,M,M,M,M,M,M,M,M,KCMI 100215Z AUTO 15003KT 10SM CLR A3036 RMK MADISHF
CMI,2017-02-10 02:20,M,M,M,140.00,3.00,M,30.36,M,10.00,M,CLR,M,M,M,M,M,M,M,M,KCMI 100220Z AUTO 14003KT 10SM CLR A3036 RMK MADISHF
CMI,2017-02-10 02:25,M,M,M,150.00,3.00,M,30.35,M,10.00,M,CLR,M,M,M,M,M,M,M,M,KCMI 100225Z AUTO 15003KT 10SM CLR A3035 RMK MADISHF
CMI,2017-02-10 02:30,M,M,M,140.00,3.00,M,30.35,M,10.00,M,CLR,M,M,M,M,M,M,M,M,KCMI 100230Z AUTO 14003KT 10SM CLR A3035 RMK MADISHF
CMI,2017-02-10 02:35,M,M,M,110.00,5.00,M,30.35,M,10.00,M,CLR,M,M,M,M,M,M,M,M,KCMI 100235Z AUTO 11005KT 10SM CLR A3035 RMK MADISHF
CMI,2017-02-10 02:40,M,M,M,130.00,4.00,M,30.35,M,10.00,M,CLR,M,M,M,M,M,M,M,M,KCMI 100240Z AUTO 13004KT 10SM CLR A3035 RMK MADISHF
CMI,2017-02-10 02:45,M,M,M,120.00,5.00,M,30.35,M,10.00,M,CLR,M,M,M,M,M,M,M,M,KCMI 100245Z AUTO 12005KT 10SM CLR A3035 RMK MADISHF
CMI,2017-02-10 02:50,M,M,M,150.00,5.00,M,30.35,M,10.00,M,CLR,M,M,M,M,M,M,M,M,KCMI 100250Z AUTO 15005KT 10SM CLR A3035 RMK MADISHF
CMI,2017-02-10 02:53,7.00,1.90,79.13,170.00,4.00,0.00,30.35,1029.30,10.00,M,CLR,M,M,M,M,M,M,M,M,KCMI 100253Z 17004KT 10SM CLR M14/M17 A3035 RMK AO2 SLP293 T11391167 58006
CMI,2017-02-10 02:55,M,M,M,150.00,6.00,M,30.35,M,10.00,M,CLR,M,M,M,M,M,M,M,M,KCMI 100255Z AUTO 15006KT 10SM CLR A3035 RMK MADISHF
CMI,2017-02-10 03:00,M,M,M,150.00,7.00,M,30.35,M,10.00,M,CLR,M,M,M,M,M,M,M,M,KCMI 100300Z AUTO 15007KT 10SM CLR A3035 RMK MADISHF
CMI,2017-02-10 03:05,M,M,M,150.00,6.00,M,30.35,M,10.00,M,CLR,M,M,M,M,M,M,M,M,KCMI 100305Z AUTO 15006KT 10SM CLR A3035 RMK MADISHF
CMI,2017-02-10 03:10,M,M,M,170.00,5.00,M,30.35,M,10.00,M,CLR,M,M,M,M,M,M,M,M,KCMI 100310Z AUTO 17005KT 10SM CLR A3035 RMK MADISHF
CMI,2017-02-10 03:15,M,M,M,160.00,5.00,M,30.35,M,10.00,M,CLR,M,M,M,M,M,M,M,M,KCMI 100315Z AUTO 16005KT 10SM CLR A3035 RMK MADISHF
CMI,2017-02-10 03:20,M,M,M,160.00,4.00,M,30.36,M,10.00,M,CLR,M,M,M,M,M,M,M,M,KCMI 100320Z AUTO 16004KT 10SM CLR A3036 RMK MADISHF
CMI,2017-02-10 03:25,M,M,M,140.00,4.00,M,30.35,M,10.00,M,CLR,M,M,M,M,M,M,M,M,KCMI 100325Z AUTO 14004KT 10SM CLR A3035 RMK MADISHF
CMI,2017-02-10 03:30,M,M,M,130.00,3.00,M,30.35,M,10.00,M,CLR,M,M,M,M,M,M,M,M,KCMI 100330Z AUTO 13003KT 10SM CLR A3035 RMK MADISHF
CMI,2017-02-10 03:35,M,M,M,120.00,4.00,M,30.35,M,10.00,M,CLR,M,M,M,M,M,M,M,M,KCMI 100335Z AUTO 12004KT 10SM CLR A3035 RMK MADISHF
CMI,2017-02-10 03:40,M,M,M,120.00,4.00,M,30.35,M,10.00,M,CLR,M,M,M,M,M,M,M,M,KCMI 100340Z AUTO 12004KT 10SM CLR A3035 RMK MADISHF
CMI,2017-02-10 03:45,M,M,M,130.00,4.00,M,30.35,M,10.00,M,CLR,M,M,M,M,M,M,M,M,KCMI 100345Z AUTO 13004KT 10SM CLR A3035 RMK MADISHF
CMI,2017-02-10 03:50,M,M,M,160.00,4.00,M,30.35,M,10.00,M,CLR,M,M,M,M,M,M,M,M,KCMI 100350Z AUTO 16004KT 10SM CLR A3035 RMK MADISHF
CMI,2017-02-10 03:53,10.90,3.90,72.85,160.00,4.00,0.00,30.35,1029.30,10.00,M,CLR,M,M,M,M,M,M,M,M,KCMI 100353Z 16004KT 10SM CLR M12/M16 A3035 RMK AO2 SLP293 T11171156
CMI,2017-02-10 03:55,M,M,M,150.00,4.00,M,30.35,M,10.00,M,CLR,M,M,M,M,M,M,M,M,KCMI 100355Z AUTO 15004KT 10SM CLR A3035 RMK MADISHF
CMI,2017-02-10 04:00,M,M,M,150.00,5.00,M,30.35,M,10.00,M,CLR,M,M,M,M,M,M,M,M,KCMI 100400Z AUTO 15005KT 10SM CLR A3035 RMK MADISHF
CMI,2017-02-10 04:05,M,M,M,150.00,4.00,M,30.35,M,10.00,M,CLR,M,M,M,M,M,M,M,M,KCMI 100405Z AUTO 15004KT 10SM CLR A3035 RMK MADISHF
CMI,2017-02-10 04:10,M,M,M,140.00,5.00,M,30.35,M,10.00,M,CLR,M,M,M,M,M,M,M,M,KCMI 100410Z AUTO 14005KT 10SM CLR A3035 RMK MADISHF
CMI,2017-02-10 04:15,M,M,M,150.00,5.00,M,30.35,M,10.00,M,CLR,M,M,M,M,M,M,M,M,KCMI 100415Z AUTO 15005KT 10SM CLR A3035 RMK MADISHF
CMI,2017-02-10 04:20,M,M,M,150.00,5.00,M,30.35,M,10.00,M,CLR,M,M,M,M,M,M,M,M,KCMI 100420Z AUTO 15005KT 10SM CLR A3035 RMK MADISHF
CMI,2017-02-10 04:25,M,M,M,150.00,5.00,M,30.35,M,10.00,M,CLR,M,M,M,M,M,M,M,M,KCMI 100425Z AUTO 15005KT 10SM CLR A3035 RMK MADISHF
CMI,2017-02-10 04:30,M,M,M,150.00,5.00,M,30.35,M,10.00,M,CLR,M,M,M,M,M,M,M,M,KCMI 100430Z AUTO 15005KT 10SM CLR A3035 RMK MADISHF
CMI,2017-02-10 04:35,M,M,M,130.00,5.00,M,30.34,M,10.00,M,CLR,M,M,M,M,M,M,M,M,KCMI 100435Z AUTO 13005KT 10SM CLR A3034 RMK MADISHF
CMI,2017-02-10 04:40,M,M,M,130.00,6.00,M,30.34,M,10.00,M,CLR,M,M,M,M,M,M,M,M,KCMI 100440Z AUTO 13006KT 10SM CLR A3034 RMK MADISHF
CMI,2017-02-10 04:45,M,M,M,130.00,6.00,M,30.34,M,10.00,M,CLR,M,M,M,M,M,M,M,M,KCMI 100445Z AUTO 13006KT 10SM CLR A3034 RMK MADISHF
CMI,2017-02-10 04:50,M,M,M,130.00,6.00,M,30.34,M,10.00,M,CLR,M,M,M,M,M,M,M,M,KCMI 100450Z AUTO 13006KT 10SM CLR A3034 RMK MADISHF
CMI,2017-02-10 04:53,10.90,5.00,76.62,130.00,6.00,0.00,30.34,1028.90,10.00,M,CLR,M,M,M,M,M,M,M,M,KCMI 100453Z AUTO 13006KT 10SM CLR M12/M15 A3034 RMK AO2 SLP289 T11171150
CMI,2017-02-10 04:55,M,M,M,130.00,6.00,M,30.34,M,10.00,M,CLR,M,M,M,M,M,M,M,M,KCMI 100455Z AUTO 13006KT 10SM CLR A3034 RMK MADISHF
CMI,2017-02-10 05:00,M,M,M,130.00,6.00,M,30.34,M,10.00,M,CLR,M,M,M,M,M,M,M,M,KCMI 100500Z AUTO 13006KT 10SM CLR A3034 RMK MADISHF
CMI,2017-02-10 05:05,M,M,M,150.00,6.00,M,30.34,M,10.00,M,CLR,M,M,M,M,M,M,M,M,KCMI 100505Z AUTO 15006KT 10SM CLR A3034 RMK MADISHF
CMI,2017-02-10 05:10,M,M,M,140.00,8.00,M,30.34,M,10.00,M,CLR,M,M,M,M,M,M,M,M,KCMI 100510Z AUTO 14008KT 10SM CLR A3034 RMK MADISHF
CMI,2017-02-10 05:15,M,M,M,150.00,8.00,M,30.34,M,10.00,M,SCT,M,M,M,9500.00,M,M,M,M,KCMI 100515Z AUTO 15008KT 10SM SCT095 A3034 RMK MADISHF
CMI,2017-02-10 05:20,M,M,M,150.00,7.00,M,30.34,M,10.00,M,BKN,M,M,M,9500.00,M,M,M,M,KCMI 100520Z AUTO 15007KT 10SM BKN095 A3034 RMK MADISHF
CMI,2017-02-10 05:25,M,M,M,150.00,7.00,M,30.33,M,10.00,M,BKN,M,M,M,9500.00,M,M,M,M,KCMI 100525Z AUTO 15007KT 10SM BKN095 A3033 RMK MADISHF
CMI,2017-02-10 05:30,M,M,M,150.00,7.00,M,30.34,M,10.00,M,BKN,M,M,M,9500.00,M,M,M,M,KCMI 100530Z AUTO 15007KT 10SM BKN095 A3034 RMK MADISHF
CMI,2017-02-10 05:35,M,M,M,140.00,7.00,M,30.33,M,10.00,M,OVC,M,M,M,9500.00,M,M,M,M,KCMI 100535Z AUTO 14007KT 10SM OVC095 A3033 RMK MADISHF
CMI,2017-02-10 05:40,M,M,M,150.00,7.00,M,30.33,M,10.00,M,OVC,M,M,M,9500.00,M,M,M,M,KCMI 100540Z AUTO 15007KT 10SM OVC095 A3033 RMK MADISHF
CMI,2017-02-10 05:45,M,M,M,140.00,7.00,M,30.33,M,10.00,M,OVC,M,M,M,9500.00,M,M,M,M,KCMI 100545Z AUTO 14007KT 10SM OVC095 A3033 RMK MADISHF
CMI,2017-02-10 05:50,M,M,M,150.00,7.00,M,30.33,M,10.00,M,OVC,M,M,M,9500.00,M,M,M,M,KCMI 100550Z AUTO 15007KT 10SM OVC095 A3033 RMK MADISHF
CMI,2017-02-10 05:53,17.10,6.10,61.39,150.00,7.00,0.00,30.33,1028.50,10.00,M,OVC,M,M,M,9500.00,M,M,M,M,KCMI 100553Z AUTO 15007KT 10SM OVC095 M08/M14 A3033 RMK AO2 SLP285 T10831144 11083 21139 410671144 58006
CMI,2017-02-10 05:55,M,M,M,150.00,8.00,M,30.33,M,10.00,M,OVC,M,M,M,9500.00,M,M,M,M,KCMI 100555Z AUTO 15008KT 10SM OVC095 A3033 RMK MADISHF
CMI,2017-02-10 06:00,M,M,M,150.00,8.00,M,30.33,M,10.00,M,OVC,M,M,M,9500.00,M,M,M,M,KCMI 100600Z AUTO 15008KT 10SM OVC095 A3033 RMK MADISHF
CMI,2017-02-10 06:05,M,M,M,150.00,7.00,M,30.33,M,10.00,M,BKN,M,M,M,9500.00,M,M,M,M,KCMI 100605Z AUTO 15007KT 10SM BKN095 A3033 RMK MADISHF
CMI,2017-02-10 06:10,M,M,M,150.00,7.00,M,30.32,M,10.00,M,BKN,M,M,M,9500.00,M,M,M,M,KCMI 100610Z AUTO 15007KT 10SM BKN095 A3032 RMK MADISHF
CMI,2017-02-10 06:15,M,M,M,140.00,7.00,M,30.32,M,10.00,M,SCT,M,M,M,9500.00,M,M,M,M,KCMI 100615Z AUTO 14007KT 10SM SCT095 A3032 RMK MADISHF
CMI,2017-02-10 06:20,M,M,M,140.00,7.00,M,30.32,M,10.00,M,SCT,M,M,M,9500.00,M,M,M,M,KCMI 100620Z AUTO 14007KT 10SM SCT095 A3032 RMK MADISHF
CMI,2017-02-10 06:25,M,M,M,150.00,7.00,M,30.32,M,10.00,M,FEW,M,M,M,9500.00,M,M,M,M,KCMI 100625Z AUTO 15007KT 10SM FEW095 A3032 RMK MADISHF
CMI,2017-02-10 06:30,M,M,M,150.00,7.00,M,30.32,M,10.00,M,CLR,M,M,M,M,M,M,M,M,KCMI 100630Z AUTO 15007KT 10SM CLR A3032 RMK MADISHF
CMI,2017-02-10 06:35,M,M,M,150.00,6.00,M,30.31,M,10.00,M,FEW,M,M,M,9000.00,M,M,M,M,KCMI 100635Z AUTO 15006KT 10SM FEW090 A3031 RMK MADISHF
CMI,2017-02-10 06:40,M,M,M,150.00,7.00,M,30.31,M,10.00,M,FEW,M,M,M,9000.00,M,M,M,M,KCMI 100640Z AUTO 15007KT 10SM FEW090 A3031 RMK MADISHF
CMI,2017-02-10 06:45,M,M,M,150.00,7.00,M,30.31,M,10.00,M,FEW,M,M,M,9000.00,M,M,M,M,KCMI 100645Z AUTO 15007KT 10SM FEW090 A3031 RMK MADISHF
CMI,2017-02-10 06:50,M,M,M,160.00,7.00,M,30.31,M,10.00,M,FEW,M,M,M,9000.00,M,M,M,M,KCMI 100650Z AUTO 16007KT 10SM FEW090 A3031 RMK MADISHF
CMI,2017-02-10 06:53,16.00,8.10,70.50,160.00,9.00,0.00,30.30,1027.50,10.00,M,FEW,M,M,M,9000.00,M,M,M,M,KCMI 100653Z AUTO 16009KT 10SM FEW090 M09/M13 A3030 RMK AO2 SLP275 T10891133
CMI,2017-02-10 06:55,M,M,M,160.00,9.00,M,30.30,M,10.00,M,FEW,M,M,M,9000.00,M,M,M,M,KCMI 100655Z AUTO 16009KT 10SM FEW090 A3030 RMK MADISHF
CMI,2017-02-10 07:00,M,M,M,160.00,10.00,M,30.29,M,10.00,M,FEW,M,M,M,9000.00,M,M,M,M,KCMI 100700Z AUTO 16010KT 10SM FEW090 A3029 RMK MADISHF
CMI,2017-02-10 07:05,M,M,M,160.00,10.00,M,30.29,M,10.00,M,CLR,M,M,M,M,M,M,M,M,KCMI 100705Z AUTO 16010KT 10SM CLR A3029 RMK MADISHF
CMI,2017-02-10 07:10,M,M,M,150.00,10.00,M,30.29,M,10.00,M,CLR,M,M,M,M,M,M,M,M,KCMI 100710Z AUTO 15010KT 10SM CLR A3029 RMK MADISHF
CMI,2017-02-10 07:15,M,M,M,150.00,9.00,M,30.28,M,10.00,M,CLR,M,M,M,M,M,M,M,M,KCMI 100715Z AUTO 15009KT 10SM CLR A3028 RMK MADISHF
CMI,2017-02-10 07:20,M,M,M,150.00,9.00,M,30.28,M,10.00,M,CLR,M,M,M,M,M,M,M,M,KCMI 100720Z AUTO 15009KT 10SM CLR A3028 RMK MADISHF
CMI,2017-02-10 07:25,M,M,M,160.00,9.00,M,30.28,M,10.00,M,CLR,M,M,M,M,M,M,M,M,KCMI 100725Z AUTO 16009KT 10SM CLR A3028 RMK MADISHF
CMI,2017-02-10 07:30,M,M,M,160.00,10.00,M,30.28,M,10.00,M,CLR,M,M,M,M,M,M,M,M,KCMI 100730Z AUTO 16010KT 10SM CLR A3028 RMK MADISHF
CMI,2017-02-10 07:35,M,M,M,160.00,10.00,M,30.28,M,10.00,M,CLR,M,M,M,M,M,M,M,M,KCMI 100735Z AUTO 16010KT 10SM CLR A3028 RMK MADISHF
CMI,2017-02-10 07:40,M,M,M,160.00,11.00,M,30.27,M,10.00,M,CLR,M,M,M,M,M,M,M,M,KCMI 100740Z AUTO 16011KT 10SM CLR A3027 RMK MADISHF
CMI,2017-02-10 07:45,M,M,M,160.00,11.00,M,30.27,M,10.00,M,CLR,M,M,M,M,M,M,M,M,KCMI 100745Z AUTO 16011KT 10SM CLR A3027 RMK MADISHF
CMI,2017-02-10 07:50,M,M,M,160.00,10.00,M,30.27,M,10.00,M,CLR,M,M,M,M,M,M,M,M,KCMI 100750Z AUTO 16010KT 10SM CLR A3027 RMK MADISHF
CMI,2017-02-10 07:53,17.10,9.00,69.99,160.00,11.00,0.00,30.27,1026.50,10.00,M,CLR,M,M,M,M,M,M,M,M,KCMI 100753Z AUTO 16011KT 10SM CLR M08/M13 A3027 RMK AO2 SLP265 T10831128
CMI,2017-02-10 07:55,M,M,M,160.00,11.00,M,30.27,M,10.00,M,CLR,M,M,M,M,M,M,M,M,KCMI 100755Z AUTO 16011KT 10SM CLR A3027 RMK MADISHF
CMI,2017-02-10 08:00,M,M,M,160.00,11.00,M,30.27,M,10.00,M,CLR,M,M,M,M,M,M,M,M,KCMI 100800Z AUTO 16011KT 10SM CLR A3027 RMK MADISHF
CMI,2017-02-10 08:05,M,M,M,160.00,10.00,M,30.27,M,10.00,M,CLR,M,M,M,M,M,M,M,M,KCMI 100805Z AUTO 16010KT 10SM CLR A3027 RMK MADISHF
CMI,2017-02-10 08:10,M,M,M,160.00,11.00,M,30.26,M,10.00,M,CLR,M,M,M,M,M,M,M,M,KCMI 100810Z AUTO 16011KT 10SM CLR A3026 RMK MADISHF
CMI,2017-02-10 08:15,M,M,M,150.00,11.00,M,30.25,M,10.00,M,CLR,M,M,M,M,M,M,M,M,KCMI 100815Z AUTO 15011KT 10SM CLR A3025 RMK MADISHF
CMI,2017-02-10 08:20,M,M,M,150.00,11.00,M,30.25,M,10.00,M,CLR,M,M,M,M,M,M,M,M,KCMI 100820Z AUTO 15011KT 10SM CLR A3025 RMK MADISHF
CMI,2017-02-10 08:25,M,M,M,150.00,10.00,M,30.25,M,10.00,M,CLR,M,M,M,M,M,M,M,M,KCMI 100825Z AUTO 15010KT 10SM CLR A3025 RMK MADISHF
CMI,2017-02-10 08:30,M,M,M,140.00,9.00,M,30.26,M,10.00,M,CLR,M,M,M,M,M,M,M,M,KCMI 100830Z AUTO 14009KT 10SM CLR A3026 RMK MADISHF
CMI,2017-02-10 08:35,M,M,M,140.00,8.00,M,30.26,M,10.00,M,CLR,M,M,M,M,M,M,M,M,KCMI 100835Z AUTO 14008KT 10SM CLR A3026 RMK MADISHF
CMI,2017-02-10 08:40,M,M,M,140.00,8.00,M,30.26,M,10.00,M,CLR,M,M,M,M,M,M,M,M,KCMI 100840Z AUTO 14008KT 10SM CLR A3026 RMK MADISHF
CMI,2017-02-10 08:45,M,M,M,140.00,8.00,M,30.26,M,10.00,M,CLR,M,M,M,M,M,M,M,M,KCMI 100845Z AUTO 14008KT 10SM CLR A3026 RMK MADISHF
CMI,2017-02-10 08:50,M,M,M,140.00,9.00,M,30.25,M,10.00,M,FEW,M,M,M,12000.00,M,M,M,M,KCMI 100850Z AUTO 14009KT 10SM FEW120 A3025 RMK MADISHF
CMI,2017-02-10 08:53,18.00,10.00,70.41,140.00,8.00,0.00,30.25,1025.70,10.00,M,SCT,M,M,M,12000.00,M,M,M,M,KCMI 100853Z AUTO 14008KT 10SM SCT120 M08/M12 A3025 RMK AO2 SLP257 T10781122 56027
CMI,2017-02-10 08:55,M,M,M,140.00,9.00,M,30.25,M,10.00,M,SCT,M,M,M,12000.00,M,M,M,M,KCMI 100855Z AUTO 14009KT 10SM SCT120 A3025 RMK MADISHF
CMI,2017-02-10 09:00,M,M,M,140.00,10.00,M,30.25,M,10.00,M,BKN,M,M,M,12000.00,M,M,M,M,KCMI 100900Z AUTO 14010KT 10SM BKN120 A3025 RMK MADISHF
CMI,2017-02-10 09:05,M,M,M,140.00,10.00,M,30.24,M,10.00,M,BKN,M,M,M,11000.00,M,M,M,M,KCMI 100905Z AUTO 14010KT 10SM BKN110 A3024 RMK MADISHF
CMI,2017-02-10 09:10,M,M,M,140.00,10.00,M,30.24,M,10.00,M,BKN,M,M,M,11000.00,M,M,M,M,KCMI 100910Z AUTO 14010KT 10SM BKN110 A3024 RMK MADISHF
CMI,2017-02-10 09:15,M,M,M,140.00,10.00,M,30.23,M,10.00,M,OVC,M,M,M,11000.00,M,M,M,M,KCMI 100915Z AUTO 14010KT 10SM OVC110 A3023 RMK MADISHF
CMI,2017-02-10 09:20,M,M,M,M,M,M,30.22,M,10.00,M,OVC,M,M,M,11000.00,M,M,M,M,KCMI 100920Z AUTO /////KT 10SM OVC110 A3022 RMK MADISHF
CMI,2017-02-10 09:25,M,M,M,M,M,M,30.23,M,10.00,M,OVC,M,M,M,11000.00,M,M,M,M,KCMI 100925Z AUTO /////KT 10SM OVC110 A3023 RMK MADISHF
CMI,2017-02-10 09:30,M,M,M,M,M,M,30.22,M,10.00,M,OVC,M,M,M,10000.00,M,M,M,M,KCMI 100930Z AUTO /////KT 10SM OVC100 A3022 RMK MADISHF
CMI,2017-02-10 09:35,M,M,M,150.00,11.00,M,30.23,M,10.00,M,OVC,M,M,M,10000.00,M,M,M,M,KCMI 100935Z AUTO 15011KT 10SM OVC100 A3023 RMK MADISHF
CMI,2017-02-10 09:40,M,M,M,150.00,13.00,M,30.23,M,10.00,M,OVC,M,M,M,10000.00,M,M,M,M,KCMI 100940Z AUTO 15013KT 10SM OVC100 A3023 RMK MADISHF
CMI,2017-02-10 09:45,M,M,M,150.00,14.00,M,30.23,M,10.00,M,OVC,M,M,M,10000.00,M,M,M,M,KCMI 100945Z AUTO 15014KT 10SM OVC100 A3023 RMK MADISHF
CMI,2017-02-10 09:50,M,M,M,150.00,14.00,M,30.22,M,10.00,M,OVC,M,M,M,10000.00,M,M,M,M,KCMI 100950Z AUTO 15014KT 10SM OVC100 A3022 RMK MADISHF
CMI,2017-02-10 09:53,21.90,14.00,71.18,160.00,15.00,0.00,30.22,1024.40,10.00,M,OVC,M,M,M,10000.00,M,M,M,M,KCMI 100953Z AUTO 16015KT 10SM OVC100 M06/M10 A3022 RMK AO2 SLP244 T10561100
CMI,2017-02-10 09:55,M,M,M,160.00,17.00,M,30.22,M,10.00,M,OVC,M,M,M,10000.00,M,M,M,M,KCMI 100955Z AUTO 16017KT 10SM OVC100 A3022 RMK MADISHF
CMI,2017-02-10 10:00,M,M,M,160.00,15.00,M,30.21,M,10.00,M,OVC,M,M,M,10000.00,M,M,M,M,KCMI 101000Z AUTO 16015KT 10SM OVC100 A3021 RMK MADISHF
CMI,2017-02-10 10:05,M,M,M,160.00,14.00,M,30.21,M,10.00,M,BKN,M,M,M,11000.00,M,M,M,M,KCMI 101005Z AUTO 16014KT 10SM BKN110 A3021 RMK MADISHF
CMI,2017-02-10 10:10,M,M,M,160.00,15.00,M,30.20,M,10.00,M,OVC,M,M,M,11000.00,M,M,M,M,KCMI 101010Z AUTO 16015KT 10SM OVC110 A3020 RMK MADISHF
CMI,2017-02-10 10:15,M,M,M,160.00,14.00,M,30.20,M,10.00,M,OVC,M,M,M,11000.00,M,M,M,M,KCMI 101015Z AUTO 16014KT 10SM OVC110 A3020 RMK MADISHF
CMI,2017-02-10 10:20,M,M,M,160.00,13.00,M,30.20,M,10.00,M,OVC,M,M,M,11000.00,M,M,M,M,KCMI 101020Z AUTO 16013KT 10SM OVC110 A3020 RMK MADISHF
CMI,2017-02-10 10:25,M,M,M,160.00,13.00,M,30.20,M,10.00,M,BKN,M,M,M,12000.00,M,M,M,M,KCMI 101025Z AUTO 16013KT 10SM BKN120 A3020 RMK MADISHF
CMI,2017-02-10 10:30,M,M,M,160.00,13.00,M,30.19,M,10.00,M,BKN,M,M,M,12000.00,M,M,M,M,KCMI 101030Z AUTO 16013KT 10SM BKN120 A3019 RMK MADISHF
CMI,2017-02-10 10:35,M,M,M,160.00,16.00,M,30.19,M,10.00,M,OVC,M,M,M,12000.00,M,M,M,M,KCMI 101035Z AUTO 16016KT 10SM OVC120 A3019 RMK MADISHF
CMI,2017-02-10 10:40,M,M,M,160.00,16.00,M,30.18,M,10.00,M,OVC,M,M,M,12000.00,M,M,M,M,KCMI 101040Z AUTO 16016KT 10SM OVC120 A3018 RMK MADISHF
CMI,2017-02-10 10:45,M,M,M,160.00,14.00,M,30.18,M,10.00,M,OVC,M,M,M,12000.00,M,M,M,M,KCMI 101045Z AUTO 16014KT 10SM OVC120 A3018 RMK MADISHF
CMI,2017-02-10 10:50,M,M,M,160.00,16.00,M,30.18,M,10.00,M,OVC,M,M,M,12000.00,M,M,M,M,KCMI 101050Z AUTO 16016KT 10SM OVC120 A3018 RMK MADISHF
CMI,2017-02-10 10:53,24.10,16.00,70.81,160.00,15.00,0.00,30.18,1023.00,10.00,M,OVC,M,M,M,12000.00,M,M,M,M,KCMI 101053Z AUTO 16015KT 10SM OVC120 M04/M09 A3018 RMK AO2 SLP230 T10441089
CMI,2017-02-10 10:55,M,M,M,160.00,15.00,M,30.18,M,10.00,M,OVC,M,M,M,12000.00,M,M,M,M,KCMI 101055Z AUTO 16015KT 10SM OVC120 A3018 RMK MADISHF
CMI,2017-02-10 11:00,M,M,M,160.00,16.00,M,30.17,M,10.00,M,BKN,M,M,M,12000.00,M,M,M,M,KCMI 101100Z AUTO 16016KT 10SM BKN120 A3017 RMK MADISHF
CMI,2017-02-10 11:05,M,M,M,160.00,15.00,M,30.17,M,10.00,M,BKN,M,M,M,12000.00,M,M,M,M,KCMI 101105Z AUTO 16015KT 10SM BKN120 A3017 RMK MADISHF
CMI,2017-02-10 11:10,M,M,M,160.00,16.00,M,30.16,M,10.00,M,SCT,M,M,M,12000.00,M,M,M,M,KCMI 101110Z AUTO 16016KT 10SM SCT120 A3016 RMK MADISHF
CMI,2017-02-10 11:15,M,M,M,160.00,16.00,M,30.17,M,10.00,M,SCT,M,M,M,12000.00,M,M,M,M,KCMI 101115Z AUTO 16016KT 10SM SCT120 A3017 RMK MADISHF
CMI,2017-02-10 11:20,M,M,M,160.00,17.00,M,30.16,M,10.00,M,FEW,M,M,M,12000.00,M,M,M,M,KCMI 101120Z AUTO 16017KT 10SM FEW120 A3016 RMK MADISHF
CMI,2017-02-10 11:25,M,M,M,170.00,17.00,M,30.16,M,10.00,M,FEW,M,M,M,12000.00,M,M,M,M,KCMI 101125Z AUTO 17017KT 10SM FEW120 A3016 RMK MADISHF
CMI,2017-02-10 11:30,M,M,M,170.00,16.00,M,30.16,M,10.00,M,CLR,M,M,M,M,M,M,M,M,KCMI 101130Z AUTO 17016KT 10SM CLR A3016 RMK MADISHF
CMI,2017-02-10 11:35,M,M,M,170.00,17.00,M,30.16,M,10.00,M,CLR,M,M,M,M,M,M,M,M,KCMI 101135Z AUTO 17017KT 10SM CLR A3016 RMK MADISHF
CMI,2017-02-10 11:40,M,M,M,160.00,16.00,M,30.15,M,10.00,M,CLR,M,M,M,M,M,M,M,M,KCMI 101140Z AUTO 16016KT 10SM CLR A3015 RMK MADISHF
CMI,2017-02-10 11:45,M,M,M,160.00,17.00,M,30.15,M,10.00,M,CLR,M,M,M,M,M,M,M,M,KCMI 101145Z AUTO 16017KT 10SM CLR A3015 RMK MADISHF
CMI,2017-02-10 11:50,M,M,M,170.00,16.00,M,30.15,M,10.00,M,CLR,M,M,M,M,M,M,M,M,KCMI 101150Z AUTO 17016KT 10SM CLR A3015 RMK MADISHF
CMI,2017-02-10 11:53,25.00,17.10,71.53,160.00,17.00,0.00,30.15,1022.30,10.00,M,CLR,M,M,M,M,M,M,M,M,KCMI 101153Z 16017KT 10SM CLR M04/M08 A3015 RMK AO2 SLP223 T10391083 11039 21089 56034
CMI,2017-02-10 11:55,M,M,M,160.00,15.00,M,30.15,M,10.00,M,CLR,M,M,M,M,M,M,M,M,KCMI 101155Z AUTO 16015KT 10SM CLR A3015 RMK MADISHF
CMI,2017-02-10 12:00,M,M,M,160.00,15.00,M,30.15,M,10.00,M,CLR,M,M,M,M,M,M,M,M,KCMI 101200Z AUTO 16015KT 10SM CLR A3015 RMK MADISHF
CMI,2017-02-10 12:05,M,M,M,170.00,16.00,M,30.14,M,10.00,M,CLR,M,M,M,M,M,M,M,M,KCMI 101205Z AUTO 17016KT 10SM CLR A3014 RMK MADISHF
CMI,2017-02-10 12:10,M,M,M,170.00,18.00,M,30.14,M,10.00,M,CLR,M,M,M,M,M,M,M,M,KCMI 101210Z AUTO 17018KT 10SM CLR A3014 RMK MADISHF
CMI,2017-02-10 12:15,M,M,M,170.00,17.00,M,30.13,M,10.00,M,CLR,M,M,M,M,M,M,M,M,KCMI 101215Z AUTO 17017KT 10SM CLR A3013 RMK MADISHF
CMI,2017-02-10 12:20,M,M,M,M,M,M,30.13,M,10.00,M,CLR,M,M,M,M,M,M,M,M,KCMI 101220Z AUTO /////KT 10SM CLR A3013 RMK MADISHF
CMI,2017-02-10 12:25,M,M,M,160.00,18.00,M,30.12,M,10.00,M,CLR,M,M,M,M,M,M,M,M,KCMI 101225Z AUTO 16018KT 10SM CLR A3012 RMK MADISHF
CMI,2017-02-10 12:30,M,M,M,M,M,M,30.12,M,10.00,M,CLR,M,M,M,M,M,M,M,M,KCMI 101230Z AUTO /////KT 10SM CLR A3012 RMK MADISHF
CMI,2017-02-10 12:35,M,M,M,170.00,18.00,M,30.12,M,10.00,M,CLR,M,M,M,M,M,M,M,M,KCMI 101235Z AUTO 17018KT 10SM CLR A3012 RMK MADISHF
CMI,2017-02-10 12:40,M,M,M,M,M,M,30.12,M,10.00,M,CLR,M,M,M,M,M,M,M,M,KCMI 101240Z AUTO /////KT 10SM CLR A3012 RMK MADISHF
CMI,2017-02-10 12:45,M,M,M,M,M,M,30.11,M,10.00,M,CLR,M,M,M,M,M,M,M,M,KCMI 101245Z AUTO /////KT 10SM CLR A3011 RMK MADISHF
CMI,2017-02-10 12:50,M,M,M,160.00,17.00,M,30.11,M,10.00,M,CLR,M,M,M,M,M,M,M,M,KCMI 101250Z AUTO 16017KT 10SM CLR A3011 RMK MADISHF
CMI,2017-02-10 12:53,26.10,17.10,68.34,160.00,17.00,0.00,30.11,1020.90,10.00,M,CLR,M,M,M,M,M,M,M,M,KCMI 101253Z 16017KT 10SM CLR M03/M08 A3011 RMK AO2 SLP209 T10331083
CMI,2017-02-10 12:55,M,M,M,160.00,15.00,M,30.11,M,10.00,M,CLR,M,M,M,M,M,M,M,M,KCMI 101255Z AUTO 16015KT 10SM CLR A3011 RMK MADISHF
CMI,2017-02-10 13:00,M,M,M,160.00,16.00,M,30.11,M,10.00,M,CLR,M,M,M,M,M,M,M,M,KCMI 101300Z AUTO 16016KT 10SM CLR A3011 RMK MADISHF
CMI,2017-02-10 13:05,M,M,M,160.00,16.00,M,30.11,M,10.00,M,CLR,M,M,M,M,M,M,M,M,KCMI 101305Z AUTO 16016KT 10SM CLR A3011 RMK MADISHF
CMI,2017-02-10 13:10,M,M,M,160.00,16.00,M,30.10,M,10.00,M,CLR,M,M,M,M,M,M,M,M,KCMI 101310Z AUTO 16016KT 10SM CLR A3010 RMK MADISHF
CMI,2017-02-10 13:15,M,M,M,160.00,16.00,M,30.10,M,10.00,M,CLR,M,M,M,M,M,M,M,M,KCMI 101315Z AUTO 16016KT 10SM CLR A3010 RMK MADISHF
CMI,2017-02-10 13:20,M,M,M,160.00,16.00,M,30.10,M,10.00,M,CLR,M,M,M,M,M,M,M,M,KCMI 101320Z AUTO 16016KT 10SM CLR A3010 RMK MADISHF
CMI,2017-02-10 13:25,M,M,M,170.00,16.00,M,30.10,M,10.00,M,CLR,M,M,M,M,M,M,M,M,KCMI 101325Z AUTO 17016KT 10SM CLR A3010 RMK MADISHF
CMI,2017-02-10 13:30,M,M,M,170.00,15.00,M,30.10,M,10.00,M,CLR,M,M,M,M,M,M,M,M,KCMI 101330Z AUTO 17015KT 10SM CLR A3010 RMK MADISHF
CMI,2017-02-10 13:35,M,M,M,170.00,15.00,M,30.10,M,10.00,M,CLR,M,M,M,M,M,M,M,M,KCMI 101335Z AUTO 17015KT 10SM CLR A3010 RMK MADISHF
CMI,2017-02-10 13:40,M,M,M,170.00,17.00,M,30.10,M,10.00,M,CLR,M,M,M,M,M,M,M,M,KCMI 101340Z AUTO 17017KT 10SM CLR A3010 RMK MADISHF
CMI,2017-02-10 13:45,M,M,M,160.00,17.00,M,30.09,M,10.00,M,CLR,M,M,M,M,M,M,M,M,KCMI 101345Z AUTO 16017KT 10SM CLR A3009 RMK MADISHF
CMI,2017-02-10 13:50,M,M,M,160.00,17.00,M,30.09,M,10.00,M,CLR,M,M,M,M,M,M,M,M,KCMI 101350Z AUTO 16017KT 10SM CLR A3009 RMK MADISHF
CMI,2017-02-10 13:53,26.10,18.00,71.04,170.00,17.00,0.00,30.08,1020.00,10.00,M,CLR,M,M,M,M,M,M,M,M,KCMI 101353Z 17017KT 10SM CLR M03/M08 A3008 RMK AO2 SLP200 T10331078
CMI,2017-02-10 13:55,M,M,M,170.00,18.00,M,30.09,M,10.00,M,CLR,M,M,M,M,M,M,M,M,KCMI 101355Z AUTO 17018KT 10SM CLR A3009 RMK MADISHF
CMI,2017-02-10 14:00,M,M,M,170.00,16.00,M,30.08,M,10.00,M,CLR,M,M,M,M,M,M,M,M,KCMI 101400Z AUTO 17016KT 10SM CLR A3008 RMK MADISHF
CMI,2017-02-10 14:05,M,M,M,160.00,17.00,M,30.07,M,10.00,M,CLR,M,M,M,M,M,M,M,M,KCMI 101405Z AUTO 16017KT 10SM CLR A3007 RMK MADISHF
CMI,2017-02-10 14:10,M,M,M,170.00,20.00,M,30.07,M,10.00,M,CLR,M,M,M,M,M,M,M,M,KCMI 101410Z AUTO 17020KT 10SM CLR A3007 RMK MADISHF
CMI,2017-02-10 14:15,M,M,M,170.00,17.00,M,30.07,M,10.00,M,CLR,M,M,M,M,M,M,M,M,KCMI 101415Z AUTO 17017KT 10SM CLR A3007 RMK MADISHF
CMI,2017-02-10 14:20,M,M,M,170.00,19.00,M,30.07,M,10.00,M,CLR,M,M,M,M,M,M,M,M,KCMI 101420Z AUTO 17019KT 10SM CLR A3007 RMK MADISHF
CMI,2017-02-10 14:25,M,M,M,170.00,19.00,M,30.07,M,10.00,M,CLR,M,M,M,M,M,M,M,M,KCMI 101425Z AUTO 17019KT 10SM CLR A3007 RMK MADISHF
CMI,2017-02-10 14:30,M,M,M,M,M,M,30.06,M,10.00,M,CLR,M,M,M,M,M,M,M,M,KCMI 101430Z AUTO /////KT 10SM CLR A3006 RMK MADISHF
CMI,2017-02-10 14:35,M,M,M,M,M,M,30.06,M,10.00,M,CLR,M,M,M,M,M,M,M,M,KCMI 101435Z AUTO /////KT 10SM CLR A3006 RMK MADISHF
CMI,2017-02-10 14:40,M,M,M,M,M,M,30.06,M,10.00,M,CLR,M,M,M,M,M,M,M,M,KCMI 101440Z AUTO /////KT 10SM CLR A3006 RMK MADISHF
CMI,2017-02-10 14:45,M,M,M,M,M,M,30.06,M,10.00,M,CLR,M,M,M,M,M,M,M,M,KCMI 101445Z AUTO /////KT 10SM CLR A3006 RMK MADISHF
CMI,2017-02-10 14:50,M,M,M,M,M,M,30.06,M,10.00,M,CLR,M,M,M,M,M,M,M,M,KCMI 101450Z AUTO /////KT 10SM CLR A3006 RMK MADISHF
CMI,2017-02-10 14:53,28.00,19.00,68.57,M,M,0.00,30.06,1019.10,10.00,M,CLR,M,M,M,M,M,M,M,M,KCMI 101453Z 10SM CLR M02/M07 A3006 RMK AO2 SLP191 T10221072 56031 $
CMI,2017-02-10 14:55,M,M,M,M,M,M,30.05,M,10.00,M,CLR,M,M,M,M,M,M,M,M,KCMI 101455Z AUTO /////KT 10SM CLR A3005 RMK MADISHF
CMI,2017-02-10 15:00,M,M,M,M,M,M,30.05,M,10.00,M,CLR,M,M,M,M,M,M,M,M,KCMI 101500Z AUTO /////KT 10SM CLR A3005 RMK MADISHF
CMI,2017-02-10 15:05,M,M,M,M,M,M,30.04,M,10.00,M,CLR,M,M,M,M,M,M,M,M,KCMI 101505Z AUTO /////KT 10SM CLR A3004 RMK MADISHF
CMI,2017-02-10 15:10,M,M,M,M,M,M,30.04,M,10.00,M,CLR,M,M,M,M,M,M,M,M,KCMI 101510Z AUTO /////KT 10SM CLR A3004 RMK MADISHF
CMI,2017-02-10 15:15,M,M,M,M,M,M,30.03,M,10.00,M,CLR,M,M,M,M,M,M,M,M,KCMI 101515Z AUTO /////KT 10SM CLR A3003 RMK MADISHF
CMI,2017-02-10 15:20,M,M,M,M,M,M,30.02,M,10.00,M,CLR,M,M,M,M,M,M,M,M,KCMI 101520Z AUTO /////KT 10SM CLR A3002 RMK MADISHF
CMI,2017-02-10 15:25,M,M,M,M,M,M,30.02,M,10.00,M,CLR,M,M,M,M,M,M,M,M,KCMI 101525Z AUTO /////KT 10SM CLR A3002 RMK MADISHF
CMI,2017-02-10 15:30,M,M,M,M,M,M,30.01,M,10.00,M,CLR,M,M,M,M,M,M,M,M,KCMI 101530Z AUTO /////KT 10SM CLR A3001 RMK MADISHF
CMI,2017-02-10 15:35,M,M,M,M,M,M,30.01,M,10.00,M,CLR,M,M,M,M,M,M,M,M,KCMI 101535Z AUTO /////KT 10SM CLR A3001 RMK MADISHF
CMI,2017-02-10 15:40,M,M,M,M,M,M,30.01,M,10.00,M,CLR,M,M,M,M,M,M,M,M,KCMI 101540Z AUTO /////KT 10SM CLR A3001 RMK MADISHF
CMI,2017-02-10 15:45,M,M,M,M,M,M,30.00,M,10.00,31.00,CLR,M,M,M,M,M,M,M,M,KCMI 101545Z AUTO /////G31KT 10SM CLR A3000 RMK MADISHF
CMI,2017-02-10 15:50,M,M,M,M,M,M,29.98,M,9.00,M,CLR,M,M,M,M,M,M,M,M,KCMI 101550Z AUTO /////KT 9SM CLR A2998 RMK MADISHF
CMI,2017-02-10 15:53,30.00,21.90,71.48,180.00,26.00,0.00,29.98,1016.40,9.00,M,CLR,M,M,M,M,M,M,M,M,KCMI 101553Z 18026KT 9SM CLR M01/M06 A2998 RMK AO2 PK WND 18031/1546 SLP164 T10111056
CMI,2017-02-10 15:55,M,M,M,180.00,23.00,M,29.98,M,9.00,M,CLR,M,M,M,M,M,M,M,M,KCMI 101555Z AUTO 18023KT 9SM CLR A2998 RMK MADISHF
CMI,2017-02-10 16:00,M,M,M,180.00,24.00,M,29.98,M,9.00,29.00,CLR,M,M,M,M,M,M,M,M,KCMI 101600Z AUTO 18024G29KT 9SM CLR A2998 RMK MADISHF
CMI,2017-02-10 16:05,M,M,M,180.00,22.00,M,29.98,M,10.00,M,CLR,M,M,M,M,M,M,M,M,KCMI 101605Z AUTO 18022KT 10SM CLR A2998 RMK MADISHF
CMI,2017-02-10 16:10,M,M,M,180.00,23.00,M,29.98,M,10.00,28.00,CLR,M,M,M,M,M,M,M,M,KCMI 101610Z AUTO 18023G28KT 10SM CLR A2998 RMK MADISHF
CMI,2017-02-10 16:15,M,M,M,180.00,23.00,M,29.98,M,10.00,29.00,CLR,M,M,M,M,M,M,M,M,KCMI 101615Z AUTO 18023G29KT 10SM CLR A2998 RMK MADISHF
CMI,2017-02-10 16:20,M,M,M,180.00,25.00,M,29.97,M,9.00,M,CLR,M,M,M,M,M,M,M,M,KCMI 101620Z AUTO 18025KT 9SM CLR A2997 RMK MADISHF
CMI,2017-02-10 16:25,M,M,M,M,M,M,29.97,M,9.00,M,CLR,M,M,M,M,M,M,M,M,KCMI 101625Z AUTO /////KT 9SM CLR A2997 RMK MADISHF
CMI,2017-02-10 16:30,M,M,M,180.00,25.00,M,29.97,M,10.00,M,CLR,M,M,M,M,M,M,M,M,KCMI 101630Z AUTO 18025KT 10SM CLR A2997 RMK MADISHF
CMI,2017-02-10 16:35,M,M,M,180.00,23.00,M,29.97,M,10.00,M,CLR,M,M,M,M,M,M,M,M,KCMI 101635Z AUTO 18023KT 10SM CLR A2997 RMK MADISHF
CMI,2017-02-10 16:40,M,M,M,180.00,21.00,M,29.97,M,10.00,M,CLR,M,M,M,M,M,M,M,M,KCMI 101640Z AUTO 18021KT 10SM CLR A2997 RMK MADISHF
CMI,2017-02-10 16:45,M,M,M,180.00,19.00,M,29.96,M,10.00,25.00,CLR,M,M,M,M,M,M,M,M,KCMI 101645Z AUTO 18019G25KT 10SM CLR A2996 RMK MADISHF
CMI,2017-02-10 16:50,M,M,M,180.00,20.00,M,29.96,M,10.00,M,CLR,M,M,M,M,M,M,M,M,KCMI 101650Z AUTO 18020KT 10SM CLR A2996 RMK MADISHF
CMI,2017-02-10 16:53,34.00,25.00,69.28,180.00,19.00,0.00,29.96,1015.70,10.00,M,CLR,M,M,M,M,M,M,M,M,KCMI 101653Z 18019KT 10SM CLR 01/M04 A2996 RMK AO2 PK WND 18035/1618 SLP157 T00111039
CMI,2017-02-10 16:55,M,M,M,180.00,21.00,M,29.96,M,10.00,M,CLR,M,M,M,M,M,M,M,M,KCMI 101655Z AUTO 18021KT 10SM CLR A2996 RMK MADISHF
CMI,2017-02-10 17:00,M,M,M,180.00,21.00,M,29.96,M,10.00,M,CLR,M,M,M,M,M,M,M,M,KCMI 101700Z AUTO 18021KT 10SM CLR A2996 RMK MADISHF
CMI,2017-02-10 17:05,M,M,M,180.00,22.00,M,29.95,M,10.00,M,CLR,M,M,M,M,M,M,M,M,KCMI 101705Z AUTO 18022KT 10SM CLR A2995 RMK MADISHF
CMI,2017-02-10 17:10,M,M,M,180.00,23.00,M,29.95,M,10.00,28.00,CLR,M,M,M,M,M,M,M,M,KCMI 101710Z AUTO 18023G28KT 10SM CLR A2995 RMK MADISHF
CMI,2017-02-10 17:15,M,M,M,190.00,23.00,M,29.95,M,10.00,M,CLR,M,M,M,M,M,M,M,M,KCMI 101715Z AUTO 19023KT 10SM CLR A2995 RMK MADISHF
CMI,2017-02-10 17:20,M,M,M,180.00,21.00,M,29.94,M,10.00,M,CLR,M,M,M,M,M,M,M,M,KCMI 101720Z AUTO 18021KT 10SM CLR A2994 RMK MADISHF
CMI,2017-02-10 17:25,M,M,M,180.00,19.00,M,29.94,M,10.00,M,CLR,M,M,M,M,M,M,M,M,KCMI 101725Z AUTO 18019KT 10SM CLR A2994 RMK MADISHF
CMI,2017-02-10 17:30,M,M,M,190.00,22.00,M,29.94,M,10.00,M,CLR,M,M,M,M,M,M,M,M,KCMI 101730Z AUTO 19022KT 10SM CLR A2994 RMK MADISHF
CMI,2017-02-10 17:35,M,M,M,180.00,22.00,M,29.93,M,10.00,M,CLR,M,M,M,M,M,M,M,M,KCMI 101735Z AUTO 18022KT 10SM CLR A2993 RMK MADISHF
CMI,2017-02-10 17:40,M,M,M,190.00,18.00,M,29.93,M,10.00,M,CLR,M,M,M,M,M,M,M,M,KCMI 101740Z AUTO 19018KT 10SM CLR A2993 RMK MADISHF
CMI,2017-02-10 17:45,M,M,M,190.00,19.00,M,29.92,M,10.00,24.00,CLR,M,M,M,M,M,M,M,M,KCMI 101745Z AUTO 19019G24KT 10SM CLR A2992 RMK MADISHF
CMI,2017-02-10 17:50,M,M,M,190.00,19.00,M,29.92,M,10.00,M,CLR,M,M,M,M,M,M,M,M,KCMI 101750Z AUTO 19019KT 10SM CLR A2992 RMK MADISHF
CMI,2017-02-10 17:53,37.00,27.00,66.82,190.00,21.00,0.00,29.91,1013.70,10.00,M,CLR,M,M,M,M,M,M,M,M,KCMI 101753Z 19021KT 10SM CLR 03/M03 A2991 RMK AO2 PK WND 18029/1711 PRESFR SLP137 T00281028 10028 21039 56048
CMI,2017-02-10 17:55,M,M,M,190.00,19.00,M,29.91,M,10.00,M,CLR,M,M,M,M,M,M,M,M,KCMI 101755Z AUTO 19019KT 10SM CLR A2991 RMK MADISHF
CMI,2017-02-10 18:00,M,M,M,180.00,19.00,M,29.90,M,10.00,M,CLR,M,M,M,M,M,M,M,M,KCMI 101800Z AUTO 18019KT 10SM CLR A2990 RMK MADISHF
CMI,2017-02-10 18:05,M,M,M,180.00,19.00,M,29.89,M,10.00,M,CLR,M,M,M,M,M,M,M,M,KCMI 101805Z AUTO 18019KT 10SM CLR A2989 RMK MADISHF
CMI,2017-02-10 18:10,M,M,M,180.00,18.00,M,29.89,M,10.00,M,CLR,M,M,M,M,M,M,M,M,KCMI 101810Z AUTO 18018KT 10SM CLR A2989 RMK MADISHF
CMI,2017-02-10 18:15,M,M,M,190.00,20.00,M,29.89,M,10.00,M,CLR,M,M,M,M,M,M,M,M,KCMI 101815Z AUTO 19020KT 10SM CLR A2989 RMK MADISHF
CMI,2017-02-10 18:20,M,M,M,190.00,20.00,M,29.88,M,10.00,M,CLR,M,M,M,M,M,M,M,M,KCMI 101820Z AUTO 19020KT 10SM CLR A2988 RMK MADISHF
CMI,2017-02-10 18:25,M,M,M,M,M,M,29.87,M,10.00,M,CLR,M,M,M,M,M,M,M,M,KCMI 101825Z AUTO /////KT 10SM CLR A2987 RMK MADISHF
CMI,2017-02-10 18:30,M,M,M,180.00,22.00,M,29.87,M,10.00,M,CLR,M,M,M,M,M,M,M,M,KCMI 101830Z AUTO 18022KT 10SM CLR A2987 RMK MADISHF
CMI,2017-02-10 18:35,M,M,M,180.00,20.00,M,29.86,M,10.00,M,CLR,M,M,M,M,M,M,M,M,KCMI 101835Z AUTO 18020KT 10SM CLR A2986 RMK MADISHF
CMI,2017-02-10 18:40,M,M,M,180.00,19.00,M,29.86,M,10.00,M,CLR,M,M,M,M,M,M,M,M,KCMI 101840Z AUTO 18019KT 10SM CLR A2986 RMK MADISHF
CMI,2017-02-10 18:45,M,M,M,190.00,18.00,M,29.86,M,10.00,23.00,CLR,M,M,M,M,M,M,M,M,KCMI 101845Z AUTO 19018G23KT 10SM CLR A2986 RMK MADISHF
CMI,2017-02-10 18:50,M,M,M,190.00,18.00,M,29.86,M,10.00,M,CLR,M,M,M,M,M,M,M,M,KCMI 101850Z AUTO 19018KT 10SM CLR A2986 RMK MADISHF
CMI,2017-02-10 18:53,41.00,32.00,70.08,190.00,17.00,0.00,29.85,1011.70,10.00,25.00,CLR,M,M,M,M,M,M,M,M,KCMI 101853Z 19017G25KT 10SM CLR 05/00 A2985 RMK AO2 PK WND 19028/1825 SLP117 T00500000
CMI,2017-02-10 18:55,M,M,M,190.00,16.00,M,29.85,M,10.00,M,CLR,M,M,M,M,M,M,M,M,KCMI 101855Z AUTO 19016KT 10SM CLR A2985 RMK MADISHF
CMI,2017-02-10 19:00,M,M,M,180.00,19.00,M,29.84,M,10.00,M,CLR,M,M,M,M,M,M,M,M,KCMI 101900Z AUTO 18019KT 10SM CLR A2984 RMK MADISHF
CMI,2017-02-10 19:05,M,M,M,180.00,18.00,M,29.84,M,10.00,M,CLR,M,M,M,M,M,M,M,M,KCMI 101905Z AUTO 18018KT 10SM CLR A2984 RMK MADISHF
CMI,2017-02-10 19:10,M,M,M,190.00,17.00,M,29.84,M,10.00,M,CLR,M,M,M,M,M,M,M,M,KCMI 101910Z AUTO 19017KT 10SM CLR A2984 RMK MADISHF
CMI,2017-02-10 19:15,M,M,M,180.00,16.00,M,29.83,M,10.00,M,CLR,M,M,M,M,M,M,M,M,KCMI 101915Z AUTO 18016KT 10SM CLR A2983 RMK MADISHF
CMI,2017-02-10 19:20,M,M,M,190.00,17.00,M,29.83,M,10.00,M,CLR,M,M,M,M,M,M,M,M,KCMI 101920Z AUTO 19017KT 10SM CLR A2983 RMK MADISHF
CMI,2017-02-10 19:25,M,M,M,170.00,13.00,M,29.83,M,10.00,M,CLR,M,M,M,M,M,M,M,M,KCMI 101925Z AUTO 17013KT 10SM CLR A2983 RMK MADISHF
CMI,2017-02-10 19:30,M,M,M,180.00,13.00,M,29.82,M,10.00,M,CLR,M,M,M,M,M,M,M,M,KCMI 101930Z AUTO 18013KT 10SM CLR A2982 RMK MADISHF
CMI,2017-02-10 19:35,M,M,M,190.00,17.00,M,29.82,M,10.00,M,CLR,M,M,M,M,M,M,M,M,KCMI 101935Z AUTO 19017KT 10SM CLR A2982 RMK MADISHF
CMI,2017-02-10 19:40,M,M,M,180.00,12.00,M,29.82,M,10.00,M,CLR,M,M,M,M,M,M,M,M,KCMI 101940Z AUTO 18012KT 10SM CLR A2982 RMK MADISHF
CMI,2017-02-10 19:45,M,M,M,190.00,14.00,M,29.82,M,10.00,20.00,CLR,M,M,M,M,M,M,M,M,KCMI 101945Z AUTO 19014G20KT 10SM CLR A2982 RMK MADISHF
CMI,2017-02-10 19:50,M,M,M,200.00,18.00,M,29.82,M,10.00,M,CLR,M,M,M,M,M,M,M,M,KCMI 101950Z AUTO 20018KT 10SM CLR A2982 RMK MADISHF
CMI,2017-02-10 19:53,46.90,35.10,63.33,200.00,19.00,0.00,29.82,1010.50,10.00,23.00,CLR,M,M,M,M,M,M,M,M,KCMI 101953Z 20019G23KT 10SM CLR 08/02 A2982 RMK AO2 SLP105 T00830017
CMI,2017-02-10 19:55,M,M,M,200.00,18.00,M,29.82,M,10.00,M,CLR,M,M,M,M,M,M,M,M,KCMI 101955Z AUTO 20018KT 10SM CLR A2982 RMK MADISHF
CMI,2017-02-10 20:00,M,M,M,200.00,17.00,M,29.82,M,10.00,M,CLR,M,M,M,M,M,M,M,M,KCMI 102000Z AUTO 20017KT 10SM CLR A2982 RMK MADISHF
CMI,2017-02-10 20:05,M,M,M,200.00,18.00,M,29.82,M,10.00,M,CLR,M,M,M,M,M,M,M,M,KCMI 102005Z AUTO 20018KT 10SM CLR A2982 RMK MADISHF
CMI,2017-02-10 20:10,M,M,M,190.00,19.00,M,29.81,M,10.00,M,CLR,M,M,M,M,M,M,M,M,KCMI 102010Z AUTO 19019KT 10SM CLR A2981 RMK MADISHF
CMI,2017-02-10 20:15,M,M,M,190.00,17.00,M,29.82,M,10.00,M,CLR,M,M,M,M,M,M,M,M,KCMI 102015Z AUTO 19017KT 10SM CLR A2982 RMK MADISHF
CMI,2017-02-10 20:20,M,M,M,200.00,19.00,M,29.81,M,10.00,M,CLR,M,M,M,M,M,M,M,M,KCMI 102020Z AUTO 20019KT 10SM CLR A2981 RMK MADISHF
CMI,2017-02-10 20:25,M,M,M,190.00,19.00,M,29.81,M,10.00,M,CLR,M,M,M,M,M,M,M,M,KCMI 102025Z AUTO 19019KT 10SM CLR A2981 RMK MADISHF
CMI,2017-02-10 20:30,M,M,M,190.00,21.00,M,29.81,M,10.00,M,CLR,M,M,M,M,M,M,M,M,KCMI 102030Z AUTO 19021KT 10SM CLR A2981 RMK MADISHF
CMI,2017-02-10 20:35,M,M,M,190.00,20.00,M,29.80,M,10.00,M,CLR,M,M,M,M,M,M,M,M,KCMI 102035Z AUTO 19020KT 10SM CLR A2980 RMK MADISHF
CMI,2017-02-10 20:40,M,M,M,190.00,20.00,M,29.80,M,10.00,M,CLR,M,M,M,M,M,M,M,M,KCMI 102040Z AUTO 19020KT 10SM CLR A2980 RMK MADISHF
CMI,2017-02-10 20:45,M,M,M,M,M,M,29.79,M,10.00,M,CLR,M,M,M,M,M,M,M,M,KCMI 102045Z AUTO /////KT 10SM CLR A2979 RMK MADISHF
CMI,2017-02-10 20:50,M,M,M,190.00,20.00,M,29.79,M,10.00,M,CLR,M,M,M,M,M,M,M,M,KCMI 102050Z AUTO 19020KT 10SM CLR A2979 RMK MADISHF
CMI,2017-02-10 20:53,48.90,37.00,63.34,190.00,19.00,0.00,29.79,1009.40,10.00,M,CLR,M,M,M,M,M,M,M,M,KCMI 102053Z AUTO 19019KT 10SM CLR 09/03 A2979 RMK AO2 PK WND 19027/2043 SLP094 T00940028 56040
CMI,2017-02-10 20:55,M,M,M,190.00,18.00,M,29.79,M,10.00,M,CLR,M,M,M,M,M,M,M,M,KCMI 102055Z AUTO 19018KT 10SM CLR A2979 RMK MADISHF
CMI,2017-02-10 21:00,M,M,M,200.00,17.00,M,29.79,M,10.00,M,CLR,M,M,M,M,M,M,M,M,KCMI 102100Z AUTO 20017KT 10SM CLR A2979 RMK MADISHF
CMI,2017-02-10 21:05,M,M,M,190.00,19.00,M,29.79,M,10.00,M,CLR,M,M,M,M,M,M,M,M,KCMI 102105Z AUTO 19019KT 10SM CLR A2979 RMK MADISHF
CMI,2017-02-10 21:10,M,M,M,200.00,18.00,M,29.79,M,10.00,M,CLR,M,M,M,M,M,M,M,M,KCMI 102110Z AUTO 20018KT 10SM CLR A2979 RMK MADISHF
CMI,2017-02-10 21:15,M,M,M,190.00,16.00,M,29.78,M,10.00,M,CLR,M,M,M,M,M,M,M,M,KCMI 102115Z AUTO 19016KT 10SM CLR A2978 RMK MADISHF
CMI,2017-02-10 21:20,M,M,M,190.00,15.00,M,29.78,M,10.00,M,CLR,M,M,M,M,M,M,M,M,KCMI 102120Z AUTO 19015KT 10SM CLR A2978 RMK MADISHF
CMI,2017-02-10 21:25,M,M,M,200.00,15.00,M,29.78,M,10.00,M,CLR,M,M,M,M,M,M,M,M,KCMI 102125Z AUTO 20015KT 10SM CLR A2978 RMK MADISHF
CMI,2017-02-10 21:30,M,M,M,190.00,14.00,M,29.78,M,10.00,M,CLR,M,M,M,M,M,M,M,M,KCMI 102130Z AUTO 19014KT 10SM CLR A2978 RMK MADISHF
CMI,2017-02-10 21:35,M,M,M,190.00,15.00,M,29.78,M,10.00,M,CLR,M,M,M,M,M,M,M,M,KCMI 102135Z AUTO 19015KT 10SM CLR A2978 RMK MADISHF
CMI,2017-02-10 21:40,M,M,M,200.00,15.00,M,29.78,M,10.00,M,CLR,M,M,M,M,M,M,M,M,KCMI 102140Z AUTO 20015KT 10SM CLR A2978 RMK MADISHF
CMI,2017-02-10 21:45,M,M,M,190.00,18.00,M,29.77,M,10.00,M,CLR,M,M,M,M,M,M,M,M,KCMI 102145Z AUTO 19018KT 10SM CLR A2977 RMK MADISHF
CMI,2017-02-10 21:50,M,M,M,190.00,16.00,M,29.77,M,10.00,M,CLR,M,M,M,M,M,M,M,M,KCMI 102150Z AUTO 19016KT 10SM CLR A2977 RMK MADISHF
CMI,2017-02-10 21:53,48.00,37.00,65.51,190.00,18.00,0.00,29.76,1008.30,10.00,M,CLR,M,M,M,M,M,M,M,M,KCMI 102153Z 19018KT 10SM CLR 09/03 A2976 RMK AO2 SLP083 T00890028
CMI,2017-02-10 21:55,M,M,M,180.00,18.00,M,29.75,M,10.00,M,CLR,M,M,M,M,M,M,M,M,KCMI 102155Z AUTO 18018KT 10SM CLR A2975 RMK MADISHF
CMI,2017-02-10 22:00,M,M,M,190.00,20.00,M,29.75,M,10.00,M,CLR,M,M,M,M,M,M,M,M,KCMI 102200Z AUTO 19020KT 10SM CLR A2975 RMK MADISHF
CMI,2017-02-10 22:05,M,M,M,180.00,20.00,M,29.74,M,10.00,M,CLR,M,M,M,M,M,M,M,M,KCMI 102205Z AUTO 18020KT 10SM CLR A2974 RMK MADISHF
CMI,2017-02-10 22:10,M,M,M,180.00,22.00,M,29.74,M,10.00,M,CLR,M,M,M,M,M,M,M,M,KCMI 102210Z AUTO 18022KT 10SM CLR A2974 RMK MADISHF
CMI,2017-02-10 22:15,M,M,M,180.00,21.00,M,29.74,M,10.00,M,CLR,M,M,M,M,M,M,M,M,KCMI 102215Z AUTO 18021KT 10SM CLR A2974 RMK MADISHF
CMI,2017-02-10 22:20,M,M,M,180.00,21.00,M,29.74,M,10.00,M,CLR,M,M,M,M,M,M,M,M,KCMI 102220Z AUTO 18021KT 10SM CLR A2974 RMK MADISHF
CMI,2017-02-10 22:25,M,M,M,190.00,21.00,M,29.74,M,10.00,M,CLR,M,M,M,M,M,M,M,M,KCMI 102225Z AUTO 19021KT 10SM CLR A2974 RMK MADISHF
CMI,2017-02-10 22:30,M,M,M,190.00,21.00,M,29.74,M,10.00,M,CLR,M,M,M,M,M,M,M,M,KCMI 102230Z AUTO 19021KT 10SM CLR A2974 RMK MADISHF
CMI,2017-02-10 22:35,M,M,M,180.00,18.00,M,29.74,M,10.00,M,CLR,M,M,M,M,M,M,M,M,KCMI 102235Z AUTO 18018KT 10SM CLR A2974 RMK MADISHF
CMI,2017-02-10 22:40,M,M,M,180.00,16.00,M,29.74,M,10.00,M,CLR,M,M,M,M,M,M,M,M,KCMI 102240Z AUTO 18016KT 10SM CLR A2974 RMK MADISHF
CMI,2017-02-10 22:45,M,M,M,180.00,17.00,M,29.74,M,10.00,M,CLR,M,M,M,M,M,M,M,M,KCMI 102245Z AUTO 18017KT 10SM CLR A2974 RMK MADISHF
CMI,2017-02-10 22:50,M,M,M,190.00,17.00,M,29.75,M,10.00,M,CLR,M,M,M,M,M,M,M,M,KCMI 102250Z AUTO 19017KT 10SM CLR A2975 RMK MADISHF
CMI,2017-02-10 22:53,46.90,37.00,68.27,190.00,16.00,0.00,29.75,1008.10,10.00,M,CLR,M,M,M,M,M,M,M,M,KCMI 102253Z 19016KT 10SM CLR 08/03 A2975 RMK AO2 PK WND 19027/2217 SLP081 T00830028
CMI,2017-02-10 22:55,M,M,M,190.00,15.00,M,29.75,M,10.00,M,CLR,M,M,M,M,M,M,M,M,KCMI 102255Z AUTO 19015KT 10SM CLR A2975 RMK MADISHF
CMI,2017-02-10 23:00,M,M,M,190.00,15.00,M,29.75,M,10.00,M,CLR,M,M,M,M,M,M,M,M,KCMI 102300Z AUTO 19015KT 10SM CLR A2975 RMK MADISHF
CMI,2017-02-10 23:05,M,M,M,190.00,14.00,M,29.76,M,10.00,M,CLR,M,M,M,M,M,M,M,M,KCMI 102305Z AUTO 19014KT 10SM CLR A2976 RMK MADISHF
CMI,2017-02-10 23:10,M,M,M,190.00,13.00,M,29.76,M,10.00,M,CLR,M,M,M,M,M,M,M,M,KCMI 102310Z AUTO 19013KT 10SM CLR A2976 RMK MADISHF
CMI,2017-02-10 23:15,M,M,M,190.00,13.00,M,29.76,M,10.00,M,CLR,M,M,M,M,M,M,M,M,KCMI 102315Z AUTO 19013KT 10SM CLR A2976 RMK MADISHF
CMI,2017-02-10 23:20,M,M,M,190.00,12.00,M,29.75,M,10.00,M,CLR,M,M,M,M,M,M,M,M,KCMI 102320Z AUTO 19012KT 10SM CLR A2975 RMK MADISHF
CMI,2017-02-10 23:25,M,M,M,190.00,12.00,M,29.75,M,10.00,M,CLR,M,M,M,M,M,M,M,M,KCMI 102325Z AUTO 19012KT 10SM CLR A2975 RMK MADISHF
CMI,2017-02-10 23:30,M,M,M,190.00,13.00,M,29.75,M,10.00,M,CLR,M,M,M,M,M,M,M,M,KCMI 102330Z AUTO 19013KT 10SM CLR A2975 RMK MADISHF
CMI,2017-02-10 23:35,M,M,M,190.00,13.00,M,29.75,M,10.00,M,CLR,M,M,M,M,M,M,M,M,KCMI 102335Z AUTO 19013KT 10SM CLR A2975 RMK MADISHF
CMI,2017-02-10 23:40,M,M,M,190.00,12.00,M,29.76,M,10.00,M,CLR,M,M,M,M,M,M,M,M,KCMI 102340Z AUTO 19012KT 10SM CLR A2976 RMK MADISHF
CMI,2017-02-10 23:45,M,M,M,190.00,12.00,M,29.76,M,10.00,M,CLR,M,M,M,M,M,M,M,M,KCMI 102345Z AUTO 19012KT 10SM CLR A2976 RMK MADISHF
CMI,2017-02-10 23:50,M,M,M,190.00,11.00,M,29.76,M,10.00,M,CLR,M,M,M,M,M,M,M,M,KCMI 102350Z AUTO 19011KT 10SM CLR A2976 RMK MADISHF
CMI,2017-02-10 23:53,44.10,36.00,72.99,190.00,11.00,0.00,29.76,1008.20,10.00,M,CLR,M,M,M,M,M,M,M,M,KCMI 102353Z 19011KT 10SM CLR 07/02 A2976 RMK AO2 SLP082 T00670022 10094 20028 55010
CMI,2017-02-10 23:55,M,M,M,190.00,11.00,M,29.76,M,10.00,M,CLR,M,M,M,M,M,M,M,M,KCMI 102355Z AUTO 19011KT 10SM CLR A2976 RMK MADISHF
CMI,2017-02-11 00:00,M,M,M,190.00,9.00,M,29.77,M,10.00,M,CLR,M,M,M,M,M,M,M,M,KCMI 110000Z AUTO 19009KT 10SM CLR A2977 RMK MADISHF
CMI,2017-02-11 00:05,M,M,M,190.00,9.00,M,29.77,M,10.00,M,CLR,M,M,M,M,M,M,M,M,KCMI 110005Z AUTO 19009KT 10SM CLR A2977 RMK MADISHF
CMI,2017-02-11 00:10,M,M,M,190.00,8.00,M,29.77,M,10.00,M,CLR,M,M,M,M,M,M,M,M,KCMI 110010Z AUTO 19008KT 10SM CLR A2977 RMK MADISHF
CMI,2017-02-11 00:15,M,M,M,190.00,8.00,M,29.77,M,10.00,M,CLR,M,M,M,M,M,M,M,M,KCMI 110015Z AUTO 19008KT 10SM CLR A2977 RMK MADISHF
CMI,2017-02-11 00:20,M,M,M,190.00,9.00,M,29.77,M,10.00,M,CLR,M,M,M,M,M,M,M,M,KCMI 110020Z AUTO 19009KT 10SM CLR A2977 RMK MADISHF
CMI,2017-02-11 00:25,M,M,M,190.00,10.00,M,29.77,M,10.00,M,CLR,M,M,M,M,M,M,M,M,KCMI 110025Z AUTO 19010KT 10SM CLR A2977 RMK MADISHF
CMI,2017-02-11 00:30,M,M,M,200.00,9.00,M,29.78,M,10.00,M,CLR,M,M,M,M,M,M,M,M,KCMI 110030Z AUTO 20009KT 10SM CLR A2978 RMK MADISHF
CMI,2017-02-11 00:35,M,M,M,200.00,8.00,M,29.78,M,10.00,M,CLR,M,M,M,M,M,M,M,M,KCMI 110035Z AUTO 20008KT 10SM CLR A2978 RMK MADISHF
CMI,2017-02-11 00:40,M,M,M,200.00,7.00,M,29.79,M,10.00,M,CLR,M,M,M,M,M,M,M,M,KCMI 110040Z AUTO 20007KT 10SM CLR A2979 RMK MADISHF
CMI,2017-02-11 00:45,M,M,M,200.00,8.00,M,29.79,M,10.00,M,CLR,M,M,M,M,M,M,M,M,KCMI 110045Z AUTO 20008KT 10SM CLR A2979 RMK MADISHF
CMI,2017-02-11 00:50,M,M,M,200.00,7.00,M,29.80,M,10.00,M,CLR,M,M,M,M,M,M,M,M,KCMI 110050Z AUTO 20007KT 10SM CLR A2980 RMK MADISHF
CMI,2017-02-11 00:53,39.90,34.00,79.25,210.00,8.00,0.00,29.79,1009.60,10.00,M,CLR,M,M,M,M,M,M,M,M,KCMI 110053Z 21008KT 10SM CLR 04/01 A2979 RMK AO2 SLP096 T00440011
CMI,2017-02-11 01:00,M,M,M,210.00,8.00,M,29.80,M,10.00,M,CLR,M,M,M,M,M,M,M,M,KCMI 110100Z AUTO 21008KT 10SM CLR A2980 RMK MADISHF
CMI,2017-02-11 01:05,M,M,M,210.00,8.00,M,29.80,M,10.00,M,CLR,M,M,M,M,M,M,M,M,KCMI 110105Z AUTO 21008KT 10SM CLR A2980 RMK MADISHF
CMI,2017-02-11 01:10,M,M,M,210.00,8.00,M,29.80,M,10.00,M,CLR,M,M,M,M,M,M,M,M,KCMI 110110Z AUTO 21008KT 10SM CLR A2980 RMK MADISHF
CMI,2017-02-11 01:15,M,M,M,200.00,9.00,M,29.79,M,10.00,M,CLR,M,M,M,M,M,M,M,M,KCMI 110115Z AUTO 20009KT 10SM CLR A2979 RMK MADISHF
CMI,2017-02-11 01:20,M,M,M,200.00,10.00,M,29.79,M,10.00,M,CLR,M,M,M,M,M,M,M,M,KCMI 110120Z AUTO 20010KT 10SM CLR A2979 RMK MADISHF
CMI,2017-02-11 01:25,M,M,M,200.00,9.00,M,29.79,M,10.00,M,CLR,M,M,M,M,M,M,M,M,KCMI 110125Z AUTO 20009KT 10SM CLR A2979 RMK MADISHF
CMI,2017-02-11 01:30,M,M,M,200.00,10.00,M,29.79,M,10.00,M,CLR,M,M,M,M,M,M,M,M,KCMI 110130Z AUTO 20010KT 10SM CLR A2979 RMK MADISHF
CMI,2017-02-11 01:35,M,M,M,200.00,9.00,M,29.79,M,10.00,M,CLR,M,M,M,M,M,M,M,M,KCMI 110135Z AUTO 20009KT 10SM CLR A2979 RMK MADISHF
CMI,2017-02-11 01:40,M,M,M,200.00,8.00,M,29.79,M,10.00,M,CLR,M,M,M,M,M,M,M,M,KCMI 110140Z AUTO 20008KT 10SM CLR A2979 RMK MADISHF
CMI,2017-02-11 01:45,M,M,M,200.00,8.00,M,29.79,M,10.00,M,CLR,M,M,M,M,M,M,M,M,KCMI 110145Z AUTO 20008KT 10SM CLR A2979 RMK MADISHF
CMI,2017-02-11 01:50,M,M,M,190.00,9.00,M,29.79,M,10.00,M,CLR,M,M,M,M,M,M,M,M,KCMI 110150Z AUTO 19009KT 10SM CLR A2979 RMK MADISHF
CMI,2017-02-11 01:53,41.00,35.10,79.34,190.00,9.00,0.00,29.78,1009.20,10.00,M,CLR,M,M,M,M,M,M,M,M,KCMI 110153Z 19009KT 10SM CLR 05/02 A2978 RMK AO2 SLP092 T00500017
CMI,2017-02-11 02:00,M,M,M,200.00,9.00,M,29.78,M,10.00,M,CLR,M,M,M,M,M,M,M,M,KCMI 110200Z AUTO 20009KT 10SM CLR A2978 RMK MADISHF
CMI,2017-02-11 02:05,M,M,M,200.00,9.00,M,29.78,M,10.00,M,CLR,M,M,M,M,M,M,M,M,KCMI 110205Z AUTO 20009KT 10SM CLR A2978 RMK MADISHF
CMI,2017-02-11 02:10,M,M,M,200.00,8.00,M,29.79,M,10.00,M,CLR,M,M,M,M,M,M,M,M,KCMI 110210Z AUTO 20008KT 10SM CLR A2979 RMK MADISHF
CMI,2017-02-11 02:15,M,M,M,200.00,9.00,M,29.79,M,10.00,M,CLR,M,M,M,M,M,M,M,M,KCMI 110215Z AUTO 20009KT 10SM CLR A2979 RMK MADISHF
CMI,2017-02-11 02:20,M,M,M,200.00,10.00,M,29.79,M,10.00,M,CLR,M,M,M,M,M,M,M,M,KCMI 110220Z AUTO 20010KT 10SM CLR A2979 RMK MADISHF
CMI,2017-02-11 02:25,M,M,M,210.00,9.00,M,29.80,M,10.00,M,CLR,M,M,M,M,M,M,M,M,KCMI 110225Z AUTO 21009KT 10SM CLR A2980 RMK MADISHF
CMI,2017-02-11 02:30,M,M,M,210.00,8.00,M,29.80,M,10.00,M,CLR,M,M,M,M,M,M,M,M,KCMI 110230Z AUTO 21008KT 10SM CLR A2980 RMK MADISHF
CMI,2017-02-11 02:35,M,M,M,210.00,8.00,M,29.80,M,10.00,M,CLR,M,M,M,M,M,M,M,M,KCMI 110235Z AUTO 21008KT 10SM CLR A2980 RMK MADISHF
CMI,2017-02-11 02:40,M,M,M,210.00,8.00,M,29.81,M,10.00,M,CLR,M,M,M,M,M,M,M,M,KCMI 110240Z AUTO 21008KT 10SM CLR A2981 RMK MADISHF
CMI,2017-02-11 02:45,M,M,M,210.00,8.00,M,29.81,M,10.00,M,CLR,M,M,M,M,M,M,M,M,KCMI 110245Z AUTO 21008KT 10SM CLR A2981 RMK MADISHF
CMI,2017-02-11 02:50,M,M,M,210.00,9.00,M,29.81,M,10.00,M,CLR,M,M,M,M,M,M,M,M,KCMI 110250Z AUTO 21009KT 10SM CLR A2981 RMK MADISHF
CMI,2017-02-11 02:53,42.10,35.10,76.04,220.00,9.00,0.00,29.81,1010.10,10.00,M,CLR,M,M,M,M,M,M,M,M,KCMI 110253Z 22009KT 10SM CLR 06/02 A2981 RMK AO2 SLP101 T00560017 51018
CMI,2017-02-11 03:00,M,M,M,220.00,9.00,M,29.81,M,10.00,M,CLR,M,M,M,M,M,M,M,M,KCMI 110300Z AUTO 22009KT 10SM CLR A2981 RMK MADISHF
CMI,2017-02-11 03:05,M,M,M,220.00,8.00,M,29.82,M,10.00,M,CLR,M,M,M,M,M,M,M,M,KCMI 110305Z AUTO 22008KT 10SM CLR A2982 RMK MADISHF
CMI,2017-02-11 03:10,M,M,M,210.00,8.00,M,29.81,M,10.00,M,CLR,M,M,M,M,M,M,M,M,KCMI 110310Z AUTO 21008KT 10SM CLR A2981 RMK MADISHF
CMI,2017-02-11 03:15,M,M,M,210.00,8.00,M,29.81,M,10.00,M,CLR,M,M,M,M,M,M,M,M,KCMI 110315Z AUTO 21008KT 10SM CLR A2981 RMK MADISHF
CMI,2017-02-11 03:20,M,M,M,210.00,9.00,M,29.81,M,10.00,M,CLR,M,M,M,M,M,M,M,M,KCMI 110320Z AUTO 21009KT 10SM CLR A2981 RMK MADISHF
CMI,2017-02-11 03:25,M,M,M,210.00,10.00,M,29.81,M,10.00,M,CLR,M,M,M,M,M,M,M,M,KCMI 110325Z AUTO 21010KT 10SM CLR A2981 RMK MADISHF
CMI,2017-02-11 03:30,M,M,M,220.00,10.00,M,29.81,M,10.00,M,CLR,M,M,M,M,M,M,M,M,KCMI 110330Z AUTO 22010KT 10SM CLR A2981 RMK MADISHF
CMI,2017-02-11 03:35,M,M,M,210.00,11.00,M,29.81,M,10.00,M,CLR,M,M,M,M,M,M,M,M,KCMI 110335Z AUTO 21011KT 10SM CLR A2981 RMK MADISHF
CMI,2017-02-11 03:40,M,M,M,210.00,11.00,M,29.81,M,10.00,M,CLR,M,M,M,M,M,M,M,M,KCMI 110340Z AUTO 21011KT 10SM CLR A2981 RMK MADISHF
CMI,2017-02-11 03:45,M,M,M,210.00,11.00,M,29.82,M,10.00,M,CLR,M,M,M,M,M,M,M,M,KCMI 110345Z AUTO 21011KT 10SM CLR A2982 RMK MADISHF
CMI,2017-02-11 03:53,43.00,35.10,73.45,210.00,12.00,0.00,29.81,1010.00,10.00,M,CLR,M,M,M,M,M,M,M,M,KCMI 110353Z 21012KT 10SM CLR 06/02 A2981 RMK AO2 SLP100 T00610017
CMI,2017-02-11 04:00,M,M,M,210.00,12.00,M,29.81,M,10.00,M,CLR,M,M,M,M,M,M,M,M,KCMI 110400Z AUTO 21012KT 10SM CLR A2981 RMK MADISHF
CMI,2017-02-11 04:05,M,M,M,210.00,13.00,M,29.80,M,10.00,M,CLR,M,M,M,M,M,M,M,M,KCMI 110405Z AUTO 21013KT 10SM CLR A2980 RMK MADISHF
CMI,2017-02-11 04:10,M,M,M,210.00,12.00,M,29.81,M,10.00,M,CLR,M,M,M,M,M,M,M,M,KCMI 110410Z AUTO 21012KT 10SM CLR A2981 RMK MADISHF
CMI,2017-02-11 04:15,M,M,M,210.00,12.00,M,29.81,M,10.00,M,CLR,M,M,M,M,M,M,M,M,KCMI 110415Z AUTO 21012KT 10SM CLR A2981 RMK MADISHF
CMI,2017-02-11 04:20,M,M,M,210.00,11.00,M,29.81,M,10.00,M,CLR,M,M,M,M,M,M,M,M,KCMI 110420Z AUTO 21011KT 10SM CLR A2981 RMK MADISHF
CMI,2017-02-11 04:25,M,M,M,210.00,13.00,M,29.81,M,10.00,M,CLR,M,M,M,M,M,M,M,M,KCMI 110425Z AUTO 21013KT 10SM CLR A2981 RMK MADISHF
CMI,2017-02-11 04:30,M,M,M,210.00,11.00,M,29.82,M,10.00,M,CLR,M,M,M,M,M,M,M,M,KCMI 110430Z AUTO 21011KT 10SM CLR A2982 RMK MADISHF
CMI,2017-02-11 04:35,M,M,M,210.00,10.00,M,29.82,M,10.00,M,CLR,M,M,M,M,M,M,M,M,KCMI 110435Z AUTO 21010KT 10SM CLR A2982 RMK MADISHF
CMI,2017-02-11 04:40,M,M,M,220.00,10.00,M,29.82,M,10.00,M,CLR,M,M,M,M,M,M,M,M,KCMI 110440Z AUTO 22010KT 10SM CLR A2982 RMK MADISHF
CMI,2017-02-11 04:45,M,M,M,220.00,10.00,M,29.82,M,10.00,M,CLR,M,M,M,M,M,M,M,M,KCMI 110445Z AUTO 22010KT 10SM CLR A2982 RMK MADISHF
CMI,2017-02-11 04:53,43.00,36.00,76.12,220.00,10.00,0.00,29.82,1010.40,10.00,M,CLR,M,M,M,M,M,M,M,M,KCMI 110453Z 22010KT 10SM CLR 06/02 A2982 RMK AO2 SLP104 T00610022
CMI,2017-02-11 05:00,M,M,M,220.00,10.00,M,29.83,M,10.00,M,CLR,M,M,M,M,M,M,M,M,KCMI 110500Z AUTO 22010KT 10SM CLR A2983 RMK MADISHF
CMI,2017-02-11 05:05,M,M,M,220.00,10.00,M,29.82,M,10.00,M,CLR,M,M,M,M,M,M,M,M,KCMI 110505Z AUTO 22010KT 10SM CLR A2982 RMK MADISHF
CMI,2017-02-11 05:10,M,M,M,220.00,11.00,M,29.82,M,10.00,M,CLR,M,M,M,M,M,M,M,M,KCMI 110510Z AUTO 22011KT 10SM CLR A2982 RMK MADISHF
CMI,2017-02-11 05:15,M,M,M,220.00,10.00,M,29.82,M,10.00,M,CLR,M,M,M,M,M,M,M,M,KCMI 110515Z AUTO 22010KT 10SM CLR A2982 RMK MADISHF
CMI,2017-02-11 05:20,M,M,M,220.00,10.00,M,29.82,M,10.00,M,CLR,M,M,M,M,M,M,M,M,KCMI 110520Z AUTO 22010KT 10SM CLR A2982 RMK MADISHF
CMI,2017-02-11 05:25,M,M,M,230.00,9.00,M,29.83,M,10.00,M,CLR,M,M,M,M,M,M,M,M,KCMI 110525Z AUTO 23009KT 10SM CLR A2983 RMK MADISHF
CMI,2017-02-11 05:30,M,M,M,220.00,10.00,M,29.83,M,10.00,M,CLR,M,M,M,M,M,M,M,M,KCMI 110530Z AUTO 22010KT 10SM CLR A2983 RMK MADISHF
CMI,2017-02-11 05:35,M,M,M,220.00,9.00,M,29.83,M,10.00,M,CLR,M,M,M,M,M,M,M,M,KCMI 110535Z AUTO 22009KT 10SM CLR A2983 RMK MADISHF
CMI,2017-02-11 05:40,M,M,M,220.00,9.00,M,29.83,M,10.00,M,CLR,M,M,M,M,M,M,M,M,KCMI 110540Z AUTO 22009KT 10SM CLR A2983 RMK MADISHF
CMI,2017-02-11 05:45,M,M,M,220.00,9.00,M,29.83,M,10.00,M,CLR,M,M,M,M,M,M,M,M,KCMI 110545Z AUTO 22009KT 10SM CLR A2983 RMK MADISHF
CMI,2017-02-11 05:50,M,M,M,220.00,9.00,M,29.83,M,10.00,M,CLR,M,M,M,M,M,M,M,M,KCMI 110550Z AUTO 22009KT 10SM CLR A2983 RMK MADISHF
CMI,2017-02-11 05:53,42.10,36.00,78.80,220.00,9.00,0.00,29.83,1010.60,10.00,M,CLR,M,M,M,M,M,M,M,M,KCMI 110553Z AUTO 22009KT 10SM CLR 06/02 A2983 RMK AO2 SLP106 T00560022 10067 20044 400941089 53005
CMI,2017-02-11 06:00,M,M,M,220.00,8.00,M,29.83,M,10.00,M,CLR,M,M,M,M,M,M,M,M,KCMI 110600Z AUTO 22008KT 10SM CLR A2983 RMK MADISHF
CMI,2017-02-11 06:05,M,M,M,220.00,8.00,M,29.83,M,10.00,M,CLR,M,M,M,M,M,M,M,M,KCMI 110605Z AUTO 22008KT 10SM CLR A2983 RMK MADISHF
CMI,2017-02-11 06:10,M,M,M,220.00,8.00,M,29.83,M,10.00,M,CLR,M,M,M,M,M,M,M,M,KCMI 110610Z AUTO 22008KT 10SM CLR A2983 RMK MADISHF
CMI,2017-02-11 06:15,M,M,M,220.00,8.00,M,29.83,M,10.00,M,CLR,M,M,M,M,M,M,M,M,KCMI 110615Z AUTO 22008KT 10SM CLR A2983 RMK MADISHF
CMI,2017-02-11 06:20,M,M,M,220.00,8.00,M,29.83,M,10.00,M,CLR,M,M,M,M,M,M,M,M,KCMI 110620Z AUTO 22008KT 10SM CLR A2983 RMK MADISHF
CMI,2017-02-11 06:25,M,M,M,230.00,8.00,M,29.83,M,10.00,M,CLR,M,M,M,M,M,M,M,M,KCMI 110625Z AUTO 23008KT 10SM CLR A2983 RMK MADISHF
CMI,2017-02-11 06:30,M,M,M,220.00,8.00,M,29.83,M,10.00,M,CLR,M,M,M,M,M,M,M,M,KCMI 110630Z AUTO 22008KT 10SM CLR A2983 RMK MADISHF
CMI,2017-02-11 06:35,M,M,M,220.00,7.00,M,29.83,M,10.00,M,CLR,M,M,M,M,M,M,M,M,KCMI 110635Z AUTO 22007KT 10SM CLR A2983 RMK MADISHF
CMI,2017-02-11 06:40,M,M,M,230.00,7.00,M,29.83,M,10.00,M,CLR,M,M,M,M,M,M,M,M,KCMI 110640Z AUTO 23007KT 10SM CLR A2983 RMK MADISHF
CMI,2017-02-11 06:45,M,M,M,230.00,6.00,M,29.83,M,10.00,M,CLR,M,M,M,M,M,M,M,M,KCMI 110645Z AUTO 23006KT 10SM CLR A2983 RMK MADISHF
CMI,2017-02-11 06:53,39.90,35.10,82.80,220.00,7.00,0.00,29.82,1010.20,10.00,M,CLR,M,M,M,M,M,M,M,M,KCMI 110653Z AUTO 22007KT 10SM CLR 04/02 A2982 RMK AO2 SLP102 T00440017
CMI,2017-02-11 07:00,M,M,M,210.00,7.00,M,29.82,M,10.00,M,CLR,M,M,M,M,M,M,M,M,KCMI 110700Z AUTO 21007KT 10SM CLR A2982 RMK MADISHF
CMI,2017-02-11 07:05,M,M,M,210.00,8.00,M,29.82,M,10.00,M,CLR,M,M,M,M,M,M,M,M,KCMI 110705Z AUTO 21008KT 10SM CLR A2982 RMK MADISHF
CMI,2017-02-11 07:10,M,M,M,210.00,9.00,M,29.82,M,10.00,M,CLR,M,M,M,M,M,M,M,M,KCMI 110710Z AUTO 21009KT 10SM CLR A2982 RMK MADISHF
CMI,2017-02-11 07:15,M,M,M,200.00,9.00,M,29.81,M,10.00,M,CLR,M,M,M,M,M,M,M,M,KCMI 110715Z AUTO 20009KT 10SM CLR A2981 RMK MADISHF
CMI,2017-02-11 07:20,M,M,M,200.00,9.00,M,29.81,M,10.00,M,CLR,M,M,M,M,M,M,M,M,KCMI 110720Z AUTO 20009KT 10SM CLR A2981 RMK MADISHF
CMI,2017-02-11 07:25,M,M,M,200.00,10.00,M,29.81,M,10.00,M,CLR,M,M,M,M,M,M,M,M,KCMI 110725Z AUTO 20010KT 10SM CLR A2981 RMK MADISHF
CMI,2017-02-11 07:30,M,M,M,200.00,11.00,M,29.82,M,10.00,M,CLR,M,M,M,M,M,M,M,M,KCMI 110730Z AUTO 20011KT 10SM CLR A2982 RMK MADISHF
CMI,2017-02-11 07:35,M,M,M,210.00,11.00,M,29.82,M,10.00,M,CLR,M,M,M,M,M,M,M,M,KCMI 110735Z AUTO 21011KT 10SM CLR A2982 RMK MADISHF
CMI,2017-02-11 07:40,M,M,M,210.00,12.00,M,29.82,M,10.00,M,CLR,M,M,M,M,M,M,M,M,KCMI 110740Z AUTO 21012KT 10SM CLR A2982 RMK MADISHF
CMI,2017-02-11 07:45,M,M,M,210.00,11.00,M,29.83,M,10.00,M,CLR,M,M,M,M,M,M,M,M,KCMI 110745Z AUTO 21011KT 10SM CLR A2983 RMK MADISHF
CMI,2017-02-11 07:50,M,M,M,210.00,11.00,M,29.83,M,10.00,M,CLR,M,M,M,M,M,M,M,M,KCMI 110750Z AUTO 21011KT 10SM CLR A2983 RMK MADISHF
CMI,2017-02-11 07:53,43.00,37.00,79.19,210.00,11.00,0.00,29.83,1010.30,10.00,M,CLR,M,M,M,M,M,M,M,M,KCMI 110753Z AUTO 21011KT 10SM CLR 06/03 A2983 RMK AO2 SLP103 T00610028
CMI,2017-02-11 08:00,M,M,M,210.00,11.00,M,29.82,M,10.00,M,CLR,M,M,M,M,M,M,M,M,KCMI 110800Z AUTO 21011KT 10SM CLR A2982 RMK MADISHF
CMI,2017-02-11 08:05,M,M,M,210.00,12.00,M,29.83,M,10.00,M,CLR,M,M,M,M,M,M,M,M,KCMI 110805Z AUTO 21012KT 10SM CLR A2983 RMK MADISHF
CMI,2017-02-11 08:10,M,M,M,210.00,11.00,M,29.83,M,10.00,M,CLR,M,M,M,M,M,M,M,M,KCMI 110810Z AUTO 21011KT 10SM CLR A2983 RMK MADISHF
CMI,2017-02-11 08:15,M,M,M,210.00,11.00,M,29.82,M,10.00,M,CLR,M,M,M,M,M,M,M,M,KCMI 110815Z AUTO 21011KT 10SM CLR A2982 RMK MADISHF
CMI,2017-02-11 08:20,M,M,M,210.00,11.00,M,29.82,M,10.00,M,CLR,M,M,M,M,M,M,M,M,KCMI 110820Z AUTO 21011KT 10SM CLR A2982 RMK MADISHF
CMI,2017-02-11 08:25,M,M,M,220.00,10.00,M,29.83,M,10.00,M,CLR,M,M,M,M,M,M,M,M,KCMI 110825Z AUTO 22010KT 10SM CLR A2983 RMK MADISHF
CMI,2017-02-11 08:30,M,M,M,210.00,9.00,M,29.82,M,10.00,M,CLR,M,M,M,M,M,M,M,M,KCMI 110830Z AUTO 21009KT 10SM CLR A2982 RMK MADISHF
CMI,2017-02-11 08:35,M,M,M,210.00,9.00,M,29.83,M,10.00,M,CLR,M,M,M,M,M,M,M,M,KCMI 110835Z AUTO 21009KT 10SM CLR A2983 RMK MADISHF
CMI,2017-02-11 08:40,M,M,M,220.00,8.00,M,29.83,M,10.00,M,CLR,M,M,M,M,M,M,M,M,KCMI 110840Z AUTO 22008KT 10SM CLR A2983 RMK MADISHF
CMI,2017-02-11 08:45,M,M,M,220.00,9.00,M,29.83,M,10.00,M,CLR,M,M,M,M,M,M,M,M,KCMI 110845Z AUTO 22009KT 10SM CLR A2983 RMK MADISHF
CMI,2017-02-11 08:50,M,M,M,210.00,9.00,M,29.83,M,10.00,M,CLR,M,M,M,M,M,M,M,M,KCMI 110850Z AUTO 21009KT 10SM CLR A2983 RMK MADISHF
CMI,2017-02-11 08:53,43.00,37.00,79.19,210.00,8.00,0.00,29.83,1010.30,10.00,M,CLR,M,M,M,M,M,M,M,M,KCMI 110853Z AUTO 21008KT 10SM CLR 06/03 A2983 RMK AO2 SLP103 T00610028 56001
CMI,2017-02-11 09:00,M,M,M,210.00,8.00,M,29.83,M,10.00,M,CLR,M,M,M,M,M,M,M,M,KCMI 110900Z AUTO 21008KT 10SM CLR A2983 RMK MADISHF
CMI,2017-02-11 09:05,M,M,M,210.00,9.00,M,29.83,M,10.00,M,CLR,M,M,M,M,M,M,M,M,KCMI 110905Z AUTO 21009KT 10SM CLR A2983 RMK MADISHF
CMI,2017-02-11 09:10,M,M,M,210.00,7.00,M,29.83,M,10.00,M,CLR,M,M,M,M,M,M,M,M,KCMI 110910Z AUTO 21007KT 10SM CLR A2983 RMK MADISHF
CMI,2017-02-11 09:15,M,M,M,220.00,7.00,M,29.83,M,10.00,M,CLR,M,M,M,M,M,M,M,M,KCMI 110915Z AUTO 22007KT 10SM CLR A2983 RMK MADISHF
CMI,2017-02-11 09:20,M,M,M,210.00,7.00,M,29.82,M,10.00,M,CLR,M,M,M,M,M,M,M,M,KCMI 110920Z AUTO 21007KT 10SM CLR A2982 RMK MADISHF
CMI,2017-02-11 09:25,M,M,M,210.00,7.00,M,29.82,M,10.00,M,CLR,M,M,M,M,M,M,M,M,KCMI 110925Z AUTO 21007KT 10SM CLR A2982 RMK MADISHF
CMI,2017-02-11 09:30,M,M,M,210.00,8.00,M,29.83,M,10.00,M,CLR,M,M,M,M,M,M,M,M,KCMI 110930Z AUTO 21008KT 10SM CLR A2983 RMK MADISHF
CMI,2017-02-11 09:35,M,M,M,210.00,7.00,M,29.83,M,10.00,M,CLR,M,M,M,M,M,M,M,M,KCMI 110935Z AUTO 21007KT 10SM CLR A2983 RMK MADISHF
CMI,2017-02-11 09:40,M,M,M,210.00,7.00,M,29.83,M,10.00,M,CLR,M,M,M,M,M,M,M,M,KCMI 110940Z AUTO 21007KT 10SM CLR A2983 RMK MADISHF
CMI,2017-02-11 09:45,M,M,M,210.00,7.00,M,29.83,M,10.00,M,CLR,M,M,M,M,M,M,M,M,KCMI 110945Z AUTO 21007KT 10SM CLR A2983 RMK MADISHF
CMI,2017-02-11 09:50,M,M,M,210.00,6.00,M,29.83,M,10.00,M,CLR,M,M,M,M,M,M,M,M,KCMI 110950Z AUTO 21006KT 10SM CLR A2983 RMK MADISHF
CMI,2017-02-11 09:53,42.10,37.00,81.98,210.00,6.00,0.00,29.83,1010.60,10.00,M,CLR,M,M,M,M,M,M,M,M,KCMI 110953Z AUTO 21006KT 10SM CLR 06/03 A2983 RMK AO2 SLP106 T00560028
CMI,2017-02-11 10:00,M,M,M,200.00,8.00,M,29.83,M,10.00,M,CLR,M,M,M,M,M,M,M,M,KCMI 111000Z AUTO 20008KT 10SM CLR A2983 RMK MADISHF
CMI,2017-02-11 10:05,M,M,M,200.00,7.00,M,29.84,M,10.00,M,CLR,M,M,M,M,M,M,M,M,KCMI 111005Z AUTO 20007KT 10SM CLR A2984 RMK MADISHF
CMI,2017-02-11 10:10,M,M,M,200.00,7.00,M,29.84,M,10.00,M,CLR,M,M,M,M,M,M,M,M,KCMI 111010Z AUTO 20007KT 10SM CLR A2984 RMK MADISHF
CMI,2017-02-11 10:15,M,M,M,200.00,5.00,M,29.84,M,10.00,M,CLR,M,M,M,M,M,M,M,M,KCMI 111015Z AUTO 20005KT 10SM CLR A2984 RMK MADISHF
CMI,2017-02-11 10:20,M,M,M,200.00,4.00,M,29.84,M,10.00,M,CLR,M,M,M,M,M,M,M,M,KCMI 111020Z AUTO 20004KT 10SM CLR A2984 RMK MADISHF
CMI,2017-02-11 10:25,M,M,M,190.00,4.00,M,29.83,M,10.00,M,CLR,M,M,M,M,M,M,M,M,KCMI 111025Z AUTO 19004KT 10SM CLR A2983 RMK MADISHF
CMI,2017-02-11 10:30,M,M,M,170.00,4.00,M,29.83,M,10.00,M,CLR,M,M,M,M,M,M,M,M,KCMI 111030Z AUTO 17004KT 10SM CLR A2983 RMK MADISHF
CMI,2017-02-11 10:35,M,M,M,170.00,4.00,M,29.84,M,10.00,M,CLR,M,M,M,M,M,M,M,M,KCMI 111035Z AUTO 17004KT 10SM CLR A2984 RMK MADISHF
CMI,2017-02-11 10:40,M,M,M,170.00,3.00,M,29.84,M,10.00,M,CLR,M,M,M,M,M,M,M,M,KCMI 111040Z AUTO 17003KT 10SM CLR A2984 RMK MADISHF
CMI,2017-02-11 10:45,M,M,M,170.00,4.00,M,29.84,M,10.00,M,CLR,M,M,M,M,M,M,M,M,KCMI 111045Z AUTO 17004KT 10SM CLR A2984 RMK MADISHF
CMI,2017-02-11 10:50,M,M,M,190.00,6.00,M,29.84,M,10.00,M,CLR,M,M,M,M,M,M,M,M,KCMI 111050Z AUTO 19006KT 10SM CLR A2984 RMK MADISHF
CMI,2017-02-11 10:53,41.00,36.00,82.22,190.00,7.00,0.00,29.83,1010.50,10.00,M,CLR,M,M,M,M,M,M,M,M,KCMI 111053Z AUTO 19007KT 10SM CLR 05/02 A2983 RMK AO2 SLP105 T00500022
CMI,2017-02-11 11:00,M,M,M,190.00,7.00,M,29.83,M,10.00,M,CLR,M,M,M,M,M,M,M,M,KCMI 111100Z AUTO 19007KT 10SM CLR A2983 RMK MADISHF
CMI,2017-02-11 11:05,M,M,M,200.00,7.00,M,29.83,M,10.00,M,CLR,M,M,M,M,M,M,M,M,KCMI 111105Z AUTO 20007KT 10SM CLR A2983 RMK MADISHF
CMI,2017-02-11 11:10,M,M,M,200.00,7.00,M,29.83,M,10.00,M,CLR,M,M,M,M,M,M,M,M,KCMI 111110Z AUTO 20007KT 10SM CLR A2983 RMK MADISHF
CMI,2017-02-11 11:15,M,M,M,200.00,8.00,M,29.83,M,10.00,M,CLR,M,M,M,M,M,M,M,M,KCMI 111115Z AUTO 20008KT 10SM CLR A2983 RMK MADISHF
CMI,2017-02-11 11:20,M,M,M,200.00,8.00,M,29.83,M,10.00,M,CLR,M,M,M,M,M,M,M,M,KCMI 111120Z AUTO 20008KT 10SM CLR A2983 RMK MADISHF
CMI,2017-02-11 11:25,M,M,M,190.00,8.00,M,29.83,M,10.00,M,CLR,M,M,M,M,M,M,M,M,KCMI 111125Z AUTO 19008KT 10SM CLR A2983 RMK MADISHF
CMI,2017-02-11 11:30,M,M,M,190.00,9.00,M,29.83,M,10.00,M,CLR,M,M,M,M,M,M,M,M,KCMI 111130Z AUTO 19009KT 10SM CLR A2983 RMK MADISHF
CMI,2017-02-11 11:35,M,M,M,200.00,8.00,M,29.84,M,10.00,M,CLR,M,M,M,M,M,M,M,M,KCMI 111135Z AUTO 20008KT 10SM CLR A2984 RMK MADISHF
CMI,2017-02-11 11:40,M,M,M,200.00,8.00,M,29.84,M,10.00,M,CLR,M,M,M,M,M,M,M,M,KCMI 111140Z AUTO 20008KT 10SM CLR A2984 RMK MADISHF
CMI,2017-02-11 11:45,M,M,M,200.00,7.00,M,29.84,M,10.00,M,CLR,M,M,M,M,M,M,M,M,KCMI 111145Z AUTO 20007KT 10SM CLR A2984 RMK MADISHF
CMI,2017-02-11 11:50,M,M,M,200.00,7.00,M,29.84,M,10.00,M,CLR,M,M,M,M,M,M,M,M,KCMI 111150Z AUTO 20007KT 10SM CLR A2984 RMK MADISHF
CMI,2017-02-11 11:53,39.00,35.10,85.76,200.00,7.00,0.00,29.84,1010.80,10.00,M,CLR,M,M,M,M,M,M,M,M,KCMI 111153Z 20007KT 10SM CLR 04/02 A2984 RMK AO2 SLP108 T00390017 10067 20039 51004
CMI,2017-02-11 12:00,M,M,M,200.00,7.00,M,29.84,M,10.00,M,CLR,M,M,M,M,M,M,M,M,KCMI 111200Z AUTO 20007KT 10SM CLR A2984 RMK MADISHF
CMI,2017-02-11 12:05,M,M,M,200.00,7.00,M,29.85,M,10.00,M,CLR,M,M,M,M,M,M,M,M,KCMI 111205Z AUTO 20007KT 10SM CLR A2985 RMK MADISHF
CMI,2017-02-11 12:10,M,M,M,210.00,7.00,M,29.85,M,10.00,M,CLR,M,M,M,M,M,M,M,M,KCMI 111210Z AUTO 21007KT 10SM CLR A2985 RMK MADISHF
CMI,2017-02-11 12:15,M,M,M,210.00,7.00,M,29.86,M,10.00,M,CLR,M,M,M,M,M,M,M,M,KCMI 111215Z AUTO 21007KT 10SM CLR A2986 RMK MADISHF
CMI,2017-02-11 12:20,M,M,M,210.00,7.00,M,29.86,M,10.00,M,CLR,M,M,M,M,M,M,M,M,KCMI 111220Z AUTO 21007KT 10SM CLR A2986 RMK MADISHF
CMI,2017-02-11 12:25,M,M,M,200.00,8.00,M,29.85,M,10.00,M,CLR,M,M,M,M,M,M,M,M,KCMI 111225Z AUTO 20008KT 10SM CLR A2985 RMK MADISHF
CMI,2017-02-11 12:30,M,M,M,200.00,7.00,M,29.86,M,10.00,M,CLR,M,M,M,M,M,M,M,M,KCMI 111230Z AUTO 20007KT 10SM CLR A2986 RMK MADISHF
CMI,2017-02-11 12:35,M,M,M,200.00,7.00,M,29.86,M,10.00,M,CLR,M,M,M,M,M,M,M,M,KCMI 111235Z AUTO 20007KT 10SM CLR A2986 RMK MADISHF
CMI,2017-02-11 12:40,M,M,M,200.00,8.00,M,29.86,M,10.00,M,CLR,M,M,M,M,M,M,M,M,KCMI 111240Z AUTO 20008KT 10SM CLR A2986 RMK MADISHF
CMI,2017-02-11 12:45,M,M,M,200.00,9.00,M,29.86,M,10.00,M,CLR,M,M,M,M,M,M,M,M,KCMI 111245Z AUTO 20009KT 10SM CLR A2986 RMK MADISHF
CMI,2017-02-11 12:50,M,M,M,200.00,8.00,M,29.86,M,10.00,M,CLR,M,M,M,M,M,M,M,M,KCMI 111250Z AUTO 20008KT 10SM CLR A2986 RMK MADISHF
CMI,2017-02-11 12:53,39.00,35.10,85.76,200.00,8.00,0.00,29.86,1011.70,10.00,M,CLR,M,M,M,M,M,M,M,M,KCMI 111253Z 20008KT 10SM CLR 04/02 A2986 RMK AO2 SLP117 T00390017
CMI,2017-02-11 13:00,M,M,M,200.00,9.00,M,29.86,M,10.00,M,CLR,M,M,M,M,M,M,M,M,KCMI 111300Z AUTO 20009KT 10SM CLR A2986 RMK MADISHF
CMI,2017-02-11 13:05,M,M,M,200.00,10.00,M,29.87,M,10.00,M,CLR,M,M,M,M,M,M,M,M,KCMI 111305Z AUTO 20010KT 10SM CLR A2987 RMK MADISHF
CMI,2017-02-11 13:10,M,M,M,210.00,10.00,M,29.87,M,10.00,M,CLR,M,M,M,M,M,M,M,M,KCMI 111310Z AUTO 21010KT 10SM CLR A2987 RMK MADISHF
CMI,2017-02-11 13:15,M,M,M,200.00,10.00,M,29.87,M,10.00,M,CLR,M,M,M,M,M,M,M,M,KCMI 111315Z AUTO 20010KT 10SM CLR A2987 RMK MADISHF
CMI,2017-02-11 13:20,M,M,M,210.00,9.00,M,29.87,M,10.00,M,CLR,M,M,M,M,M,M,M,M,KCMI 111320Z AUTO 21009KT 10SM CLR A2987 RMK MADISHF
CMI,2017-02-11 13:25,M,M,M,210.00,10.00,M,29.88,M,10.00,M,CLR,M,M,M,M,M,M,M,M,KCMI 111325Z AUTO 21010KT 10SM CLR A2988 RMK MADISHF
CMI,2017-02-11 13:30,M,M,M,210.00,9.00,M,29.88,M,10.00,M,CLR,M,M,M,M,M,M,M,M,KCMI 111330Z AUTO 21009KT 10SM CLR A2988 RMK MADISHF
CMI,2017-02-11 13:35,M,M,M,210.00,9.00,M,29.89,M,10.00,M,CLR,M,M,M,M,M,M,M,M,KCMI 111335Z AUTO 21009KT 10SM CLR A2989 RMK MADISHF
CMI,2017-02-11 13:40,M,M,M,220.00,9.00,M,29.89,M,10.00,M,CLR,M,M,M,M,M,M,M,M,KCMI 111340Z AUTO 22009KT 10SM CLR A2989 RMK MADISHF
CMI,2017-02-11 13:45,M,M,M,210.00,9.00,M,29.89,M,10.00,M,CLR,M,M,M,M,M,M,M,M,KCMI 111345Z AUTO 21009KT 10SM CLR A2989 RMK MADISHF
CMI,2017-02-11 13:50,M,M,M,210.00,8.00,M,29.89,M,10.00,M,CLR,M,M,M,M,M,M,M,M,KCMI 111350Z AUTO 21008KT 10SM CLR A2989 RMK MADISHF
CMI,2017-02-11 13:53,43.00,37.90,82.04,210.00,8.00,0.00,29.89,1012.50,10.00,M,CLR,M,M,M,M,M,M,M,M,KCMI 111353Z 21008KT 10SM CLR 06/03 A2989 RMK AO2 SLP125 T00610033
CMI,2017-02-11 14:00,M,M,M,220.00,9.00,M,29.89,M,10.00,M,CLR,M,M,M,M,M,M,M,M,KCMI 111400Z AUTO 22009KT 10SM CLR A2989 RMK MADISHF
CMI,2017-02-11 14:05,M,M,M,220.00,9.00,M,29.90,M,10.00,M,CLR,M,M,M,M,M,M,M,M,KCMI 111405Z AUTO 22009KT 10SM CLR A2990 RMK MADISHF
CMI,2017-02-11 14:10,M,M,M,220.00,8.00,M,29.90,M,10.00,M,CLR,M,M,M,M,M,M,M,M,KCMI 111410Z AUTO 22008KT 10SM CLR A2990 RMK MADISHF
CMI,2017-02-11 14:15,M,M,M,220.00,8.00,M,29.89,M,10.00,M,CLR,M,M,M,M,M,M,M,M,KCMI 111415Z AUTO 22008KT 10SM CLR A2989 RMK MADISHF
CMI,2017-02-11 14:20,M,M,M,210.00,8.00,M,29.89,M,10.00,M,CLR,M,M,M,M,M,M,M,M,KCMI 111420Z AUTO 21008KT 10SM CLR A2989 RMK MADISHF
CMI,2017-02-11 14:25,M,M,M,210.00,8.00,M,29.89,M,10.00,M,CLR,M,M,M,M,M,M,M,M,KCMI 111425Z AUTO 21008KT 10SM CLR A2989 RMK MADISHF
CMI,2017-02-11 14:30,M,M,M,220.00,8.00,M,29.90,M,10.00,M,CLR,M,M,M,M,M,M,M,M,KCMI 111430Z AUTO 22008KT 10SM CLR A2990 RMK MADISHF
CMI,2017-02-11 14:35,M,M,M,220.00,8.00,M,29.89,M,10.00,M,CLR,M,M,M,M,M,M,M,M,KCMI 111435Z AUTO 22008KT 10SM CLR A2989 RMK MADISHF
CMI,2017-02-11 14:40,M,M,M,220.00,8.00,M,29.90,M,10.00,M,CLR,M,M,M,M,M,M,M,M,KCMI 111440Z AUTO 22008KT 10SM CLR A2990 RMK MADISHF
CMI,2017-02-11 14:45,M,M,M,220.00,8.00,M,29.90,M,10.00,M,CLR,M,M,M,M,M,M,M,M,KCMI 111445Z AUTO 22008KT 10SM CLR A2990 RMK MADISHF
CMI,2017-02-11 14:50,M,M,M,220.00,9.00,M,29.89,M,10.00,M,CLR,M,M,M,M,M,M,M,M,KCMI 111450Z AUTO 22009KT 10SM CLR A2989 RMK MADISHF
CMI,2017-02-11 14:53,48.00,42.10,79.91,220.00,8.00,0.00,29.90,1012.70,10.00,M,CLR,M,M,M,M,M,M,M,M,KCMI 111453Z 22008KT 10SM CLR 09/06 A2990 RMK AO2 SLP127 T00890056 51019
CMI,2017-02-11 15:00,M,M,M,220.00,8.00,M,29.90,M,10.00,M,CLR,M,M,M,M,M,M,M,M,KCMI 111500Z AUTO 22008KT 10SM CLR A2990 RMK MADISHF
CMI,2017-02-11 15:05,M,M,M,240.00,8.00,M,29.90,M,10.00,M,CLR,M,M,M,M,M,M,M,M,KCMI 111505Z AUTO 24008KT 10SM CLR A2990 RMK MADISHF
CMI,2017-02-11 15:10,M,M,M,230.00,9.00,M,29.90,M,10.00,M,CLR,M,M,M,M,M,M,M,M,KCMI 111510Z AUTO 23009KT 10SM CLR A2990 RMK MADISHF
CMI,2017-02-11 15:15,M,M,M,230.00,7.00,M,29.90,M,10.00,M,CLR,M,M,M,M,M,M,M,M,KCMI 111515Z AUTO 23007KT 10SM CLR A2990 RMK MADISHF
CMI,2017-02-11 15:20,M,M,M,230.00,9.00,M,29.90,M,10.00,M,CLR,M,M,M,M,M,M,M,M,KCMI 111520Z AUTO 23009KT 10SM CLR A2990 RMK MADISHF
CMI,2017-02-11 15:25,M,M,M,230.00,8.00,M,29.90,M,10.00,M,CLR,M,M,M,M,M,M,M,M,KCMI 111525Z AUTO 23008KT 10SM CLR A2990 RMK MADISHF
CMI,2017-02-11 15:30,M,M,M,220.00,9.00,M,29.89,M,10.00,M,CLR,M,M,M,M,M,M,M,M,KCMI 111530Z AUTO 22009KT 10SM CLR A2989 RMK MADISHF
CMI,2017-02-11 15:35,M,M,M,220.00,9.00,M,29.89,M,10.00,M,CLR,M,M,M,M,M,M,M,M,KCMI 111535Z AUTO 22009KT 10SM CLR A2989 RMK MADISHF
CMI,2017-02-11 15:40,M,M,M,230.00,11.00,M,29.90,M,10.00,M,CLR,M,M,M,M,M,M,M,M,KCMI 111540Z AUTO 23011KT 10SM CLR A2990 RMK MADISHF
CMI,2017-02-11 15:45,M,M,M,230.00,10.00,M,29.90,M,10.00,M,CLR,M,M,M,M,M,M,M,M,KCMI 111545Z AUTO 23010KT 10SM CLR A2990 RMK MADISHF
CMI,2017-02-11 15:50,M,M,M,220.00,8.00,M,29.90,M,10.00,M,CLR,M,M,M,M,M,M,M,M,KCMI 111550Z AUTO 22008KT 10SM CLR A2990 RMK MADISHF
CMI,2017-02-11 15:53,53.10,46.90,79.40,240.00,8.00,0.00,29.90,1012.70,10.00,M,CLR,M,M,M,M,M,M,M,M,KCMI 111553Z 24008KT 10SM CLR 12/08 A2990 RMK AO2 SLP127 T01170083
CMI,2017-02-11 16:00,M,M,M,230.00,8.00,M,29.90,M,10.00,M,CLR,M,M,M,M,M,M,M,M,KCMI 111600Z AUTO 23008KT 10SM CLR A2990 RMK MADISHF
CMI,2017-02-11 16:05,M,M,M,230.00,9.00,M,29.90,M,10.00,M,CLR,M,M,M,M,M,M,M,M,KCMI 111605Z AUTO 23009KT 10SM CLR A2990 RMK MADISHF
CMI,2017-02-11 16:10,M,M,M,210.00,9.00,M,29.90,M,10.00,M,CLR,M,M,M,M,M,M,M,M,KCMI 111610Z AUTO 21009KT 10SM CLR A2990 RMK MADISHF
CMI,2017-02-11 16:15,M,M,M,220.00,10.00,M,29.89,M,10.00,M,CLR,M,M,M,M,M,M,M,M,KCMI 111615Z AUTO 22010KT 10SM CLR A2989 RMK MADISHF
CMI,2017-02-11 16:20,M,M,M,210.00,11.00,M,29.90,M,10.00,M,CLR,M,M,M,M,M,M,M,M,KCMI 111620Z AUTO 21011KT 10SM CLR A2990 RMK MADISHF
CMI,2017-02-11 16:25,M,M,M,220.00,8.00,M,29.90,M,10.00,M,CLR,M,M,M,M,M,M,M,M,KCMI 111625Z AUTO 22008KT 10SM CLR A2990 RMK MADISHF
CMI,2017-02-11 16:30,M,M,M,230.00,7.00,M,29.90,M,10.00,M,CLR,M,M,M,M,M,M,M,M,KCMI 111630Z AUTO 23007KT 10SM CLR A2990 RMK MADISHF
CMI,2017-02-11 16:35,M,M,M,210.00,8.00,M,29.90,M,10.00,M,CLR,M,M,M,M,M,M,M,M,KCMI 111635Z AUTO 21008KT 10SM CLR A2990 RMK MADISHF
CMI,2017-02-11 16:40,M,M,M,220.00,6.00,M,29.90,M,10.00,M,CLR,M,M,M,M,M,M,M,M,KCMI 111640Z AUTO 22006KT 10SM CLR A2990 RMK MADISHF
CMI,2017-02-11 16:45,M,M,M,220.00,6.00,M,29.90,M,10.00,M,CLR,M,M,M,M,M,M,M,M,KCMI 111645Z AUTO 22006KT 10SM CLR A2990 RMK MADISHF
CMI,2017-02-11 16:50,M,M,M,230.00,7.00,M,29.90,M,10.00,M,CLR,M,M,M,M,M,M,M,M,KCMI 111650Z AUTO 23007KT 10SM CLR A2990 RMK MADISHF
CMI,2017-02-11 16:53,57.90,50.00,74.91,230.00,8.00,0.00,29.90,1012.60,10.00,M,CLR,M,M,M,M,M,M,M,M,KCMI 111653Z 23008KT 10SM CLR 14/10 A2990 RMK AO2 SLP126 T01440100
CMI,2017-02-11 17:00,M,M,M,240.00,7.00,M,29.90,M,10.00,M,CLR,M,M,M,M,M,M,M,M,KCMI 111700Z AUTO 24007KT 10SM CLR A2990 RMK MADISHF
CMI,2017-02-11 17:05,M,M,M,220.00,8.00,M,29.90,M,10.00,M,CLR,M,M,M,M,M,M,M,M,KCMI 111705Z AUTO 22008KT 10SM CLR A2990 RMK MADISHF
CMI,2017-02-11 17:10,M,M,M,230.00,7.00,M,29.90,M,10.00,M,CLR,M,M,M,M,M,M,M,M,KCMI 111710Z AUTO 23007KT 10SM CLR A2990 RMK MADISHF
CMI,2017-02-11 17:15,M,M,M,240.00,8.00,M,29.89,M,10.00,M,CLR,M,M,M,M,M,M,M,M,KCMI 111715Z AUTO 24008KT 10SM CLR A2989 RMK MADISHF
CMI,2017-02-11 17:20,M,M,M,240.00,8.00,M,29.90,M,10.00,M,CLR,M,M,M,M,M,M,M,M,KCMI 111720Z AUTO 24008KT 10SM CLR A2990 RMK MADISHF
CMI,2017-02-11 17:25,M,M,M,240.00,8.00,M,29.90,M,10.00,M,CLR,M,M,M,M,M,M,M,M,KCMI 111725Z AUTO 24008KT 10SM CLR A2990 RMK MADISHF
CMI,2017-02-11 17:30,M,M,M,240.00,7.00,M,29.89,M,10.00,M,CLR,M,M,M,M,M,M,M,M,KCMI 111730Z AUTO 24007KT 10SM CLR A2989 RMK MADISHF
CMI,2017-02-11 17:35,M,M,M,240.00,6.00,M,29.89,M,10.00,M,CLR,M,M,M,M,M,M,M,M,KCMI 111735Z AUTO 24006KT 10SM CLR A2989 RMK MADISHF
CMI,2017-02-11 17:40,M,M,M,240.00,6.00,M,29.88,M,10.00,M,CLR,M,M,M,M,M,M,M,M,KCMI 111740Z AUTO 24006KT 10SM CLR A2988 RMK MADISHF
CMI,2017-02-11 17:45,M,M,M,250.00,6.00,M,29.88,M,10.00,M,CLR,M,M,M,M,M,M,M,M,KCMI 111745Z AUTO 25006KT 10SM CLR A2988 RMK MADISHF
CMI,2017-02-11 17:50,M,M,M,240.00,5.00,M,29.89,M,10.00,M,CLR,M,M,M,M,M,M,M,M,KCMI 111750Z AUTO 24005KT 10SM CLR A2989 RMK MADISHF
CMI,2017-02-11 17:53,60.10,51.10,72.13,230.00,7.00,0.00,29.88,1012.10,10.00,M,CLR,M,M,M,M,M,M,M,M,KCMI 111753Z 23007KT 10SM CLR 16/11 A2988 RMK AO2 SLP121 T01560106 10156 20033 58004
CMI,2017-02-11 18:00,M,M,M,230.00,5.00,M,29.88,M,10.00,M,CLR,M,M,M,M,M,M,M,M,KCMI 111800Z AUTO 23005KT 10SM CLR A2988 RMK MADISHF
CMI,2017-02-11 18:05,M,M,M,240.00,6.00,M,29.89,M,10.00,M,CLR,M,M,M,M,M,M,M,M,KCMI 111805Z AUTO 24006KT 10SM CLR A2989 RMK MADISHF
CMI,2017-02-11 18:10,M,M,M,230.00,5.00,M,29.88,M,10.00,M,CLR,M,M,M,M,M,M,M,M,KCMI 111810Z AUTO 23005KT 10SM CLR A2988 RMK MADISHF
CMI,2017-02-11 18:15,M,M,M,220.00,5.00,M,29.88,M,10.00,M,FEW,M,M,M,1800.00,M,M,M,M,KCMI 111815Z AUTO 22005KT 10SM FEW018 A2988 RMK MADISHF
CMI,2017-02-11 18:20,M,M,M,210.00,5.00,M,29.88,M,10.00,M,FEW,M,M,M,1800.00,M,M,M,M,KCMI 111820Z AUTO 21005KT 10SM FEW018 A2988 RMK MADISHF
CMI,2017-02-11 18:25,M,M,M,240.00,6.00,M,29.88,M,10.00,M,FEW,M,M,M,1800.00,M,M,M,M,KCMI 111825Z AUTO 24006KT 10SM FEW018 A2988 RMK MADISHF
CMI,2017-02-11 18:30,M,M,M,230.00,3.00,M,29.88,M,10.00,M,FEW,M,M,M,1800.00,M,M,M,M,KCMI 111830Z AUTO 23003KT 10SM FEW018 A2988 RMK MADISHF
CMI,2017-02-11 18:35,M,M,M,240.00,4.00,M,29.87,M,10.00,M,FEW,M,M,M,1800.00,M,M,M,M,KCMI 111835Z AUTO 24004KT 10SM FEW018 A2987 RMK MADISHF
CMI,2017-02-11 18:40,M,M,M,280.00,3.00,M,29.87,M,10.00,M,FEW,M,M,M,1800.00,M,M,M,M,KCMI 111840Z AUTO 28003KT 10SM FEW018 A2987 RMK MADISHF
CMI,2017-02-11 18:45,M,M,M,170.00,3.00,M,29.86,M,10.00,M,FEW,M,M,M,1800.00,M,M,M,M,KCMI 111845Z AUTO 17003KT 10SM FEW018 A2986 RMK MADISHF
CMI,2017-02-11 18:50,M,M,M,0.00,0.00,M,29.86,M,10.00,M,CLR,M,M,M,M,M,M,M,M,KCMI 111850Z AUTO 00000KT 10SM CLR A2986 RMK MADISHF
CMI,2017-02-11 18:53,60.10,51.10,72.13,M,3.00,0.00,29.86,1011.40,10.00,M,CLR,M,M,M,M,M,M,M,M,KCMI 111853Z VRB03KT 10SM CLR 16/11 A2986 RMK AO2 SLP114 T01560106
